{"version": 0.6, "generator": "Overpass API 0.7.58.5 b0c4acbb", "osm3s": {"timestamp_osm_base": "2022-08-22T13:54:07Z", "copyright": "The data included in this document is from www.openstreetmap.org. The data is made available under ODbL."}, "elements": [{"type": "node", "id": 819552792, "lat": 41.3943466, "lon": 2.1675145, "tags": {"amenity": "cafe", "name": "Bracafe"}}, {"type": "node", "id": 930158082, "lat": 41.4007455, "lon": 2.1743821, "tags": {"amenity": "cafe", "name": "Brasilia cafe", "wheelchair": "limited"}}, {"type": "node", "id": 1517875857, "lat": 41.3983766, "lon": 2.1678633, "tags": {"addr:housenumber": "337", "addr:postcode": "08037", "addr:street": "Avinguda Diagonal", "amenity": "bar", "entrance": "yes", "internet_access": "wlan", "internet_access:fee": "no", "name": "San Basilio BCN", "was:email": "lerougebcn@gmail.com", "was:phone": "+34936670473", "was:website": "http://pixelhub.me/lerouge"}}, {"type": "node", "id": 1867549302, "lat": 41.4004872, "lon": 2.1657166, "tags": {"addr:housenumber": "165-167", "addr:street": "Carrer de Bail\u00e8n", "brand": "Lidl", "brand:wikidata": "Q151954", "brand:wikipedia": "en:Lidl", "entrance": "yes", "name": "Lidl", "opening_hours": "Mo-Sa 09:00-21:00", "shop": "supermarket", "website": "https://www.lidl.es/"}}, {"type": "node", "id": 1867549486, "lat": 41.3996987, "lon": 2.1679035, "tags": {"brand": "Bonpreu", "brand:wikidata": "Q11924747", "brand:wikipedia": "ca:Grup Bon Preu", "name": "Bonpreu", "shop": "supermarket", "wheelchair": "yes"}}, {"type": "node", "id": 1870219445, "lat": 41.3971102, "lon": 2.1723951, "tags": {"addr:housenumber": "55", "addr:street": "Passeig de Sant Joan", "amenity": "restaurant", "name": "Snack 55"}}, {"type": "node", "id": 1951819647, "lat": 41.3965084, "lon": 2.1682109, "tags": {"addr:city": "Barcelona", "addr:country": "ES", "addr:housenumber": "317", "addr:postcode": "08009", "addr:state": "Catalonia", "addr:street": "Carrer de Val\u00e8ncia", "brand": "Superestalvi", "name": "Superestalvi", "shop": "supermarket"}}, {"type": "node", "id": 1960248155, "lat": 41.3994885, "lon": 2.165101, "tags": {"addr:city": "Barcelona", "addr:country": "ES", "addr:housenumber": "162", "addr:postcode": "08009", "addr:state": "Catalonia", "addr:street": "Carrer de Girona", "amenity": "bar", "cuisine": "tapas", "entrance": "yes", "food": "yes", "name": "Bar Morryssom", "opening_hours": "Mo-Fr 08:00-01:00; Sa 08:00-18:00", "phone": "+34 934 58 40 17", "smoking": "no"}}, {"type": "node", "id": 1960258200, "lat": 41.40124, "lon": 2.1650604, "tags": {"addr:city": "Barcelona", "addr:country": "ES", "addr:housenumber": "188", "addr:postcode": "08037", "addr:state": "Catalonia", "addr:street": "Carrer de Bail\u00e8n", "amenity": "bar", "entrance": "yes", "food": "yes", "internet_access": "wlan", "name": "Caf\u00e9 Adonis 1940", "smoking": "no", "wheelchair": "no"}}, {"type": "node", "id": 1960265760, "lat": 41.4012654, "lon": 2.164692, "tags": {"addr:city": "Barcelona", "addr:housenumber": "181-183", "addr:postcode": "08037", "addr:street": "Carrer de Bail\u00e8n", "amenity": "cafe", "cuisine": "spanish", "entrance": "yes", "name": "Caf\u00e9 El Gust"}}, {"type": "node", "id": 1960271475, "lat": 41.3991168, "lon": 2.1671319, "tags": {"addr:city": "Barcelona", "addr:country": "ES", "addr:housenumber": "325", "addr:postcode": "08025", "addr:state": "Catalonia", "addr:street": "Carrer de Proven\u00e7a", "amenity": "cafe", "cuisine": "spanish", "entrance": "yes", "name": "Snack 325"}}, {"type": "node", "id": 1960328245, "lat": 41.4003526, "lon": 2.1658891, "tags": {"addr:city": "Barcelona", "addr:country": "ES", "addr:housenumber": "161-163", "addr:postcode": "08009", "addr:state": "Catalonia", "addr:street": "Carrer de Bail\u00e8n", "brand": "Caprabo", "brand:wikidata": "Q1980781", "brand:wikipedia": "en:Caprabo", "entrance": "yes", "name": "Caprabo", "shop": "supermarket"}}, {"type": "node", "id": 1960332876, "lat": 41.4003274, "lon": 2.1679241, "tags": {"addr:city": "Barcelona", "addr:country": "ES", "addr:housenumber": "119", "addr:postcode": "08025", "addr:state": "Catalonia", "addr:street": "Passeig de Sant Joan", "brand": "La Sirena", "brand:wikidata": "Q21034458", "name": "La Sirena", "shop": "frozen_food", "website": "https://www.lasirena.es/"}}, {"type": "node", "id": 1960366982, "lat": 41.3962525, "lon": 2.1685646, "tags": {"addr:city": "Barcelona", "addr:housenumber": "14", "addr:postcode": "08009", "addr:street": "Passatge del Mercat", "amenity": "restaurant", "cuisine": "spanish", "email": "hola@casaamalia.com", "name": "Casa Amalia", "opening_hours": "Mo-Su 13:00-17:30; 19:30-00:00", "outdoor_seating": "yes", "phone": "+34 (93) 458 94 58", "reservation": "yes", "smoking": "outside", "takeaway": "no", "website": "https://casaamalia.com/", "wheelchair": "yes"}}, {"type": "node", "id": 1960370844, "lat": 41.395533, "lon": 2.1689106, "tags": {"addr:housenumber": "313-317", "addr:street": "Carrer d'Arag\u00f3", "brand": "Caprabo", "brand:wikidata": "Q1980781", "brand:wikipedia": "en:Caprabo", "name": "Caprabo", "opening_hours": "Mo-Sa 09:00-21:00", "shop": "supermarket", "website": "https://www.tiendeo.com/Tiendas/Barcelona/caprabo-carrer-de-la-marina/200", "wheelchair": "yes"}}, {"type": "node", "id": 1960379371, "lat": 41.3957961, "lon": 2.1693881, "tags": {"name": "Can Ravell", "shop": "deli"}}, {"type": "node", "id": 1960381242, "lat": 41.3971278, "lon": 2.1679441, "tags": {"amenity": "cafe", "cuisine": "coffee_shop", "name": "Caf\u00e9 Caracas", "outdoor_seating": "yes", "smoking": "outside"}}, {"type": "node", "id": 1960390604, "lat": 41.3970754, "lon": 2.1679535, "tags": {"addr:city": "Barcelona", "addr:country": "ES", "addr:housenumber": "119", "addr:postcode": "08009", "addr:state": "Catalonia", "addr:street": "Carrer de Girona", "description": "Japanese deli", "entrance": "yes", "name": "Tokyo Ya", "shop": "deli"}}, {"type": "node", "id": 2137277603, "lat": 41.398798, "lon": 2.1708209, "tags": {"addr:housenumber": "96", "addr:street": "Passeig de Sant Joan", "amenity": "cafe", "name": "On Caf\u00e9", "opening_hours": "Mo-Fr 08:00-17:00", "outdoor_seating": "yes", "wheelchair": "yes"}}, {"type": "node", "id": 2250304777, "lat": 41.3949532, "lon": 2.1746886, "tags": {"addr:city": "Barcelona", "addr:country": "ES", "addr:housenumber": "17-18", "addr:postcode": "08010", "addr:street": "Pla\u00e7a de Tetuan", "amenity": "cafe", "name": "Bracaf\u00e9"}}, {"type": "node", "id": 2264581901, "lat": 41.3940517, "lon": 2.1739923, "tags": {"addr:city": "Barcelona", "addr:housenumber": "667", "addr:street": "Gran Via de les Corts Catalanes", "amenity": "cafe", "entrance": "yes", "name": "Venezia", "name:es": "Venezia"}}, {"type": "node", "id": 2264591763, "lat": 41.3956355, "lon": 2.1760801, "tags": {"addr:city": "Barcelona", "addr:country": "ES", "addr:housenumber": "33", "addr:postcode": "08010", "addr:street": "Pla\u00e7a de Tetuan", "name": "Forn Artes\u00e0", "name:ca": "Forn Artes\u00e0", "shop": "bakery", "toilets:wheelchair": "yes", "wheelchair": "yes"}}, {"type": "node", "id": 2553347018, "lat": 41.3970016, "lon": 2.1684021, "tags": {"addr:city": "Barcelona", "addr:housenumber": "114", "addr:postcode": "08009", "addr:street": "Carrer de Girona", "brand": "Granja Armengol", "entrance": "yes", "name": "Granja Armengol", "shop": "deli", "wheelchair": "yes"}}, {"type": "node", "id": 2624026041, "lat": 41.3946246, "lon": 2.1706443, "tags": {"addr:city": "Barcelona", "addr:housenumber": "366", "addr:street": "Carrer del Consell de Cent", "brand": "Mercadona", "brand:wikidata": "Q377705", "brand:wikipedia": "es:Mercadona", "name": "Mercadona", "opening_hours": "Mo-Sa 09:00-21:00", "phone": "+34 932 72 55 86", "shop": "supermarket", "website": "https://www.mercadona.es"}}, {"type": "node", "id": 2682230049, "lat": 41.4013139, "lon": 2.1655191, "tags": {"addr:city": "Barcelona", "addr:housenumber": "431", "addr:postcode": "08037", "addr:street": "Carrer de C\u00f2rsega", "brand": "Dia", "brand:wikidata": "Q925132", "brand:wikipedia": "es:DIA (supermercados)", "name": "Dia", "operator": "Distribuidora Internacional de Alimentaci\u00f3n, S.A.", "shop": "supermarket", "website": "https://www.dia.es"}}, {"type": "node", "id": 2682230054, "lat": 41.4014755, "lon": 2.1672056, "tags": {"addr:city": "Barcelona", "addr:housenumber": "138", "addr:postcode": "08037", "addr:street": "Passeig de Sant Joan", "brand": "Supercor", "brand:wikidata": "Q6135841", "brand:wikipedia": "es:Supercor", "name": "Supercor Expr\u00e9s", "shop": "convenience"}}, {"type": "node", "id": 2821538743, "lat": 41.3991923, "lon": 2.1649454, "tags": {"addr:housenumber": "307", "addr:street": "Carrer del Rossell\u00f3", "amenity": "restaurant", "cuisine": "japanese", "name": "Wok Yutaka", "opening_hours": "Mo-Su 13:00-16:30,20:00-24:00", "wheelchair": "no"}}, {"type": "node", "id": 2969276208, "lat": 41.4018811, "lon": 2.1668345, "tags": {"amenity": "bar", "name": "Cerveseria Oller"}}, {"type": "node", "id": 2969276707, "lat": 41.4020744, "lon": 2.1709765, "tags": {"amenity": "bar", "name": "Insbruck"}}, {"type": "node", "id": 2969276710, "lat": 41.4015797, "lon": 2.1703779, "tags": {"amenity": "restaurant", "cuisine": "egyptian", "name": "Restaurante T\u00fat"}}, {"type": "node", "id": 2969276715, "lat": 41.4008813, "lon": 2.1694222, "tags": {"name": "D&D", "shop": "convenience"}}, {"type": "node", "id": 2969276726, "lat": 41.4018203, "lon": 2.16595, "tags": {"addr:housenumber": "149", "addr:street": "Passeig de Sant Joan", "amenity": "bar", "entrance": "yes", "name": "La Font"}}, {"type": "node", "id": 2969276825, "lat": 41.4010302, "lon": 2.1694115, "tags": {"amenity": "bar", "name": "Toni", "name:ca": "Can Joan"}}, {"type": "node", "id": 2969276827, "lat": 41.4007814, "lon": 2.1693528, "tags": {"amenity": "bar", "name": "Pereira"}}, {"type": "node", "id": 2969276828, "lat": 41.4007592, "lon": 2.1693233, "tags": {"amenity": "restaurant", "cuisine": "sushi", "internet_access": "wlan", "name": "Ra\u00edces"}}, {"type": "node", "id": 2969277268, "lat": 41.4020805, "lon": 2.1708319, "tags": {"amenity": "restaurant", "name": "Pizzeria"}}, {"type": "node", "id": 2969277271, "lat": 41.401338, "lon": 2.1700718, "tags": {"name": "Area Fresca", "shop": "greengrocer"}}, {"type": "node", "id": 2969277272, "lat": 41.4012937, "lon": 2.169935, "tags": {"amenity": "restaurant", "cuisine": "chinese", "name": "Ciudad Nueva", "name:ca": "Ciutat Nova", "name:es": "Ciudad Nueva"}}, {"type": "node", "id": 2969277275, "lat": 41.4005021, "lon": 2.1690108, "tags": {"addr:city": "Barcelona", "addr:housenumber": "351", "addr:postcode": "08037", "addr:street": "Carrer de Proven\u00e7a", "amenity": "cafe", "cuisine": "regional", "name": "Caf\u00e9 de l'Eixample", "outdoor_seating": "pedestrian_zone"}}, {"type": "node", "id": 2969277280, "lat": 41.4008948, "lon": 2.1680147, "tags": {"addr:housenumber": "128", "addr:street": "Passeig de Sant Joan", "amenity": "restaurant", "cuisine": "chinese", "internet_access": "wlan", "name": "La Canela", "name:ca": "Cuina Xinesa Tradicional"}}, {"type": "node", "id": 2969277282, "lat": 41.4007106, "lon": 2.1672657, "tags": {"amenity": "bar", "name": "Espai Caf\u00e8"}}, {"type": "node", "id": 3288203861, "lat": 41.3966434, "lon": 2.1684004, "tags": {"name:signed": "no", "shop": "kiosk"}}, {"type": "node", "id": 3328694986, "lat": 41.3993868, "lon": 2.1678264, "tags": {"addr:housenumber": "354", "addr:postcode": "08037", "addr:street": "Carrer de Proven\u00e7a", "amenity": "restaurant", "entrance": "yes", "name": "La Antigua Caba\u00f1a"}}, {"type": "node", "id": 3481125198, "lat": 41.3952194, "lon": 2.1660394, "tags": {"amenity": "restaurant", "cuisine": "italian", "name": "Trattatoria"}}, {"type": "node", "id": 3656600913, "lat": 41.3980948, "lon": 2.1703022, "tags": {"name": "Creyon Cafe", "shop": "coffee"}}, {"type": "node", "id": 3702792934, "lat": 41.3964592, "lon": 2.1688152, "tags": {"amenity": "cafe", "name": "Bracaf\u00e9"}}, {"type": "node", "id": 3702796909, "lat": 41.3957831, "lon": 2.1700973, "tags": {"amenity": "restaurant", "name:en": "Bar caf\u00e9 imes"}}, {"type": "node", "id": 3702802028, "lat": 41.4011612, "lon": 2.1693811, "tags": {"amenity": "restaurant", "name": "Nostrum"}}, {"type": "node", "id": 3711010705, "lat": 41.3931568, "lon": 2.1659406, "tags": {"addr:city": "Barcelona", "addr:housenumber": "279", "addr:postcode": "08007", "addr:street": "Carrer d'Arag\u00f3", "amenity": "restaurant", "cuisine": "regional", "name": "La Rita", "phone": "+34 93 487 23 76"}}, {"type": "node", "id": 3713407018, "lat": 41.3958602, "lon": 2.1700693, "tags": {"amenity": "restaurant", "cuisine": "vietnamese", "name:en": "Pho Saigon"}}, {"type": "node", "id": 3784439301, "lat": 41.3969, "lon": 2.1663272, "tags": {"amenity": "cafe", "name": "de Tapa Madre"}}, {"type": "node", "id": 3784439303, "lat": 41.3968924, "lon": 2.1667115, "tags": {"name": "Mallorca", "opening_hours": "24/7", "shop": "supermarket"}}, {"type": "node", "id": 3874539219, "lat": 41.3946111, "lon": 2.1712059, "tags": {"addr:housenumber": "69", "addr:street": "Carrer de Girona", "amenity": "restaurant", "name": "Caf\u00e9 del Centre", "name:ca": "Caf\u00e9 del Centre", "opening_hours": "Su, Tu-Th 11:30-23:00; Fr-Sa 11:30-01:30", "phone": "+34934881101", "website": "http://cafedelcentre.cat/"}}, {"type": "node", "id": 3996165257, "lat": 41.4016882, "lon": 2.1757519, "tags": {"addr:city": "Barcelona", "addr:housenumber": "292", "addr:postcode": "08013", "addr:street": "Carrer de Sardenya", "amenity": "bar", "description": "Bar barcelona : los due\u00f1os son muy majos ^.^", "name": "Bar barcelona"}}, {"type": "node", "id": 4011340185, "lat": 41.4020057, "lon": 2.1645948, "tags": {"addr:city": "Barcelona", "addr:housenumber": "6", "addr:postcode": "08037", "addr:street": "Carrer de la Ind\u00fastria", "amenity": "restaurant", "cuisine": "regional", "name": "Salamanca"}}, {"type": "node", "id": 4012579958, "lat": 41.4019432, "lon": 2.1645151, "tags": {"addr:city": "Barcelona", "addr:housenumber": "4", "addr:postcode": "08037", "addr:street": "Carrer de la Ind\u00fastria", "name": "Llegums Cardona", "phone": "+34 93 20769 58", "shop": "convenience", "wheelchair": "limited"}}, {"type": "node", "id": 4025705989, "lat": 41.4014001, "lon": 2.1645174, "tags": {"addr:city": "Barcelona", "addr:housenumber": "185", "addr:postcode": "08037", "addr:street": "Carrer de Bail\u00e8n", "name": "Superprecio", "shop": "supermarket"}}, {"type": "node", "id": 4126640974, "lat": 41.3987602, "lon": 2.1695787, "tags": {"addr:city": "Barcelona", "addr:housenumber": "329", "addr:postcode": "08009", "addr:street": "Avinguda Diagonal", "diet:vegan": "only", "drink:club-mate": "retail", "name": "EcoCentre", "opening_hours": "Mo-Sa 10:00-21:00", "organic": "yes", "phone": "+34 932 075 785", "shop": "supermarket", "source": "http://www.ecocentre.cat/", "website": "http://www.ecocentre.cat/"}}, {"type": "node", "id": 4126668693, "lat": 41.3969644, "lon": 2.1709338, "tags": {"addr:housenumber": "341", "addr:street": "Carrer d'Arag\u00f3", "amenity": "pub", "name": "Pi-Ka-Ko"}}, {"type": "node", "id": 4126673510, "lat": 41.3964381, "lon": 2.1708261, "tags": {"amenity": "restaurant", "name": "O Porto"}}, {"type": "node", "id": 4126674444, "lat": 41.3964439, "lon": 2.1710569, "tags": {"amenity": "restaurant", "name": "El Tunel"}}, {"type": "node", "id": 4178619708, "lat": 41.3943183, "lon": 2.1702666, "tags": {"addr:housenumber": "362", "addr:street": "Consell de Cent", "amenity": "restaurant", "name": "Re\u00f1\u00e9"}}, {"type": "node", "id": 4184893895, "lat": 41.3970082, "lon": 2.1666011, "tags": {"addr:housenumber": "303", "addr:street": "Carrer de Mallorca", "amenity": "restaurant", "entrance": "yes", "name": "Gurqui Restaurant"}}, {"type": "node", "id": 4184950989, "lat": 41.3970456, "lon": 2.1669902, "tags": {"addr:housenumber": "304", "addr:street": "Carrer de Mallorca", "amenity": "restaurant", "name": "Restaurant Embattled", "opening_hours": "Mo-Su 08:30-15:45, 20:30-23:00", "phone": "+34934580855"}}, {"type": "node", "id": 4189753793, "lat": 41.3931667, "lon": 2.1704917, "tags": {"amenity": "cafe", "internet_access": "wlan", "name": "ingredients cafe"}}, {"type": "node", "id": 4209634490, "lat": 41.3954245, "lon": 2.1671726, "tags": {"addr:housenumber": "324", "addr:street": "Carrer de Val\u00e8ncia", "amenity": "restaurant", "internet_access": "wlan", "name": "Can Cargol"}}, {"type": "node", "id": 4224373289, "lat": 41.3995163, "lon": 2.1703903, "tags": {"amenity": "restaurant", "name": "Enrique Tomas", "toilets:wheelchair": "yes", "wheelchair": "yes"}}, {"type": "node", "id": 4227926591, "lat": 41.3976109, "lon": 2.1724897, "tags": {"addr:housenumber": "82", "addr:postcode": "08013", "addr:street": "Passeig de Sant Joan", "amenity": "restaurant", "cuisine": "spanish", "email": "hello@granjapetitbo.com", "internet_access": "wlan", "name": "Granja Petitbo", "name:ca": "Granja Petitbo", "name:es": "Granja Petitbo", "opening_hours": "Mo-We 09:00-23:30; Th-Fr 09:00-00:00; Sa 10:00-00:00; Su 10:00-23:30", "phone": "+34 932656503", "website": "http://granjapetitbo.com"}}, {"type": "node", "id": 4236018213, "lat": 41.3941891, "lon": 2.1758677, "tags": {"addr:city": "Barcelona", "addr:housenumber": "4", "addr:postcode": "08010", "addr:street": "Pla\u00e7a de Tetuan", "amenity": "cafe", "cuisine": "regional", "internet_access": "wlan", "name": "Giulietta", "website": "https://www.giulietta.cat/"}}, {"type": "node", "id": 4236018215, "lat": 41.3942225, "lon": 2.1753714, "tags": {"addr:city": "Barcelona", "addr:housenumber": "8", "addr:postcode": "08010", "addr:street": "Pla\u00e7a de Tetuan", "name": "Maa Supermercat", "shop": "convenience"}}, {"type": "node", "id": 4253851490, "lat": 41.3937976, "lon": 2.1655309, "tags": {"addr:housenumber": "143", "addr:postcode": "08009", "addr:street": "Carrer de Pau Claris", "amenity": "cafe", "diet:vegetarian": "yes", "name": "Happy day vegetariano"}}, {"type": "node", "id": 4254708858, "lat": 41.3932626, "lon": 2.1752293, "tags": {"brand": "Carrefour Express", "brand:wikidata": "Q2940190", "brand:wikipedia": "fr:Carrefour Express", "name": "Carrefour Express", "opening_hours": "Mo-Sa 09:00-21:00", "shop": "convenience"}}, {"type": "node", "id": 4254709544, "lat": 41.3936112, "lon": 2.1747834, "tags": {"amenity": "restaurant", "name": "Firefly"}}, {"type": "node", "id": 4254710503, "lat": 41.3931457, "lon": 2.1753569, "tags": {"amenity": "cafe", "name": "La Llesca de Bail\u00e9n"}}, {"type": "node", "id": 4280573806, "lat": 41.4020879, "lon": 2.1756287, "tags": {"addr:housenumber": "423", "addr:postcode": "08013", "addr:street": "Carrer de Val\u00e8ncia", "amenity": "cafe", "internet_access": "wlan", "name": "Miam", "tourism": "hotel"}}, {"type": "node", "id": 4321334989, "lat": 41.3955538, "lon": 2.1677169, "tags": {"addr:housenumber": "97", "addr:postcode": "08009", "addr:street": "Carrer del Bruc", "amenity": "bar", "name": "Bar Cugat", "name:ca": "Bar Cugat", "name:es": "Bar Cugat"}}, {"type": "node", "id": 4336933393, "lat": 41.3938953, "lon": 2.1720116, "tags": {"addr:housenumber": "57", "addr:postcode": "08009", "addr:street": "Carrer de Girona", "amenity": "restaurant", "cuisine": "indian", "email": "reservas@mayuralounge.es", "internet_access": "wlan", "name": "Mayura", "opening_hours": "Mo-Sa 13:00-16:00, 20:00-23:30", "phone": "+34934814536", "website": "http://www.mayuralounge.es"}}, {"type": "node", "id": 4365018791, "lat": 41.3938942, "lon": 2.1647367, "tags": {"addr:housenumber": "263", "addr:postcode": "08007", "addr:street": "Carrer de Val\u00e8ncia", "amenity": "restaurant", "entrance": "yes", "name": "Cerveseria d'Or", "name:ca": "Cerveseria d'Or", "name:ko": "\uc11c\ubca0\uc138\ub9ac\uc544", "wheelchair": "limited"}}, {"type": "node", "id": 4392820595, "lat": 41.39893, "lon": 2.1748831, "tags": {"addr:city": "Barcelona", "addr:housenumber": "194", "addr:postcode": "08013", "addr:street": "Carrer de N\u00e0pols", "amenity": "cafe", "name": "El Teixidor", "name:ca": "Teixind\u00f3", "phone": "+34 932 45 27 68", "shop": "bakery"}}, {"type": "node", "id": 4392863989, "lat": 41.398686, "lon": 2.1760335, "tags": {"name": "Sorli Discau", "opening_hours": "Mo-Sa 09:00-21:00", "shop": "supermarket"}}, {"type": "node", "id": 4392869792, "lat": 41.3964845, "lon": 2.1739332, "tags": {"amenity": "fast_food", "name": "Nostrum", "name:ca": "Nostrum", "name:en": "Nostrum", "name:es": "Nostrum", "opening_hours": "Mo-Fr 09:00-18:00+", "website": "http://www.nostrum.eu/en/stores/"}}, {"type": "node", "id": 4402776205, "lat": 41.3947443, "lon": 2.1708889, "tags": {"addr:housenumber": "73", "addr:street": "Carrer del Consell de Cent", "name": "Forn Sarret", "name:ca": "Forn Sarret", "name:es": "Forn Sarret", "shop": "bakery", "wikidata": "Q23856713"}}, {"type": "node", "id": 4420689189, "lat": 41.3935187, "lon": 2.1713928, "tags": {"amenity": "restaurant", "name:es": "Tasca i Vins"}}, {"type": "node", "id": 4434078790, "lat": 41.3996217, "lon": 2.1649396, "tags": {"addr:housenumber": "164", "addr:postcode": "08037", "addr:street": "Carrer de Girona", "amenity": "restaurant", "cuisine": "japanese;ramen", "entrance": "yes", "name": "Ramen Ya-Hiro", "name:en": "Ramen-ya Hiro", "name:es": "Ramen-ya Hiro", "opening_hours": "Mo-Tu, Th-Sa 13:30-15:30, 20:30-23:30; We 20:30-23:30", "phone": "+34930028441"}}, {"type": "node", "id": 4479721390, "lat": 41.3938643, "lon": 2.1718363, "tags": {"amenity": "restaurant"}}, {"type": "node", "id": 4485360600, "lat": 41.3935507, "lon": 2.1681124, "tags": {"name": "super lekker", "name:ca": "super lekker", "name:en": "super lekker", "name:es": "super lekker", "shop": "confectionery"}}, {"type": "node", "id": 4547841604, "lat": 41.3961795, "lon": 2.1743904, "tags": {"amenity": "bar", "name": "Cosmopolita"}}, {"type": "node", "id": 4589954339, "lat": 41.3978369, "lon": 2.1704504, "tags": {"addr:housenumber": "360", "addr:postcode": "08009", "addr:street": "Carrer de Val\u00e8ncia", "amenity": "restaurant", "cuisine": "mediterranean", "name": "Castell de Xativa Restaurant", "name:ca": "\u041f\u0430\u044d\u043b\u044c\u044f", "name:en": "Castell de Xativa Restaurant", "name:es": "Castell de Xativa Restaurant", "name:ru": "Castell de Xativa Restaurant", "opening_hours": "Tu-Sa 13:00-16:00, 20:30-23:30", "phone": "+34 934 583 418"}}, {"type": "node", "id": 4689053513, "lat": 41.3938502, "lon": 2.1658322, "tags": {"addr:city": "Barcelona", "addr:housenumber": "142", "addr:postcode": "08009", "addr:street": "Carrer de Pau Claris", "amenity": "restaurant", "name": "Cafe Emma", "phone": "+34 932 15 12 16"}}, {"type": "node", "id": 4715477691, "lat": 41.3962809, "lon": 2.1751092, "tags": {"name": "Honesto", "shop": "supermarket"}}, {"type": "node", "id": 4715477891, "lat": 41.3979078, "lon": 2.1762919, "tags": {"name": "Keisy", "opening_hours": "Mo-Sa 09:00-21:00", "shop": "supermarket"}}, {"type": "node", "id": 4715485889, "lat": 41.3958038, "lon": 2.1762621, "tags": {"addr:city": "Barcelona", "addr:country": "ES", "addr:housenumber": "669A", "addr:postcode": "08010", "addr:street": "Gran Via de les Corts Catalanes", "shop": "convenience"}}, {"type": "node", "id": 4719260790, "lat": 41.39646, "lon": 2.1753489, "tags": {"name": "Supermercat", "shop": "convenience"}}, {"type": "node", "id": 4719820193, "lat": 41.3984009, "lon": 2.1751216, "tags": {"name": "Pons", "name:es": "Pons", "opening_hours": "Mo-We 08:30-14:30, Th 08:30-20:30, Fr 08:00-20:30, Sa 08:00-14:30", "shop": "butcher"}}, {"type": "node", "id": 4721286889, "lat": 41.3985973, "lon": 2.1659559, "tags": {"addr:housenumber": "145", "addr:postcode": "08037", "addr:street": "Carrer de Girona", "air_conditioning": "yes", "amenity": "restaurant", "entrance": "yes", "indoor_seating": "yes", "name": "Prodigi", "outdoor_seating": "yes", "payment:credit_cards": "yes", "payment:debit_cards": "yes", "smoking": "outside"}}, {"type": "node", "id": 4726080090, "lat": 41.3995758, "lon": 2.1646553, "tags": {"addr:housenumber": "173", "addr:postcode": "08037", "addr:street": "Carrer de Girona", "amenity": "bar", "entrance": "yes", "name": "La Gilda", "name:es": "La Gilda", "wheelchair": "no"}}, {"type": "node", "id": 4726578490, "lat": 41.3978976, "lon": 2.1668837, "tags": {"amenity": "restaurant", "name": "Demeritas", "name:es": "Demeritas"}}, {"type": "node", "id": 4726578491, "lat": 41.3956428, "lon": 2.1702562, "tags": {"amenity": "restaurant", "cuisine": "japanese", "name": "Nihon Sakari", "name:es": "Nihon Sakari"}}, {"type": "node", "id": 4726582790, "lat": 41.3968628, "lon": 2.1682496, "tags": {"addr:housenumber": "111", "addr:postcode": "08009", "addr:street": "Carrer de Girona", "amenity": "fast_food", "cuisine": "burger", "entrance": "yes", "name": "Bacoa", "name:es": "Bacoa"}}, {"type": "node", "id": 4726582892, "lat": 41.3953382, "lon": 2.1707259, "tags": {"name": "Panader\u00eda de la Concepci\u00f3n", "name:es": "Panader\u00eda de la Concepci\u00f3n", "shop": "bakery"}}, {"type": "node", "id": 4726582989, "lat": 41.397663, "lon": 2.1671923, "tags": {"addr:housenumber": "127", "addr:postcode": "08037", "addr:street": "Carrer de Girona", "amenity": "restaurant", "cuisine": "asian", "entrance": "yes", "name": "Yuan Man", "name:es": "Yuan Man"}}, {"type": "node", "id": 4726583192, "lat": 41.3947392, "lon": 2.1707728, "tags": {"name": "Espan's", "name:es": "Espan's", "shop": "bakery"}}, {"type": "node", "id": 4726583193, "lat": 41.3949078, "lon": 2.171228, "tags": {"addr:housenumber": "70", "addr:street": "Carrer de Girona", "amenity": "restaurant", "cuisine": "mediterranean", "name": "Betlem", "name:es": "Betlem", "opening_hours": "Mo-We, Su 09:00-00:00; Th-Sa 09:00-01:30", "phone": "+34 932 65 51 05", "website": "http://www.betlem.es/"}}, {"type": "node", "id": 4726583289, "lat": 41.3971739, "lon": 2.1678246, "tags": {"addr:city": "Barcelona", "addr:country": "ES", "addr:street": "Carrer de Girona", "name": "Fruter\u00eda Primavera", "name:es": "Fruter\u00eda Primavera", "shop": "supermarket"}}, {"type": "node", "id": 4762854028, "lat": 41.3942127, "lon": 2.1739835, "tags": {"amenity": "bar", "name": "Len's Comic Cafe", "name:es": "Len's Comic Cafe"}}, {"type": "node", "id": 4762859828, "lat": 41.3951013, "lon": 2.1746599, "tags": {"addr:city": "Barcelona", "addr:country": "ES", "addr:housenumber": "19-20", "addr:postcode": "08010", "addr:street": "Pla\u00e7a de Tetuan", "name": "Santa Gloria", "shop": "bakery"}}, {"type": "node", "id": 4779688023, "lat": 41.3987566, "lon": 2.1728797, "tags": {"addr:housenumber": "192", "addr:street": "Carrer de Roger de Flor", "amenity": "restaurant", "description": "Arepera - Cockteleria", "internet_access": "wlan", "name": "El Chamo", "name:es": "El Chamo", "phone": "+34930232448"}}, {"type": "node", "id": 4799828222, "lat": 41.4005858, "lon": 2.1746042, "tags": {"amenity": "restaurant", "name": "La Fonda Paisa", "name:es": "La Fonda Paisa"}}, {"type": "node", "id": 4873767360, "lat": 41.3945168, "lon": 2.1655676, "tags": {"addr:housenumber": "273", "addr:street": "Carrer de Val\u00e8ncia", "amenity": "restaurant", "cuisine": "burger", "email": "info@santaburg.com", "entrance": "yes", "name": "Santa Burg Eixample", "opening_hours": "Mo-Su 13:00-16:00, 20:00-00:00", "phone": "+34934871420", "website": "www.santaburg.com/eixample"}}, {"type": "node", "id": 4901562521, "lat": 41.3937577, "lon": 2.1667187, "tags": {"amenity": "cafe", "cuisine": "coffee_shop", "email": "hello@wer-haus.com", "name:en": "WER-HAUS", "opening_hours": "Mo, We-Fr 10:00-20:00; Sa-Su 11:00-19:00", "phone": "+34 935 15 02 98", "website": "https://wer-haus.com/"}}, {"type": "node", "id": 4938104321, "lat": 41.3971863, "lon": 2.1671778, "tags": {"addr:housenumber": "308", "addr:postcode": "08037", "addr:street": "Carrer de Mallorca", "amenity": "restaurant", "name:en": "Hammock Juice Station", "opening_hours": "Mo-Su 10:00-18:00"}}, {"type": "node", "id": 4955005321, "lat": 41.3971726, "lon": 2.1648847, "tags": {"addr:housenumber": "330", "addr:street": "Carrer de Proven\u00e7a", "amenity": "restaurant", "diet:vegan": "yes", "diet:vegetarian": "only", "name": "Sopa Proven\u00e7a", "name:es": "Sopa Proven\u00e7a", "opening_hours": "Mo-Fr 08:00-17:00", "phone": "+34 936398567"}}, {"type": "node", "id": 4977546909, "lat": 41.3938572, "lon": 2.1650228, "tags": {"addr:city": "Barcelona", "addr:country": "ES", "addr:housenumber": "290", "addr:postcode": "08007", "addr:street": "Carrer de Val\u00e8ncia", "amenity": "restaurant", "contact:phone": "+34 935 10 78 57", "contact:twitter": "@tonkotsu_bcn", "contact:website": "http://tonkotsu.es", "cuisine": "asian; japanese", "name": "Tonkotsu", "opening_hours": "Mo-Sa 13:00-23:00", "smoking": "no", "takeaway": "yes"}}, {"type": "node", "id": 5065076822, "lat": 41.4017405, "lon": 2.1734768, "tags": {"amenity": "fast_food", "name": "Xurreria de Sagrada Familia", "name:de": "Xurreria de Sagrada Familia", "name:es": "Xurreria de Sagrada Familia"}}, {"type": "node", "id": 5065092521, "lat": 41.3986785, "lon": 2.1748355, "tags": {"addr:housenumber": "189", "addr:postcode": "08013", "addr:street": "Carrer de N\u00e0pols", "all_you_can_eat": "yes", "amenity": "restaurant", "cuisine": "japanese;sushi", "name": "Ogura", "name:es": "Ogura", "phone": "+34931646321"}}, {"type": "node", "id": 5074872224, "lat": 41.3962931, "lon": 2.1694348, "tags": {"amenity": "restaurant", "name": "aQuistoi", "name:es": "aQuistoi"}}, {"type": "node", "id": 5074872225, "lat": 41.3957763, "lon": 2.1716249, "tags": {"amenity": "restaurant", "name": "Bcn - Birres i Tapes", "name:ca": "Bcn - Birres i Tapes"}}, {"type": "node", "id": 5126098880, "lat": 41.3963655, "lon": 2.1730861, "tags": {"addr:postcode": "08009", "amenity": "fast_food", "branch": "Sant Joan", "cuisine": "burger", "internet_access": "no", "name": "Timesburg", "outdoor_seating": "yes", "phone": "+34936317814", "takeaway": "yes", "toilets": "yes", "website": "https://www.timesburg.com/"}}, {"type": "node", "id": 5167311823, "lat": 41.3939195, "lon": 2.1651101, "tags": {"addr:housenumber": "292", "addr:postcode": "08007", "addr:street": "Carrer de Val\u00e8ncia", "amenity": "cafe", "name": "\u00c9picerie", "name:ca": "\u00c9picerie", "wheelchair": "limited"}}, {"type": "node", "id": 5167311824, "lat": 41.4009299, "lon": 2.1670455, "tags": {"amenity": "cafe", "name": "Vivari", "name:ca": "Vivari"}}, {"type": "node", "id": 5171248421, "lat": 41.3968974, "lon": 2.172667, "tags": {"amenity": "cafe", "name:en": "Tutto pizzeria"}}, {"type": "node", "id": 5198200823, "lat": 41.3966529, "lon": 2.1683349, "tags": {"amenity": "cafe", "internet_access": "wlan", "name": "365", "name:ca": "365"}}, {"type": "node", "id": 5198200824, "lat": 41.3963876, "lon": 2.1688461, "tags": {"addr:housenumber": "105", "addr:street": "Carrer de Girona", "amenity": "restaurant", "internet_access": "wlan", "name": "Copa d'Or", "name:ca": "Copa d'Or"}}, {"type": "node", "id": 5198200825, "lat": 41.3963402, "lon": 2.168912, "tags": {"addr:street": "Carrer de Girona", "name": "Taps", "name:ca": "Taps", "shop": "wine"}}, {"type": "node", "id": 5198200826, "lat": 41.3962634, "lon": 2.1694777, "tags": {"addr:street": "Carrer de Girona", "amenity": "cafe", "name": "aQistoi", "name:ca": "aQistoi"}}, {"type": "node", "id": 5198200827, "lat": 41.3950674, "lon": 2.1712309, "tags": {"amenity": "cafe", "name": "Bar Funicular", "name:ca": "Bar Funicular"}}, {"type": "node", "id": 5198200828, "lat": 41.3943992, "lon": 2.1719282, "tags": {"amenity": "restaurant", "name": "La Graella", "name:ca": "La Graella"}}, {"type": "node", "id": 5198200829, "lat": 41.3940771, "lon": 2.1723519, "tags": {"amenity": "pub", "name": "Gyoza Bistr\u00f3"}}, {"type": "node", "id": 5198200830, "lat": 41.3938565, "lon": 2.1721752, "tags": {"addr:street": "Carrer de Girona", "amenity": "restaurant", "name": "Mayura", "name:ca": "Mayura"}}, {"type": "node", "id": 5198200832, "lat": 41.393587, "lon": 2.1687413, "tags": {"amenity": "cafe", "name": "Aromes Cafe & Lounge", "name:ca": "Aromes Cafe & Lounge"}}, {"type": "node", "id": 5198200833, "lat": 41.3936321, "lon": 2.1684591, "tags": {"addr:street": "Carrer de Roger de Ll\u00faria", "amenity": "restaurant", "name": "Les Finestres de Ll\u00faria", "name:ca": "Les Finestres de Ll\u00faria"}}, {"type": "node", "id": 5198200834, "lat": 41.3965269, "lon": 2.164517, "tags": {"addr:housenumber": "114", "addr:postcode": "08037", "addr:street": "Carrer de Roger de Ll\u00faria", "amenity": "cafe", "entrance": "yes", "name": "Patachou", "name:ca": "Patachou"}}, {"type": "node", "id": 5198200921, "lat": 41.3972563, "lon": 2.1677294, "tags": {"addr:housenumber": "123", "addr:postcode": "08009", "addr:street": "Carrer de Girona", "entrance": "yes", "name": "La Vin\u00edcola", "name:ca": "La Vin\u00edcola", "shop": "wine"}}, {"type": "node", "id": 5198200922, "lat": 41.3971521, "lon": 2.1678495, "tags": {"addr:city": "Barcelona", "addr:country": "ES", "addr:housenumber": "121", "addr:postcode": "08009", "addr:street": "Carrer de Girona", "amenity": "bar", "entrance": "yes", "name": "Amadeus", "name:ca": "Amadeus"}}, {"type": "node", "id": 5198200924, "lat": 41.3937883, "lon": 2.1727144, "tags": {"amenity": "bar", "name": "Sidreria el Furaco", "name:ca": "Sidreria el Furaco"}}, {"type": "node", "id": 5198200929, "lat": 41.3950141, "lon": 2.1667336, "tags": {"amenity": "cafe", "name": "Saint Honor\u00e9", "name:ca": "Saint Honor\u00e9"}}, {"type": "node", "id": 5198201021, "lat": 41.3970942, "lon": 2.1682789, "tags": {"addr:housenumber": "118", "addr:postcode": "08009", "addr:street": "Carrer de Girona", "amenity": "restaurant", "entrance": "yes", "name": "Almalibre A\u00e7a\u00ed House Barcelona", "name:ca": "Almalibre A\u00e7a\u00ed House Barcelona"}}, {"type": "node", "id": 5198201022, "lat": 41.3960736, "lon": 2.1692317, "tags": {"addr:street": "Carrer de Girona", "amenity": "restaurant", "name": "Carite Bar & Lounge", "name:ca": "Carite Bar & Lounge"}}, {"type": "node", "id": 5198201027, "lat": 41.3952399, "lon": 2.1665275, "tags": {"addr:housenumber": "285", "addr:postcode": "08009", "addr:street": "Carrer de Val\u00e8ncia", "amenity": "restaurant", "entrance": "yes", "name": "Hamburgueseria la Real", "name:ca": "Hamburgueseria la Real"}}, {"type": "node", "id": 5198201028, "lat": 41.3957353, "lon": 2.1655655, "tags": {"addr:housenumber": "100", "addr:postcode": "08037", "addr:street": "Carrer de Roger de Ll\u00faria", "amenity": "restaurant", "entrance": "yes", "name": "Silv\u00e1n", "name:ca": "Silv\u00e1n"}}, {"type": "node", "id": 5198201029, "lat": 41.395953, "lon": 2.1655387, "tags": {"addr:housenumber": "280", "addr:postcode": "08037", "addr:street": "Carrer de Mallorca", "amenity": "restaurant", "entrance": "yes", "name": "Palermo", "name:ca": "Palermo"}}, {"type": "node", "id": 5198201030, "lat": 41.3960712, "lon": 2.1651532, "tags": {"addr:housenumber": "102", "addr:postcode": "08037", "addr:street": "Carrer de Roger de Ll\u00faria", "amenity": "restaurant", "entrance": "yes", "name": "Cor Caliu", "name:ca": "Cor Caliu"}}, {"type": "node", "id": 5198201121, "lat": 41.3965289, "lon": 2.1682381, "tags": {"addr:housenumber": "319", "addr:street": "Carrer de Val\u00e8ncia", "amenity": "fast_food", "name": "Poll-bo", "name:ca": "Poll-bo"}}, {"type": "node", "id": 5198201122, "lat": 41.3961328, "lon": 2.1697679, "tags": {"amenity": "restaurant", "name": "La Particcela", "name:ca": "La Particcela"}}, {"type": "node", "id": 5198201123, "lat": 41.3951843, "lon": 2.1704469, "tags": {"addr:street": "Carrer de Girona", "amenity": "restaurant", "name": "La Brasa", "name:ca": "La Brasa"}}, {"type": "node", "id": 5198201126, "lat": 41.396122, "lon": 2.1654253, "tags": {"addr:housenumber": "287", "addr:postcode": "08037", "addr:street": "Carrer de Mallorca", "amenity": "restaurant", "entrance": "yes", "name": "Os Ancares", "name:ca": "Os Ancares"}}, {"type": "node", "id": 5198201321, "lat": 41.3943609, "lon": 2.1670678, "tags": {"amenity": "cafe", "name": "Granja Brussel\u00b7les", "name:ca": "Granja Brussel\u00b7les"}}, {"type": "node", "id": 5202384223, "lat": 41.3998798, "lon": 2.171746, "tags": {"addr:housenumber": "362", "addr:street": "Avinguda Diagonal", "name:en": "Boulangery", "opening_hours": "Mo-Su 07:30-21:00", "shop": "bakery"}}, {"type": "node", "id": 5202656221, "lat": 41.3969295, "lon": 2.1664984, "tags": {"addr:housenumber": "301", "addr:street": "Carrer de Mallorca", "amenity": "restaurant", "name": "De Tapa Madre"}}, {"type": "node", "id": 5203759685, "lat": 41.394856, "lon": 2.1712596, "tags": {"addr:housenumber": "68", "addr:street": "Girona", "amenity": "restaurant", "name": "Bicnic", "opening_hours": "Tu-Sa 13:00-15:30, 19:30-23:00", "phone": "+34 690904614", "website": "http://www.bicnic.com/"}}, {"type": "node", "id": 5209287322, "lat": 41.3998009, "lon": 2.1685543, "tags": {"addr:housenumber": "111", "addr:postcode": "08037", "addr:street": "Passeig de Sant Joan", "amenity": "cafe", "entrance": "yes", "name": "Forn Verdaguer", "name:ca": "Forn Verdaguer"}}, {"type": "node", "id": 5209287323, "lat": 41.3999988, "lon": 2.1682132, "tags": {"addr:housenumber": "343", "addr:postcode": "08037", "addr:street": "Carrer de Proven\u00e7a", "amenity": "cafe", "entrance": "yes", "name": "Proven\u00e7a", "name:ca": "Proven\u00e7a"}}, {"type": "node", "id": 5209287324, "lat": 41.4005617, "lon": 2.1676162, "tags": {"addr:housenumber": "125", "addr:postcode": "08037", "addr:street": "Passeig de Sant Joan", "amenity": "restaurant", "entrance": "yes", "name": "Ciutat Bella", "name:ca": "Ciutat Bella"}}, {"type": "node", "id": 5209287522, "lat": 41.3997723, "lon": 2.1686584, "tags": {"addr:housenumber": "111", "addr:postcode": "08037", "addr:street": "Passeig de Sant Joan", "amenity": "fast_food", "entrance": "yes", "name": "La Bonateca", "name:ca": "La Bonateca"}}, {"type": "node", "id": 5209287523, "lat": 41.4006559, "lon": 2.1674358, "tags": {"addr:housenumber": "127", "addr:postcode": "08037", "addr:street": "Passeig de Sant Joan", "amenity": "ice_cream", "entrance": "yes", "name": "L'Arte del Gelato", "name:ca": "L'Arte del Gelato"}}, {"type": "node", "id": 5209287524, "lat": 41.4017178, "lon": 2.1669688, "tags": {"addr:street": "Passeig de Sant Joan", "name": "Veritas", "name:ca": "Veritas", "shop": "supermarket"}}, {"type": "node", "id": 5209300421, "lat": 41.4000368, "lon": 2.1682122, "tags": {"addr:housenumber": "111B", "addr:street": "Passeig de Sant Joan", "amenity": "bar", "name": "Gredos", "name:ca": "Gredos"}}, {"type": "node", "id": 5236478924, "lat": 41.393722, "lon": 2.1656331, "tags": {"addr:housenumber": "141", "addr:postcode": "08009", "addr:street": "Carrer de Pau Claris", "amenity": "cafe", "name": "Forn de Pa"}}, {"type": "node", "id": 5295531800, "lat": 41.4020719, "lon": 2.1759654, "tags": {"addr:housenumber": "428", "addr:postcode": "08013", "addr:street": "Carrer de Val\u00e8ncia", "amenity": "restaurant", "cuisine": "burger", "name": "Anauco", "phone": "+34936240797", "website": "https://www.anaucogourmet.es/"}}, {"type": "node", "id": 5299774224, "lat": 41.3933732, "lon": 2.1683053, "tags": {"amenity": "cafe", "name:en": "Marti Cafe & Bakery"}}, {"type": "node", "id": 5327570659, "lat": 41.3996271, "lon": 2.1681431, "tags": {"addr:housenumber": "362-364", "addr:postcode": "08037", "addr:street": "Carrer de Proven\u00e7a", "entrance": "yes", "name": "Granier", "shop": "bakery"}}, {"type": "node", "id": 5327570660, "lat": 41.3994807, "lon": 2.1675199, "tags": {"addr:housenumber": "327-329", "addr:street": "Carrer de Proven\u00e7a", "amenity": "restaurant", "cuisine": "fish", "name": "Fondo do mar"}}, {"type": "node", "id": 5327570662, "lat": 41.397747, "lon": 2.1656448, "tags": {"addr:housenumber": "340", "addr:postcode": "08037", "addr:street": "Carrer de Proven\u00e7a", "amenity": "bar", "entrance": "yes", "name": "Ancestral"}}, {"type": "node", "id": 5375097960, "lat": 41.3979363, "lon": 2.1720846, "tags": {"amenity": "cafe", "name": "Panorama Bar"}}, {"type": "node", "id": 5465242529, "lat": 41.3983154, "lon": 2.1676249, "tags": {"addr:housenumber": "339", "addr:postcode": "08037", "addr:street": "Avinguda Diagonal", "amenity": "restaurant", "cuisine": "italian_pizza;italian", "diet:vegan": "yes", "name": "PerBacco!"}}, {"type": "node", "id": 5465294621, "lat": 41.3971236, "lon": 2.1695456, "tags": {"addr:housenumber": "350", "addr:postcode": "08009", "addr:street": "Carrer de Val\u00e8ncia", "amenity": "restaurant", "cuisine": "italian;italian_pizza;mediterranean", "diet:vegan": "yes", "name": "A Gianni"}}, {"type": "node", "id": 5494755522, "lat": 41.4003335, "lon": 2.1714778, "tags": {"addr:housenumber": "354", "addr:street": "Carrer de Mallorca", "amenity": "bar", "name": "Tapas & Bar siqui", "name:ru": "\u0410\u0437\u0438\u0430\u0442\u0441\u043a\u0430\u044f \u043a\u0443\u0445\u043d\u044f"}}, {"type": "node", "id": 5541156021, "lat": 41.3997861, "lon": 2.1702364, "tags": {"addr:housenumber": "343", "addr:street": "Carrer de Mallorca", "amenity": "cafe", "cuisine": "spanish;italian", "name:en": "El cafe de Martinet"}}, {"type": "node", "id": 5551378622, "lat": 41.3969463, "lon": 2.1759588, "tags": {"addr:city": "Barcelona", "addr:country": "ES", "addr:housenumber": "379", "addr:postcode": "08013", "addr:street": "Carrer de la Diputaci\u00f3", "amenity": "restaurant", "contact:phone": "+34 932469168", "cuisine": "diner;steak_house;argentinian", "internet_access": "wlan", "name": "Alfonsina Parrilla Argentina", "name:en": "Alfonsina Argentinian Grill", "note": "Excelente lugar para comer carnes y demas estilo argentino a precio moderad", "opening_hours": "We-Mo 13:00-16:00, 20:00-23:30"}}, {"type": "node", "id": 5695935027, "lat": 41.394568, "lon": 2.1683482, "tags": {"amenity": "cafe", "internet_access": "wlan", "name:en": "Somewhere", "opening_hours": "Mo-Fr 08:00-00:00; Sa-Su 09:00-00:00", "phone": "+34935305779", "website": "http://www.somewherecafe.com"}}, {"type": "node", "id": 5696595735, "lat": 41.3935469, "lon": 2.1742371, "tags": {"amenity": "cafe", "name": "Satan's coffee shop"}}, {"type": "node", "id": 5791859456, "lat": 41.4012614, "lon": 2.1677679, "tags": {"amenity": "ice_cream", "name": "La Jijonenca"}}, {"type": "node", "id": 5806515953, "lat": 41.4012612, "lon": 2.17466, "tags": {"addr:housenumber": "399", "addr:street": "Carrer de Val\u00e8ncia", "amenity": "restaurant", "name": "Zed", "opening_hours": "Tu-Sa 12:00-22:30"}}, {"type": "node", "id": 5806537553, "lat": 41.4001383, "lon": 2.1748451, "tags": {"addr:city": "Barcelona", "addr:housenumber": "287 bajo", "addr:postcode": "08013", "addr:street": "Avinguda Diagonal", "amenity": "restaurant", "cuisine": "galician", "name": "bicos restaurante", "name:ca": "bicos restaurant", "name:es": "bicos restaurante", "opening_hours": "Tu-Sa 12:30-16:00, 19:00-23:00; Su 12:30-16:00", "phone": "+34936118227", "website": "https://bicosrestaurante.com"}}, {"type": "node", "id": 5806547953, "lat": 41.3962599, "lon": 2.1671226, "tags": {"addr:housenumber": "118", "addr:street": "Carrer del Bruc", "amenity": "restaurant", "name": "Lokal Bar", "opening_hours": "Mo-Sa 12:00-15:30, 19:00-23:00"}}, {"type": "node", "id": 5864094090, "lat": 41.3971983, "lon": 2.1668564, "tags": {"addr:housenumber": "307-309", "addr:postcode": "08037", "addr:street": "Carrer de Mallorca", "brand": "Carrefour Express", "brand:wikidata": "Q2940190", "brand:wikipedia": "fr:Carrefour Express", "name": "Carrefour Express", "shop": "convenience", "website": "https://www.carrefour.es/"}}, {"type": "node", "id": 5864094593, "lat": 41.3936322, "lon": 2.1689099, "tags": {"addr:housenumber": "375", "addr:postcode": "08009", "addr:street": "Carrer del Consell de Cent", "brand": "Dia", "brand:wikidata": "Q925132", "brand:wikipedia": "es:DIA (supermercados)", "name": "Dia", "shop": "supermarket", "website": "https://www.dia.es"}}, {"type": "node", "id": 5864094990, "lat": 41.3964047, "lon": 2.1684521, "tags": {"addr:city": "Barcelona", "addr:housenumber": "334", "addr:postcode": "08009", "addr:street": "Carrer de Val\u00e8ncia", "amenity": "restaurant", "email": "9@9.restaurant", "name:en": "9 Nine", "opening_hours": "Mo-Su 13:00-16:00; 19:30-23:00", "phone": "+34 936 76 32 22", "website": "https://9.restaurant"}}, {"type": "node", "id": 5880596385, "lat": 41.4010072, "lon": 2.1761471, "tags": {"addr:housenumber": "310", "addr:postcode": "08013", "addr:street": "Avinguda Diagonal", "amenity": "bar", "name:en": "En Diagonal Bar"}}, {"type": "node", "id": 5882246656, "lat": 41.3989063, "lon": 2.1758059, "tags": {"addr:housenumber": "465", "addr:street": "Carrer del Consell de Cent", "amenity": "restaurant", "name": "Kamasot", "opening_hours": "Mo-Sa 12:00-16:00, 20:00-12:00", "phone": "+34934616591"}}, {"type": "node", "id": 5896455487, "lat": 41.4003102, "lon": 2.1667924, "tags": {"addr:housenumber": "298", "addr:postcode": "08037", "addr:street": "Carrer del Rossell\u00f3", "entrance": "yes", "name": "Ametller Origen", "shop": "supermarket", "wheelchair": "yes"}}, {"type": "node", "id": 5896482085, "lat": 41.4014886, "lon": 2.1672489, "tags": {"amenity": "cafe", "name": "D\u00e9li\u00e7"}}, {"type": "node", "id": 5899729841, "lat": 41.3989914, "lon": 2.1725643, "tags": {"amenity": "ice_cream", "name": "Quim Gelats"}}, {"type": "node", "id": 5914744894, "lat": 41.4021074, "lon": 2.1647256, "tags": {"addr:city": "Barcelona", "addr:housenumber": "8", "addr:postcode": "08037", "addr:street": "Carrer de la Ind\u00fastria", "amenity": "restaurant", "name": "Vesta", "wheelchair": "no"}}, {"type": "node", "id": 5916148107, "lat": 41.3997551, "lon": 2.1706033, "tags": {"addr:housenumber": "340", "addr:street": "Carrer de Mallorca", "amenity": "restaurant"}}, {"type": "node", "id": 5933808740, "lat": 41.3986236, "lon": 2.1753141, "tags": {"addr:city": "Barcelona", "addr:housenumber": "182", "addr:postcode": "08013", "addr:street": "Carrer de N\u00e0pols", "amenity": "restaurant", "capacity": "50", "cuisine": "local", "name": "Kserol", "opening_hours": "Mo 09:00-18:00 Tu-Sa 09:00-00:00", "outdoor_seating": "yes", "phone": "+34 936 393 342", "smoking": "outside", "website": "http://www.kserol.com/"}}, {"type": "node", "id": 6000108086, "lat": 41.3997133, "lon": 2.1682638, "tags": {"addr:housenumber": "366", "addr:street": "Carrer de Proven\u00e7a", "amenity": "restaurant", "cuisine": "tapas", "entrance": "yes", "name": "La bodegueta de Verdaguer"}}, {"type": "node", "id": 6000108087, "lat": 41.3996883, "lon": 2.1671046, "tags": {"addr:housenumber": "150", "addr:postcode": "08037", "addr:street": "Carrer de Bail\u00e8n", "amenity": "restaurant", "entrance": "yes", "name": "New Circus"}}, {"type": "node", "id": 6000108088, "lat": 41.4002203, "lon": 2.1660676, "tags": {"addr:housenumber": "159", "addr:postcode": "08037", "addr:street": "Carrer de Bail\u00e8n", "amenity": "restaurant", "entrance": "yes", "internet_access": "wlan", "name": "La Neura"}}, {"type": "node", "id": 6000110786, "lat": 41.3995127, "lon": 2.1673352, "tags": {"addr:housenumber": "146", "addr:postcode": "08037", "addr:street": "Carrer de Bail\u00e8n", "amenity": "restaurant", "entrance": "yes", "name": "La tasca d'or"}}, {"type": "node", "id": 6000110787, "lat": 41.3999022, "lon": 2.1664303, "tags": {"addr:housenumber": "151", "addr:street": "Carrer de Bail\u00e8n", "amenity": "cafe", "internet_access": "wlan", "name": "Spas"}}, {"type": "node", "id": 6006810976, "lat": 41.3947672, "lon": 2.1664953, "tags": {"addr:housenumber": "85", "addr:street": "Carrer de Roger de Ll\u00faria", "description": "Specialized in Catalan and international gourmet products. Assortment of artisan cheeses, iberian ham, foie, caviar, smoked fish, oils, coffees, canned delicacies, wines and champagne.", "email": "queviures@jmurria.com", "fax": "+34934883355", "name": "J. M\u00farria Queviures", "opening_hours": "Tu-Fr 09:00-14:00, 17:00-21:00; Sa 10:00-14:00, 17:00-21:00", "shop": "deli", "website": "http://www.murria.cat/"}}, {"type": "node", "id": 6009502585, "lat": 41.3994146, "lon": 2.1747998, "tags": {"amenity": "restaurant"}}, {"type": "node", "id": 6051101120, "lat": 41.3974267, "lon": 2.1726187, "tags": {"addr:housenumber": "80", "addr:postcode": "08013", "addr:street": "Passeig de Sant Joan", "amenity": "restaurant", "internet_access": "wlan", "name": "Chichalimona"}}, {"type": "node", "id": 6070583585, "lat": 41.3938308, "lon": 2.1699714, "tags": {"addr:housenumber": "65", "addr:street": "Carrer del Bruc", "amenity": "restaurant", "name": "Minamo"}}, {"type": "node", "id": 6074664782, "lat": 41.3980052, "lon": 2.1667402, "tags": {"addr:housenumber": "135", "addr:street": "Carrer de Girona", "amenity": "restaurant", "cuisine": "spanish", "delivery": "no", "entrance": "yes", "name": "Jofama", "outdoor_seating": "yes", "smoking": "outside", "takeaway": "no"}}, {"type": "node", "id": 6080483885, "lat": 41.3978658, "lon": 2.1669238, "tags": {"addr:housenumber": "133", "addr:postcode": "08037", "addr:street": "Carrer de Girona", "amenity": "restaurant", "cuisine": "italian_pizza;italian;mediterranean", "email": "info@donkilo.es", "entrance": "yes", "internet_access": "wlan", "name": "Don Kilo Barcelona", "opening_hours": "Mo-Su 13:00-23:30", "phone": "+34936637172", "website": "https://www.donkilo.es/"}}, {"type": "node", "id": 6089625320, "lat": 41.3965798, "lon": 2.166703, "tags": {"addr:housenumber": "126-128", "addr:postcode": "08037", "addr:street": "Carrer del Bruc", "amenity": "restaurant", "cuisine": "ice_cream", "description": "orxata - turrones - ice creams", "entrance": "yes", "name": "Orxateria Verd\u00fa", "outdoor_seating": "no", "shop": "ice_cream", "takeaway": "yes"}}, {"type": "node", "id": 6089625321, "lat": 41.3973187, "lon": 2.1676233, "tags": {"addr:housenumber": "125", "addr:postcode": "08037", "addr:street": "Carrer de Girona", "amenity": "cafe", "entrance": "yes", "name": "Vivari", "name:ca": "Vivari", "name:uk": "\u0414\u0443\u0436\u0435 \u0441\u043c\u0430\u0447\u043d\u0456 \u043a\u0440\u0443\u0430\u0441\u0430\u043d\u0438 \u0456 \u043a\u0430\u0432\u0430"}}, {"type": "node", "id": 6093865397, "lat": 41.3975795, "lon": 2.1646733, "tags": {"amenity": "bar", "name": "Why Not"}}, {"type": "node", "id": 6093865402, "lat": 41.4007779, "lon": 2.1753037, "tags": {"name": "Buenos Aires", "opening_hours": "24/7", "shop": "convenience"}}, {"type": "node", "id": 6093886608, "lat": 41.3976319, "lon": 2.164883, "tags": {"amenity": "fast_food", "name": "Harry's Burning"}}, {"type": "node", "id": 6093886612, "lat": 41.4001066, "lon": 2.1728166, "tags": {"addr:housenumber": "340", "addr:street": "Avinguda Diagonal", "amenity": "bar", "name": "Kadushi"}}, {"type": "node", "id": 6101403366, "lat": 41.3971142, "lon": 2.1758043, "tags": {"addr:city": "Barcelona", "addr:country": "ES", "addr:postcode": "08013", "addr:street": "Carrer de la Diputaci\u00f3", "name": "Diputaci\u00f3", "shop": "convenience"}}, {"type": "node", "id": 6107421950, "lat": 41.3964826, "lon": 2.1662428, "tags": {"addr:city": "Barcelona", "addr:housenumber": "290-292", "addr:street": "Carrer de Mallorca", "amenity": "restaurant", "cuisine": "regional", "entrance": "yes", "name": "La Muscleria", "name:es": "La Muscleria", "phone": "+34934589844", "website": "http://www.muscleria.com"}}, {"type": "node", "id": 6115282474, "lat": 41.4007398, "lon": 2.1747958, "tags": {"amenity": "restaurant", "name": "Riad Sakura"}}, {"type": "node", "id": 6121065215, "lat": 41.400426, "lon": 2.1738781, "tags": {"addr:city": "Barcelona", "addr:country": "ES", "addr:housenumber": "338", "addr:postcode": "08013", "addr:street": "Avinguda Diagonal", "amenity": "restaurant", "contact:email": "brasiliarest@gmail.com", "contact:phone": "+34 932071018", "cuisine": "spanish;mediterranean", "name": "Brasilia", "opening_hours": "Mo-Su 08:00-00:00", "outdoor_seating": "no"}}, {"type": "node", "id": 6129093110, "lat": 41.3969244, "lon": 2.1681683, "tags": {"addr:city": "Barcelona", "addr:housenumber": "113", "addr:postcode": "08037", "addr:street": "Carrer de Girona", "amenity": "restaurant", "name": "Nanao", "name:ca": "Nanao"}}, {"type": "node", "id": 6169550112, "lat": 41.3940045, "lon": 2.1648847, "tags": {"addr:housenumber": "267", "addr:postcode": "08007", "addr:street": "Carrer de Val\u00e8ncia", "amenity": "restaurant", "cuisine": "argentinian", "name": "Restaurant 9Reinas", "name:ru": "\u0420\u0435\u0441\u0442\u043e\u0440\u0430\u043d 9Reinas", "wheelchair": "limited"}}, {"type": "node", "id": 6179289415, "lat": 41.4006622, "lon": 2.1748892, "tags": {"addr:city": "Barcelona", "addr:country": "ES", "amenity": "bar", "name": "Casa Rufo's"}}, {"type": "node", "id": 6188914880, "lat": 41.3965502, "lon": 2.1644865, "tags": {"addr:city": "Barcelona", "addr:country": "ES", "addr:housenumber": "114", "addr:postcode": "08037", "addr:street": "Carrer de Roger de Ll\u00faria", "amenity": "restaurant", "branch": "Eixample", "contact:phone": "+34 931809536", "contact:website": "https://www.pizzeriapiccolaitalia.es/", "cuisine": "pizza;Italian;burger", "delivery": "yes", "name": "Piccola Italia", "opening_hours": "Mo-Sa 12:00-16:00; Mo 20:00-01:00; Tu-Sa 20:00-00:00", "outdoor_seating": "no", "smoking": "no", "takeaway": "yes"}}, {"type": "node", "id": 6188922858, "lat": 41.3998386, "lon": 2.1715382, "tags": {"addr:city": "Barcelona", "addr:country": "ES", "addr:housenumber": "216", "addr:postcode": "08013", "addr:street": "Carrer de Roger de Flor", "amenity": "restaurant", "contact:phone": "+34 934582283", "contact:website": "http://vegetarianoarciris.com/", "diet:vegetarian": "only", "name": "Arc iris", "opening_hours": "Mo-Sa 13:00-16:00", "outdoor_seating": "no", "payment:diners_club": "yes", "payment:mastercard": "yes", "payment:visa": "yes", "smoking": "no", "takeaway": "yes"}}, {"type": "node", "id": 6188929166, "lat": 41.4014517, "lon": 2.1761006, "tags": {"addr:city": "Barcelona", "addr:country": "ES", "addr:housenumber": "278", "addr:postcode": "08088", "addr:street": "Carrer de Sardenya", "brand": "Bonpreu", "brand:wikidata": "Q11924747", "brand:wikipedia": "ca:Grup Bon Preu", "contact:phone": "+34 936896404", "name": "Bonpreu", "opening_hours": "Mo-Sa 09:00-21:30", "shop": "supermarket"}}, {"type": "node", "id": 6190541290, "lat": 41.399773, "lon": 2.1711133, "tags": {"addr:city": "Barcelona", "addr:country": "ES", "addr:housenumber": "366", "addr:postcode": "08013", "addr:street": "Avinguda Diagonal", "amenity": "restaurant", "contact:email": "elosogolosobcn@gmail.com", "contact:phone": "+34 932070738", "cuisine": "italian; mediterranean", "diet:vegetarian": "yes", "name": "El Oso Goloso", "opening_hours": "Mo-Fr 13:00-15:30, 20:30-23:00"}}, {"type": "node", "id": 6230239354, "lat": 41.3969475, "lon": 2.175573, "tags": {"addr:city": "Barcelona", "addr:housenumber": "375", "addr:postcode": "08013", "addr:street": "Diputaci\u00f3", "amenity": "restaurant", "cuisine": "regional", "name": "Restaurant Portol\u00e9s"}}, {"type": "node", "id": 6259341990, "lat": 41.3963712, "lon": 2.1740729, "tags": {"amenity": "restaurant", "name": "Parking Pizza - Parking Pita"}}, {"type": "node", "id": 6263786387, "lat": 41.3939284, "lon": 2.1662752, "tags": {"name:en": "SUPERMARCAT 24H", "shop": "supermarket"}}, {"type": "node", "id": 6263820285, "lat": 41.3960742, "lon": 2.1668699, "tags": {"addr:housenumber": "107", "addr:postcode": "08009", "addr:street": "Carrer del Bruc", "brand": "Spar", "brand:wikidata": "Q610492", "brand:wikipedia": "es:SPAR", "name": "Spar", "name:en": "Spar", "name:es": "Spar", "opening_hours": "Mo-Sa 09:00-21:00", "shop": "supermarket"}}, {"type": "node", "id": 6331354939, "lat": 41.3950011, "lon": 2.1682596, "tags": {"amenity": "restaurant", "cuisine": "pizza", "name": "Taller de Pizza"}}, {"type": "node", "id": 6332589894, "lat": 41.3966874, "lon": 2.1736776, "tags": {"amenity": "bar", "name": "Baccardi Cafe", "wheelchair": "yes"}}, {"type": "node", "id": 6332594087, "lat": 41.3972305, "lon": 2.1729258, "tags": {"name": "Forn de pa Bertran", "shop": "bakery"}}, {"type": "node", "id": 6332596985, "lat": 41.3989227, "lon": 2.1706153, "tags": {"brand": "Suma", "brand:wikidata": "Q58012362", "name": "Suma Express", "opening_hours": "24/7", "shop": "convenience"}}, {"type": "node", "id": 6333697961, "lat": 41.3949192, "lon": 2.1682566, "tags": {"shop": "greengrocer"}}, {"type": "node", "id": 6333708759, "lat": 41.3941488, "lon": 2.1694356, "tags": {"amenity": "cafe", "cuisine": "sandwich", "name": "SandwiChez", "opening_hours": "Mo-Su 08:00-21:00"}}, {"type": "node", "id": 6334053692, "lat": 41.3994169, "lon": 2.1648424, "tags": {"amenity": "restaurant", "cuisine": "sandwich;tapas;cafe", "indoor_seating": "yes", "name": "La Mananta", "outdoor_seating": "yes", "wheelchair": "limited"}}, {"type": "node", "id": 6334053693, "lat": 41.399324, "lon": 2.1649258, "tags": {"name": "Frantoi Redoro 100% Italiano Gourmet", "shop": "deli", "wheelchair": "limited"}}, {"type": "node", "id": 6347985334, "lat": 41.4006886, "lon": 2.1646929, "tags": {"addr:housenumber": "421", "addr:postcode": "08037", "addr:street": "Carrer de C\u00f2rsega", "amenity": "restaurant", "cuisine": "indian", "diet:vegan": "yes", "diet:vegetarian": "only", "entrance": "yes", "name": "Indian Herbs", "wheelchair": "no"}}, {"type": "node", "id": 6357834156, "lat": 41.3937101, "lon": 2.1648244, "tags": {"addr:housenumber": "286", "addr:postcode": "08007", "addr:street": "Carrer de Val\u00e8ncia", "amenity": "bar", "name": "Les gens que j'aime bar"}}, {"type": "node", "id": 6400631006, "lat": 41.3995571, "lon": 2.1689242, "tags": {"amenity": "restaurant", "name": "Mantics"}}, {"type": "node", "id": 6400631167, "lat": 41.3997169, "lon": 2.1687027, "tags": {"shop": "supermarket"}}, {"type": "node", "id": 6412050835, "lat": 41.3947754, "lon": 2.1664739, "tags": {"addr:housenumber": "85", "addr:street": "Carrer de Roger de Ll\u00faria", "description": "Catalan and international gourmet products", "drink:wine": "yes", "name": "Colmado M\u00farria", "opening_hours": "Tu-Sa 10:00-14:00, 17:00-20:00", "phone": "+34932155789", "shop": "deli", "website": "https://www.muria.cat/", "wheelchair": "no"}}, {"type": "node", "id": 6431831286, "lat": 41.3936837, "lon": 2.1744054, "tags": {"addr:housenumber": "702", "addr:street": "Gran Via de les Corts Catalanes", "amenity": "restaurant", "name": "Xampu Barselona"}}, {"type": "node", "id": 6502650686, "lat": 41.4005369, "lon": 2.1689848, "tags": {"addr:housenumber": "351", "addr:street": "Carrer de Proven\u00e7a", "amenity": "restaurant", "internet_access": "wlan", "name": "El Manaba"}}, {"type": "node", "id": 6520486199, "lat": 41.3966429, "lon": 2.1666875, "tags": {"addr:housenumber": "126", "addr:street": "Bruc", "amenity": "ice_cream", "name": "Gelateria Verd\u00fa"}}, {"type": "node", "id": 6520607234, "lat": 41.3971991, "lon": 2.174042, "tags": {"addr:housenumber": "418", "addr:street": "Consell de cent", "amenity": "restaurant", "description": "Korean restaurant", "name": "Sam By Ja - Samgyetang restaurant", "opening_hours": "Mo-Su 12:00-00:00", "phone": "+34 695 69 88 14"}}, {"type": "node", "id": 6556693611, "lat": 41.3953323, "lon": 2.1716214, "tags": {"amenity": "cafe", "name:en": "eatmytrip bakery"}}, {"type": "node", "id": 6564463287, "lat": 41.3951279, "lon": 2.1713149, "tags": {"addr:housenumber": "378", "addr:postcode": "08009", "addr:street": "Carrer del Consell de Cent", "amenity": "restaurant", "contact:facebook": "https://www.facebook.com/eatmytrip", "contact:instagram": "https://www.instagram.com/eatmytrip", "cuisine": "international;breakfast;coffee_shop;spanish;american;local", "diet:vegan": "yes", "email": "eatmytrip@gmail.com", "internet_access": "wlan", "name": "Eatmytrip Brunch & Bakery", "opening_hours": "Mo-Su 09:00-17:00", "phone": "+34 930247539", "website": "http://eatmytrip.com"}}, {"type": "node", "id": 6572594286, "lat": 41.3938927, "lon": 2.165892, "tags": {"amenity": "restaurant", "name": "Entrecote"}}, {"type": "node", "id": 6614676296, "lat": 41.394222, "lon": 2.1716963, "tags": {"addr:housenumber": "59", "addr:street": "Girona", "amenity": "restaurant", "name": "Malpaso", "phone": "+34 938328371"}}, {"type": "node", "id": 6750085586, "lat": 41.3944472, "lon": 2.1654339, "tags": {"addr:street": "Carrer de Val\u00e8ncia", "amenity": "restaurant", "name": "Mr. Kao"}}, {"type": "node", "id": 6750095385, "lat": 41.3946684, "lon": 2.1661611, "tags": {"name": "Express", "shop": "convenience"}}, {"type": "node", "id": 6750690097, "lat": 41.4017282, "lon": 2.1751185, "tags": {"addr:housenumber": "415", "addr:street": "Carrer de Val\u00e8ncia", "name": "Supermercat", "shop": "supermarket"}}, {"type": "node", "id": 6750690098, "lat": 41.4012624, "lon": 2.1749233, "tags": {"addr:housenumber": "402", "addr:street": "Carrer de Val\u00e8ncia", "amenity": "restaurant", "cuisine": "chinese", "name": "Xi Kou"}}, {"type": "node", "id": 6750710985, "lat": 41.4019041, "lon": 2.1757782, "tags": {"addr:housenumber": "420", "addr:street": "Carrer de Val\u00e8ncia", "brand": "Condis", "brand:wikidata": "Q57417581", "name": "Condis", "operator": "Condis", "shop": "supermarket"}}, {"type": "node", "id": 6750710986, "lat": 41.39389, "lon": 2.1676231, "tags": {"addr:street": "Carrer d'Arag\u00f3", "amenity": "restaurant", "internet_access": "wlan", "name": "Cheese, wine & wifi! (Hotel Od)", "name:ca": "Od Restaurant"}}, {"type": "node", "id": 6757278789, "lat": 41.3997955, "lon": 2.1753577, "tags": {"addr:street": "Carrer d'Arag\u00f3", "amenity": "bar", "name": "Taverna Chrison"}}, {"type": "node", "id": 6757278790, "lat": 41.3987855, "lon": 2.1733565, "tags": {"addr:housenumber": "381", "addr:street": "Carrer d'Arag\u00f3", "name": "Supermercat", "shop": "supermarket"}}, {"type": "node", "id": 6757278791, "lat": 41.3983097, "lon": 2.1727388, "tags": {"addr:housenumber": "369", "addr:street": "Carrer d'Arag\u00f3", "name": "Celler de la Rosa", "shop": "wine"}}, {"type": "node", "id": 6757278792, "lat": 41.3981268, "lon": 2.1731664, "tags": {"addr:housenumber": "388", "addr:street": "Carrer d'Arag\u00f3", "amenity": "cafe", "name": "Bonica Bruncherie"}}, {"type": "node", "id": 6757278793, "lat": 41.3969074, "lon": 2.1714739, "tags": {"addr:housenumber": "360", "addr:street": "Carrer d'Arag\u00f3", "amenity": "restaurant", "cuisine": "chinese", "internet_access": "wlan", "name": "Chaoyue", "name:ca": "Transcendir"}}, {"type": "node", "id": 6757313689, "lat": 41.3993413, "lon": 2.173926, "tags": {"addr:housenumber": "207", "addr:street": "Carrer de N\u00e0pols", "amenity": "restaurant", "name": "Vulcano"}}, {"type": "node", "id": 6757313690, "lat": 41.3985115, "lon": 2.1727895, "tags": {"addr:housenumber": "167", "addr:street": "Carrer de Roger de Flor", "amenity": "fast_food", "cuisine": "pizza", "name": "Kuk Comidas"}}, {"type": "node", "id": 6757313691, "lat": 41.3981197, "lon": 2.1732947, "tags": {"amenity": "restaurant", "cuisine": "sandwich;hotdog;sausage;tapas;coffee_shop", "internet_access": "wlan", "name": "Pic\u00f3n"}}, {"type": "node", "id": 6757313692, "lat": 41.3948373, "lon": 2.1681172, "tags": {"addr:housenumber": "307", "addr:street": "Carrer d'Arag\u00f3", "amenity": "cafe", "name": "Santagloria", "wheelchair": "yes"}}, {"type": "node", "id": 6757314386, "lat": 41.395939, "lon": 2.1693991, "tags": {"addr:housenumber": "91", "addr:street": "Carrer de Girona", "name": "Supermercat", "shop": "supermarket"}}, {"type": "node", "id": 6757314488, "lat": 41.3971962, "lon": 2.1719178, "tags": {"addr:housenumber": "370", "addr:street": "Carrer d'Arag\u00f3", "amenity": "fast_food", "name": "Xurreria Jessy", "opening_hours": "Mo-Su 08:30-20:30"}}, {"type": "node", "id": 6757314489, "lat": 41.3936053, "lon": 2.1663935, "tags": {"amenity": "restaurant", "cuisine": "fine_dining", "internet_access": "wlan", "name": "LomoAlto"}}, {"type": "node", "id": 6757314885, "lat": 41.399663, "lon": 2.1745187, "tags": {"addr:housenumber": "397", "addr:street": "Carrer d'Arag\u00f3", "amenity": "restaurant", "cuisine": "asian", "name": "El Potala"}}, {"type": "node", "id": 6757314886, "lat": 41.398686, "lon": 2.1732235, "tags": {"addr:street": "Carrer d'Arag\u00f3", "amenity": "cafe", "name": "Quim Caf\u00e8!"}}, {"type": "node", "id": 6757314888, "lat": 41.397194, "lon": 2.1720269, "tags": {"addr:housenumber": "67", "addr:street": "Passeig de Sant Joan", "amenity": "restaurant", "name": "La Cueva del \u00c1ngel"}}, {"type": "node", "id": 6757314889, "lat": 41.3947202, "lon": 2.1685967, "tags": {"addr:housenumber": "312", "addr:street": "Carrer d'Arag\u00f3", "amenity": "restaurant", "name": "Bar la Perla"}}, {"type": "node", "id": 6757314890, "lat": 41.3948, "lon": 2.1680782, "tags": {"addr:housenumber": "305", "addr:street": "Carrer d'Arag\u00f3", "amenity": "restaurant", "contact:email": "info@tavernaamsterdam.com", "contact:phone": "+34 678 68 3930", "contact:website": "https://www.tavernaamsterdam.com/", "cuisine": "burger", "delivery": "yes", "internet_access": "wlan", "microbrewery": "yes", "name": "Amsterdam burgers, beers & steaks", "opening_hours": "Tu-Th 18:00-24:00; Fr 16:00-24:00; Sa 00:00-01:00,13:00-24:00; Su 00:00-01:00,13:00-22:00", "payment:contactless": "yes", "payment:credit_card": "yes", "payment:debit_cards": "yes", "takeaway": "yes"}}, {"type": "node", "id": 6757314891, "lat": 41.3944689, "lon": 2.1682575, "tags": {"brand": "Supercor", "brand:wikidata": "Q6135841", "brand:wikipedia": "es:Supercor", "name": "Supercor", "shop": "supermarket"}}, {"type": "node", "id": 6776761590, "lat": 41.4006336, "lon": 2.1674579, "tags": {"addr:housenumber": "127", "addr:street": "Passeig de Sant Joan", "amenity": "cafe", "internet_access": "wlan", "name": "Re B\u00f3"}}, {"type": "node", "id": 6776776186, "lat": 41.3997398, "lon": 2.1686348, "tags": {"addr:street": "Passeig de Sant Joan", "amenity": "cafe", "name": "La Cava Cakery"}}, {"type": "node", "id": 6790645700, "lat": 41.4020783, "lon": 2.1737965, "tags": {"addr:housenumber": "21", "addr:street": "Pl. de la Sagrada Fam\u00edlia", "amenity": "fast_food", "cuisine": "asian", "internet_access": "wlan", "name": "Vah\u00f6"}}, {"type": "node", "id": 6790710691, "lat": 41.4015393, "lon": 2.1726159, "tags": {"addr:housenumber": "367", "addr:street": "Carrer de Mallorca", "amenity": "cafe", "internet_access": "wlan", "name": "Katane'"}}, {"type": "node", "id": 6790710788, "lat": 41.4016499, "lon": 2.1727475, "tags": {"addr:housenumber": "371", "addr:street": "Carrer de Mallorca", "name": "Discount", "shop": "convenience"}}, {"type": "node", "id": 6790710789, "lat": 41.4013831, "lon": 2.172812, "tags": {"addr:housenumber": "374", "addr:street": "Carrer de Mallorca", "name": "Express Supermarket", "shop": "supermarket"}}, {"type": "node", "id": 6790725885, "lat": 41.4018628, "lon": 2.1734928, "tags": {"addr:housenumber": "26", "addr:street": "Pl. de la Sagrada Fam\u00edlia", "amenity": "restaurant", "internet_access": "wlan", "name": "Shang Tung"}}, {"type": "node", "id": 6790725886, "lat": 41.4017069, "lon": 2.1728171, "tags": {"addr:housenumber": "373", "addr:street": "Carrer de Mallorca", "amenity": "restaurant", "cuisine": "sandwich;tapas", "name": "Seven Days"}}, {"type": "node", "id": 6793569686, "lat": 41.4006356, "lon": 2.1718126, "tags": {"addr:housenumber": "356-358", "addr:street": "Carrer de Mallorca", "amenity": "restaurant", "internet_access": "wlan", "name": "Tapas & Bar Chiki"}}, {"type": "node", "id": 6793569687, "lat": 41.4000874, "lon": 2.1712214, "tags": {"amenity": "cafe", "cuisine": "breakfast;coffee_shop", "name": "Bristol Gastrobar"}}, {"type": "node", "id": 6793569786, "lat": 41.4005548, "lon": 2.1717201, "tags": {"addr:housenumber": "354", "addr:street": "Carrer de Mallorca", "name": "Charter", "shop": "supermarket"}}, {"type": "node", "id": 6793569886, "lat": 41.3996966, "lon": 2.168717, "tags": {"name": "London", "shop": "supermarket"}}, {"type": "node", "id": 6793569985, "lat": 41.4004371, "lon": 2.1715351, "tags": {"addr:housenumber": "350", "addr:street": "Carrer de Mallorca", "amenity": "cafe", "name": "Forn de pa Imperio"}}, {"type": "node", "id": 6797434017, "lat": 41.4008944, "lon": 2.1656529, "tags": {"amenity": "restaurant", "name": "La Corrala"}}, {"type": "node", "id": 6799471985, "lat": 41.4020203, "lon": 2.1703277, "tags": {"amenity": "restaurant", "name": "Royal Nepal"}}, {"type": "node", "id": 6812099690, "lat": 41.4017243, "lon": 2.1705585, "tags": {"addr:housenumber": "373", "addr:street": "Carrer de Proven\u00e7a", "amenity": "restaurant", "name": "Bar la Solana"}}, {"type": "node", "id": 6812099885, "lat": 41.400476, "lon": 2.1693312, "tags": {"addr:housenumber": "378", "addr:street": "Carrer de Proven\u00e7a", "brand": "Condis", "brand:wikidata": "Q57417581", "name": "Condis", "shop": "supermarket"}}, {"type": "node", "id": 6874116085, "lat": 41.399596, "lon": 2.1688499, "tags": {"addr:housenumber": "103", "addr:street": "Passeig de Sant Joan", "amenity": "cafe", "cuisine": "sandwich", "diet:vegetarian": "yes", "name": "Milfulles"}}, {"type": "node", "id": 6935894185, "lat": 41.3945422, "lon": 2.1689631, "tags": {"addr:housenumber": "79", "addr:street": "Carrer del Bruc", "amenity": "restaurant", "cuisine": "japanese", "name": "Sato i Tanaka"}}, {"type": "node", "id": 7070523749, "lat": 41.3977251, "lon": 2.1693445, "tags": {"addr:city": "Barcelona", "addr:country": "ES", "addr:housenumber": "115", "addr:postcode": "08009", "addr:street": "Carrer de Bail\u00e8n", "amenity": "cafe", "name": "Billy Brunch", "name:en": "Billy Brunch", "phone": "+34 93 457 06 40", "website": "https://billybrunch.com/"}}, {"type": "node", "id": 7084634827, "lat": 41.394099, "lon": 2.1655798, "tags": {"amenity": "restaurant", "name": "Silv\u00e1n"}}, {"type": "node", "id": 7085962670, "lat": 41.4007, "lon": 2.16926, "tags": {"amenity": "restaurant", "name": "El Manaba"}}, {"type": "node", "id": 7085985823, "lat": 41.4002, "lon": 2.16905, "tags": {"amenity": "restaurant", "cuisine": "japanese; sushi", "name": "Hoy Sushi"}}, {"type": "node", "id": 7085991293, "lat": 41.3951, "lon": 2.16688, "tags": {"amenity": "cafe", "name": "L\u2019Eticina"}}, {"type": "node", "id": 7085993694, "lat": 41.399, "lon": 2.16701, "tags": {"addr:housenumber": "49", "addr:street": "Carrer Provenca", "name": "Sorli Discau", "opening_hours": "Mo-Sa 09:00-21:00", "phone": "+34935 610 375", "shop": "supermarket", "website": "https://www.sorli.com/es/"}}, {"type": "node", "id": 7085994532, "lat": 41.401, "lon": 2.17236, "tags": {"amenity": "restaurant", "name": "Mi tienda"}}, {"type": "node", "id": 7125925986, "lat": 41.3963361, "lon": 2.1741163, "tags": {"amenity": "restaurant", "cuisine": "burger", "name": "Goiko Grill"}}, {"type": "node", "id": 7158622586, "lat": 41.3971587, "lon": 2.1720755, "tags": {"addr:housenumber": "63", "addr:street": "Passeig de Sant Joan", "amenity": "cafe", "name": "Syra Caf\u00e9", "name:en": "Sant Joan", "opening_hours": "Mo-Fr 08:00-20:00; Sa 09:00-20:00", "website": "https://syra.coffee"}}, {"type": "node", "id": 7158622985, "lat": 41.4014049, "lon": 2.1723871, "tags": {"amenity": "cafe", "name": "katane", "name:en": "Katane Coffee Bakery"}}, {"type": "node", "id": 7213360485, "lat": 41.3986817, "lon": 2.1691988, "tags": {"amenity": "restaurant", "cuisine": "japanese", "internet_access": "wlan", "name": "Midori"}}, {"type": "node", "id": 7237375583, "lat": 41.3954094, "lon": 2.1711715, "tags": {"addr:city": "Barcelona", "addr:housenumber": "403", "addr:postcode": "08009", "addr:street": "Carrer del Consell de Cent", "amenity": "restaurant", "contact:email": "info@guanabarabcn.com", "contact:phone": "+34 932 655 112", "contact:website": "http://www.guanabarabcn.com/", "cuisine": "brazilian", "diet:vegetarian": "yes", "name": "Guanabara by El Rodizio", "opening_hours": "Mo-Su 13:00-16:30,20:00-23:30"}}, {"type": "node", "id": 7238651188, "lat": 41.3966865, "lon": 2.1725929, "tags": {"amenity": "bar", "name": "100 montaditos"}}, {"type": "node", "id": 7256341385, "lat": 41.3962525, "lon": 2.1712885, "tags": {"addr:housenumber": "83", "addr:postcode": "08009", "addr:street": "Carrer de Bail\u00e8n", "amenity": "restaurant", "cuisine": "barbecue", "email": "fatbarbiesbailen@gmail.com", "internet_access": "wlan", "name": "Fat Barbies", "opening_hours": "Mo-Su 13:00-17:00, 19:00-00:00", "phone": "+34 931 18 32 22", "website": "https://www.lasfatbarbies.com/"}}, {"type": "node", "id": 7272699191, "lat": 41.3986476, "lon": 2.1759848, "tags": {"addr:housenumber": "448", "addr:street": "Carrer del Consell de Cent", "amenity": "restaurant", "name": "Shandong"}}, {"type": "node", "id": 7272699192, "lat": 41.3981496, "lon": 2.1754891, "tags": {"addr:housenumber": "183", "addr:street": "Carrer de N\u00e0pols", "amenity": "cafe", "name": "La Bar"}}, {"type": "node", "id": 7272699193, "lat": 41.397477, "lon": 2.1739846, "tags": {"addr:housenumber": "439", "addr:street": "Carrer del Consell de Cent", "amenity": "cafe", "name": "Dit i Fet"}}, {"type": "node", "id": 7272699194, "lat": 41.3973992, "lon": 2.1738962, "tags": {"addr:housenumber": "439", "addr:street": "Carrer del Consell de Cent", "amenity": "cafe", "name": "Tincset i m\u00e9s", "opening_hours": "Mo-Su 06:45-19:00"}}, {"type": "node", "id": 7272699792, "lat": 41.3981429, "lon": 2.1753584, "tags": {"addr:street": "Carrer del Consell de Cent", "amenity": "restaurant", "name": "Frankfurt 2006", "name:en": "442"}}, {"type": "node", "id": 7272699793, "lat": 41.3974784, "lon": 2.174615, "tags": {"addr:housenumber": "164", "addr:street": "Carrer de Roger de Flor", "amenity": "cafe", "internet_access": "wlan", "name": "l'Obrador"}}, {"type": "node", "id": 7272699987, "lat": 41.397634, "lon": 2.1746508, "tags": {"addr:housenumber": "424", "addr:street": "Carrer del Consell de Cent", "amenity": "restaurant", "internet_access": "wlan", "name": "Casa Muyo"}}, {"type": "node", "id": 7272699988, "lat": 41.396925, "lon": 2.1737419, "tags": {"addr:housenumber": "410", "addr:street": "Carrer del Consell de Cent", "amenity": "restaurant", "name": "Colala"}}, {"type": "node", "id": 7272699989, "lat": 41.3967343, "lon": 2.1736222, "tags": {"addr:housenumber": "66", "addr:street": "Passeig de Sant Joan", "amenity": "restaurant", "cuisine": "chicken", "internet_access": "wlan", "name": "Chicster"}}, {"type": "node", "id": 7272700188, "lat": 41.3986014, "lon": 2.1759301, "tags": {"addr:housenumber": "448", "addr:street": "Carrer del Consell de Cent", "amenity": "restaurant", "cuisine": "chinese", "name": "Pasta Jn"}}, {"type": "node", "id": 7272701085, "lat": 41.398971, "lon": 2.1764175, "tags": {"addr:housenumber": "456", "addr:street": "Carrer del Consell de Cent", "amenity": "cafe", "name": "La Vespa"}}, {"type": "node", "id": 7528275591, "lat": 41.3937028, "lon": 2.1661406, "tags": {"shop": "convenience"}}, {"type": "node", "id": 7553173585, "lat": 41.4006382, "lon": 2.169525, "tags": {"amenity": "cafe", "name": "Santagloria"}}, {"type": "node", "id": 7772770550, "lat": 41.3973065, "lon": 2.1697662, "tags": {"amenity": "restaurant", "diet:vegan": "yes", "diet:vegetarian": "yes", "name": "Equilibrium Caf\u00e8"}}, {"type": "node", "id": 7805903585, "lat": 41.401304, "lon": 2.167559, "tags": {"amenity": "ice_cream", "name": "Orchateria-turrons Verd\u00fa"}}, {"type": "node", "id": 7826558529, "lat": 41.3983546, "lon": 2.1683822, "tags": {"amenity": "pub", "name": "Can Queta"}}, {"type": "node", "id": 8040411394, "lat": 41.4020769, "lon": 2.1752815, "tags": {"addr:housenumber": "296", "addr:street": "Carrer de Sardenya", "amenity": "restaurant", "cuisine": "portuguese", "name": "Oporto"}}, {"type": "node", "id": 8169960617, "lat": 41.398901, "lon": 2.1649889, "tags": {"name": "La Catarga", "shop": "bakery"}}, {"type": "node", "id": 8196671119, "lat": 41.4019656, "lon": 2.1750129, "tags": {"addr:housenumber": "269", "addr:street": "Carrer de Sardenya", "amenity": "restaurant", "internet_access": "wlan", "name": "Catalunya"}}, {"type": "node", "id": 8363548522, "lat": 41.4019714, "lon": 2.1727472, "tags": {"amenity": "fast_food", "cuisine": "sushi", "name": "Hachiko Sushi"}}, {"type": "node", "id": 8363548523, "lat": 41.4011386, "lon": 2.1738498, "tags": {"amenity": "restaurant", "internet_access": "wlan", "name": "Golesa"}}, {"type": "node", "id": 8363573218, "lat": 41.4020559, "lon": 2.1726466, "tags": {"amenity": "restaurant", "cuisine": "burger", "name": "Green & Burger"}}, {"type": "node", "id": 8363573918, "lat": 41.4006488, "lon": 2.1745072, "tags": {"addr:housenumber": "197", "addr:street": "Carrer de Sic\u00edlia", "amenity": "cafe", "name": "Xue"}}, {"type": "node", "id": 8396129320, "lat": 41.4006915, "lon": 2.1721504, "tags": {"addr:housenumber": "243", "addr:street": "Carrer de N\u00e0pols", "amenity": "restaurant", "internet_access": "wlan", "name": "Brunch Bar"}}, {"type": "node", "id": 8396138418, "lat": 41.4004374, "lon": 2.1729608, "tags": {"name": "Supermarket", "shop": "supermarket"}}, {"type": "node", "id": 8396138419, "lat": 41.4003403, "lon": 2.1732318, "tags": {"addr:housenumber": "373", "addr:street": "Carrer de Val\u00e8ncia", "amenity": "cafe", "internet_access": "wlan", "name": "Marsella"}}, {"type": "node", "id": 8396138519, "lat": 41.4010765, "lon": 2.1746658, "tags": {"addr:housenumber": "596", "addr:street": "Carrer de Val\u00e8ncia", "name": "Val\u00e8ncia Supermercat", "shop": "supermarket"}}, {"type": "node", "id": 8396138617, "lat": 41.4018995, "lon": 2.1705658, "tags": {"addr:housenumber": "253", "addr:postcode": "08025", "addr:street": "Carrer de N\u00e0pols", "amenity": "restaurant", "cuisine": "italian;pizza", "email": "xiamoo12@hotmail.com", "internet_access": "wlan", "name": "Piazzolla", "opening_hours": "Mo-Su 07:30-00:30", "phone": "+34 935518649"}}, {"type": "node", "id": 8396138618, "lat": 41.4014754, "lon": 2.1747956, "tags": {"addr:housenumber": "409", "addr:street": "Carrer de Val\u00e8ncia", "amenity": "cafe", "internet_access": "wlan", "name": "El Raconet"}}, {"type": "node", "id": 8396138817, "lat": 41.4007613, "lon": 2.1725298, "tags": {"addr:housenumber": "228", "addr:street": "Carrer de N\u00e0pols", "name": "Autoservei", "shop": "supermarket"}}, {"type": "node", "id": 8396217719, "lat": 41.4011605, "lon": 2.1692972, "tags": {"addr:housenumber": "209", "addr:street": "Carrer de Roger de Flor", "amenity": "cafe", "internet_access": "wlan", "name": "Pren-\"Algo\""}}, {"type": "node", "id": 8403207217, "lat": 41.4012624, "lon": 2.1696577, "tags": {"addr:housenumber": "226", "addr:street": "Carrer de Roger de Flor", "amenity": "cafe", "name": "Veintuno doce 21 12"}}, {"type": "node", "id": 8403207317, "lat": 41.4002192, "lon": 2.171244, "tags": {"amenity": "restaurant", "name": "Can Massana"}}, {"type": "node", "id": 8463558318, "lat": 41.4008131, "lon": 2.1693876, "tags": {"addr:housenumber": "357", "addr:street": "Carrer de Proven\u00e7a", "amenity": "restaurant", "cuisine": "mexican", "internet_access": "wlan", "name": "Un Chingo De Sabor"}}, {"type": "node", "id": 8463558517, "lat": 41.3999538, "lon": 2.1704784, "tags": {"addr:housenumber": "343", "addr:street": "Carrer de Mallorca", "amenity": "cafe", "internet_access": "wlan", "name": "Coffe Shop"}}, {"type": "node", "id": 8511926619, "lat": 41.3969557, "lon": 2.1723319, "tags": {"addr:housenumber": "59", "addr:postcode": "08009", "addr:street": "Passeig de Sant Joan", "amenity": "ice_cream", "name": "Obrador DelaCrem", "opening_hours": "Mo-Th 13:00-20:30; Fr-Su 12:00-21:00", "phone": "+34934507119"}}, {"type": "node", "id": 8553101617, "lat": 41.4004481, "lon": 2.1688457, "tags": {"addr:housenumber": "349", "addr:street": "Carrer de Proven\u00e7a", "amenity": "cafe", "name": "Panery"}}, {"type": "node", "id": 8578962719, "lat": 41.3962828, "lon": 2.173227, "tags": {"addr:housenumber": "47", "addr:street": "Passeig de Sant Joan", "amenity": "restaurant", "name": "Sort"}}, {"type": "node", "id": 8578962720, "lat": 41.3970388, "lon": 2.1722424, "tags": {"addr:housenumber": "57", "addr:street": "Passeig de Sant Joan", "amenity": "restaurant", "cuisine": "turkish", "name": "Bella Istambul"}}, {"type": "node", "id": 8578962923, "lat": 41.394124, "lon": 2.1750447, "tags": {"name": "Pla\u00e7a de Tetuan", "shop": "supermarket"}}, {"type": "node", "id": 8578962924, "lat": 41.3980634, "lon": 2.1708298, "tags": {"addr:housenumber": "87", "addr:street": "Passeig de Sant Joan", "amenity": "restaurant", "cuisine": "burger", "internet_access": "wlan", "name": "Bull Brunch"}}, {"type": "node", "id": 8578963022, "lat": 41.3940169, "lon": 2.1748833, "tags": {"amenity": "restaurant", "cuisine": "japanese", "name": "Takumi Tonkotsu Ramen"}}, {"type": "node", "id": 8578963023, "lat": 41.3970907, "lon": 2.1721908, "tags": {"addr:housenumber": "59", "addr:street": "Passeig de Sant Joan", "amenity": "ice_cream", "name": "Obrador De la Crem"}}, {"type": "node", "id": 8578963024, "lat": 41.398038, "lon": 2.1706508, "tags": {"addr:housenumber": "368", "addr:street": "Carrer de Val\u00e8ncia", "amenity": "restaurant", "cuisine": "crepe", "name": "Creperie Georges"}}, {"type": "node", "id": 8578963418, "lat": 41.3945898, "lon": 2.1745957, "tags": {"addr:housenumber": "14", "addr:street": "Pla\u00e7a de Tetuan", "amenity": "restaurant", "cuisine": "chinese", "name": "Chong Qing"}}, {"type": "node", "id": 8578999717, "lat": 41.3968002, "lon": 2.1725577, "tags": {"addr:housenumber": "53", "addr:street": "Passeig de Sant Joan", "amenity": "cafe", "internet_access": "wlan", "name": "365 Obrador"}}, {"type": "node", "id": 8722531417, "lat": 41.4018279, "lon": 2.1751038, "tags": {"addr:housenumber": "417", "addr:street": "Carrer de Val\u00e8ncia", "amenity": "cafe", "internet_access": "wlan", "name": "Sun coffee & bakery"}}, {"type": "node", "id": 8731060017, "lat": 41.4001537, "lon": 2.166687, "tags": {"amenity": "restaurant", "cuisine": "japanese", "name": "Aiueno"}}, {"type": "node", "id": 8753554417, "lat": 41.3949556, "lon": 2.1660567, "tags": {"addr:housenumber": "283", "addr:street": "Carrer de Val\u00e8ncia", "name": "Catal\u00e0 & Kamala", "shop": "supermarket"}}, {"type": "node", "id": 8753554517, "lat": 41.3950292, "lon": 2.1660524, "tags": {"addr:housenumber": "87", "addr:street": "Carrer de Roger de Ll\u00faria", "amenity": "cafe", "name": "El teu lloc"}}, {"type": "node", "id": 8753554518, "lat": 41.395351, "lon": 2.1666431, "tags": {"addr:housenumber": "287", "addr:street": "Carrer de Val\u00e8ncia", "amenity": "cafe", "internet_access": "wlan", "name": "Madame Fartine"}}, {"type": "node", "id": 8929341124, "lat": 41.3999562, "lon": 2.1712429, "tags": {"addr:city": "Barcelona", "addr:housenumber": "218", "addr:postcode": "08013", "addr:street": "Carrer de Roger de Flor", "amenity": "restaurant", "cuisine": "mexican;latin;healthy", "name": "Maro Azul", "phone": "+34 934 31 97 23", "website": "https://maroazul.com/"}}, {"type": "node", "id": 8933869017, "lat": 41.3977862, "lon": 2.1743675, "tags": {"amenity": "cafe", "name": "365 Obrador"}}, {"type": "node", "id": 8974405423, "lat": 41.3978172, "lon": 2.1711863, "tags": {"amenity": "bar", "name": "100 montaditos"}}, {"type": "node", "id": 9006600217, "lat": 41.3950966, "lon": 2.1735436, "tags": {"amenity": "restaurant", "name": "Rooq"}}, {"type": "node", "id": 9061846773, "lat": 41.3962798, "lon": 2.1671018, "tags": {"addr:city": "Barcelona", "addr:housenumber": "118", "addr:postcode": "08009", "addr:street": "Carrer del Bruc", "amenity": "restaurant", "name": "Lato Caf\u00e9 - Breakfast, Brunch y Ceviches", "opening_hours": "We-Su 10:00-15:30", "phone": "+34930046501", "website": "http://latocafe.com/menu"}}, {"type": "node", "id": 9106100000, "lat": 41.3949272, "lon": 2.1666853, "tags": {"name": "Cibus Italia (Supermercat Itali\u00e0)", "product": "italian", "shop": "convenience"}}, {"type": "node", "id": 9107336916, "lat": 41.395012, "lon": 2.1667058, "tags": {"name": "Saint Honore (Pastisseria)", "shop": "pastry"}}, {"type": "node", "id": 9195617778, "lat": 41.3996907, "lon": 2.1682334, "tags": {"addr:city": "Barcelona", "addr:housenumber": "362", "addr:postcode": "08037", "addr:street": "Carrer de Proven\u00e7a", "air_conditioning": "yes", "brand": "N\u00faria Camps\u00ae", "description": "Herbolari, complements i cosm\u00e8tica natural.\nTenim tenda online amb marca pr\u00f2pia N\u00daRIA CAMPS\u00ae\ufe0f, qualitat a bon preu!\n\u260e\ufe0f 93 458 07 69", "email": "germinalbarcelona@gmail.com", "image": "https://commons.wikimedia.org/wiki/File:Herbolari_Germinal_Barcelona.jpg", "name": "Germinal | Herbolari , Complements i Cosm\u00e8tica Natural", "opening_hours": "Mo-Fr 10:00-14:00, 16:30-20:30 Sa 10:00-14:00", "opening_hours:covid19": "same", "organic": "only", "payment:cash": "yes", "payment:visa": "yes", "phone": "+34 93 458 07 69", "shop": "supermarket", "website": "https://germinalbcn.com/", "wheelchair": "yes", "wikimedia_commons": "File:Herbolari Germinal Barcelona.jpg"}}, {"type": "node", "id": 9230750654, "lat": 41.3940745, "lon": 2.1761554, "tags": {"amenity": "cafe", "name": "365 Obrador", "shop": "bakery"}}, {"type": "node", "id": 9402457649, "lat": 41.3936475, "lon": 2.169291, "tags": {"addr:city": "Barcelona", "addr:housenumber": "35", "addr:postcode": "08009", "addr:street": "Calle de Consell de Cent", "amenity": "restaurant", "cuisine": "italian", "name": "Eroica Caff\u00e8 Barcelona", "outdoor_seating": "yes", "website": "https://eroicacaffebcn.es/"}}, {"type": "node", "id": 9486254976, "lat": 41.3977846, "lon": 2.1692651, "tags": {"addr:housenumber": "117", "addr:street": "Carrer de Bail\u00e8n", "amenity": "restaurant", "name": "Teoric Taverna Gastronomica", "opening_hours": "Tu-Sa 13:30-15:30, 20:30-23:00"}}, {"type": "node", "id": 9528997146, "lat": 41.393571, "lon": 2.1714824, "tags": {"addr:housenumber": "304", "addr:street": "Carrer de la Diputaci\u00f3", "amenity": "restaurant", "name": "Yuan Lao Si Hotpot", "opening_hours": "Mo-Su 13:00-17:00, 19:30-00:00", "phone": "+34936271870", "website": "https://yuanlaosi.es/index_en.html"}}, {"type": "node", "id": 9552186017, "lat": 41.3939669, "lon": 2.1715626, "tags": {"amenity": "restaurant", "name": "Spark"}}, {"type": "node", "id": 9577811117, "lat": 41.4013174, "lon": 2.1646136, "tags": {"amenity": "cafe", "cuisine": "tapas", "internet_access": "wlan", "name": "Cafe Fontal", "survey:date": "2022-03-14"}}, {"type": "node", "id": 9735540586, "lat": 41.3969724, "lon": 2.1715371, "tags": {"addr:housenumber": "364", "addr:street": "Carrer d'Arag\u00f3", "amenity": "bar", "internet_access": "wlan", "name": "La Cueva Lounge Club", "name:ca": "Transcendir"}}, {"type": "node", "id": 9761737117, "lat": 41.3944636, "lon": 2.1695497, "tags": {"addr:housenumber": "86", "addr:street": "Carrer del Bruc", "amenity": "restaurant", "cuisine": "chinese;noodles", "name": "Restaurante Liukoushui Hotpot Fideo", "name:zh": "\u6d41\u53e3\u6c34\u91cd\u5e86\u706b\u9505\u5c0f\u9762", "opening_hours": "Mo-Su 12:30-16:30, 19:00-23:00"}}, {"type": "node", "id": 9820983992, "lat": 41.3972085, "lon": 2.1649596, "tags": {"addr:housenumber": "332", "addr:street": "Carrer de Proven\u00e7a", "amenity": "restaurant", "cuisine": "pizza", "name": "Pizzeria Eden", "opening_hours": "Mo-Sa 11:00-23:45", "outdoor_seating": "sidewalk", "phone": "+34 93 106 83 09", "takeaway": "yes", "website": "www.pizzeriaedenbarcelona.com", "wheelchair": "no"}}, {"type": "node", "id": 9823273618, "lat": 41.4001064, "lon": 2.1681834, "tags": {"name": "Tabacs", "shop": "supermarket"}}, {"type": "node", "id": 9823563917, "lat": 41.4005851, "lon": 2.1675727, "tags": {"amenity": "restaurant", "cuisine": "asian", "name": "Cuina Asi\u00e0tica 125"}}, {"type": "node", "id": 9823564017, "lat": 41.3992496, "lon": 2.1655548, "tags": {"name": "L'aroma del pa", "shop": "bakery"}}, {"type": "node", "id": 9855221017, "lat": 41.3941688, "lon": 2.1751728, "tags": {"amenity": "restaurant", "name:en": "Hotpot de Sighuan"}}, {"type": "node", "id": 9855223918, "lat": 41.3965802, "lon": 2.171267, "tags": {"name": "Supermercat fruites i verdures", "shop": "greengrocer"}}, {"type": "node", "id": 9866526321, "lat": 41.4018597, "lon": 2.1734737, "tags": {"addr:city": "Barcelona", "addr:housenumber": "26", "addr:postcode": "08013", "addr:street": "Pla\u00e7a Sagrada Fam\u00edlia", "name": "Proxim supermercats", "shop": "supermarket"}}, {"type": "node", "id": 9908857219, "lat": 41.4003935, "lon": 2.1663779, "tags": {"addr:city": "Barcelona", "addr:housenumber": "325", "addr:postcode": "08037", "addr:street": "Carrer del Rossell\u00f3", "amenity": "restaurant", "cuisine": "japanese", "name": "Can Kenji", "opening_hours": "Mo-Su 13:00-15:30; 20:30-23:00", "phone": "+34 93 476 18 23", "website": "https://cankenji.com/"}}, {"type": "node", "id": 9942968817, "lat": 41.3977343, "lon": 2.1655423, "tags": {"addr:street": "Carrer de Proven\u00e7a", "amenity": "bar", "name": "Ancestral"}}]}