{"version": 0.6, "generator": "Overpass API 0.7.58.5 b0c4acbb", "osm3s": {"timestamp_osm_base": "2022-08-22T11:47:09Z", "copyright": "The data included in this document is from www.openstreetmap.org. The data is made available under ODbL."}, "elements": [{"type": "node", "id": 1632020532, "lat": 40.4189216, "lon": -3.704838, "tags": {"addr:city": "Madrid", "addr:housenumber": "24", "addr:postcode": "28013", "addr:street": "Calle del Carmen", "brand": "Lush", "brand:wikidata": "Q1585448", "brand:wikipedia": "en:Lush (company)", "contact:phone": "+34 91 532 76 67", "contact:website": "https://www.lush.es", "name": "Lush", "old_name": "Miss Sixty", "opening_hours": "Mo-Su 10:00-21:00", "shop": "cosmetics", "source": "knowledge"}}, {"type": "node", "id": 1716935148, "lat": 40.4150206, "lon": -3.702126, "tags": {"contact:phone": "+34 91 531 2816", "name": "Print Huellas", "shop": "clothes", "source": "survey"}}, {"type": "node", "id": 1782593820, "lat": 40.420019, "lon": -3.7041365, "tags": {"brand": "Oysho", "brand:wikidata": "Q3327046", "brand:wikipedia": "en:Oysho", "name": "Oysho", "opening_hours": "PH,Mo-Su 10:00-22:00", "shop": "clothes", "source": "survey"}}, {"type": "node", "id": 1956387946, "lat": 40.4202961, "lon": -3.7032552, "tags": {"brand": "H&M", "brand:wikidata": "Q188326", "brand:wikipedia": "en:H&M", "name": "H&M", "shop": "clothes"}}, {"type": "node", "id": 1956387951, "lat": 40.4203286, "lon": -3.703728, "tags": {"name": "Lefties", "shop": "clothes"}}, {"type": "node", "id": 1956394115, "lat": 40.4202496, "lon": -3.7026399, "tags": {"brand": "Stradivarius", "brand:wikidata": "Q3322945", "brand:wikipedia": "en:Stradivarius (clothing brand)", "name": "Stradivarius", "shop": "clothes"}}, {"type": "node", "id": 1956394118, "lat": 40.4203232, "lon": -3.7036211, "tags": {"brand": "Mango", "brand:wikidata": "Q136503", "brand:wikipedia": "en:Mango (retailer)", "name": "Mango", "shop": "clothes"}}, {"type": "node", "id": 1956401450, "lat": 40.420361, "lon": -3.7041384, "tags": {"addr:city": "Madrid", "addr:country": "ES", "addr:housenumber": "34", "addr:postcode": "28013", "addr:street": "Gran V\u00eda", "brand": "Zara", "brand:wikidata": "Q147662", "brand:wikipedia": "en:Zara (retailer)", "name": "Zara", "phone": "+34 915211283", "shop": "clothes", "source": "survey", "website": "https://www.zara.com/"}}, {"type": "node", "id": 1956470845, "lat": 40.4198737, "lon": -3.7020813, "tags": {"brand": "Bershka", "brand:wikidata": "Q827258", "brand:wikipedia": "en:Bershka", "name": "Bershka", "shop": "clothes"}}, {"type": "node", "id": 2527441667, "lat": 40.4131029, "lon": -3.7048101, "tags": {"name": "Verma", "old_name": "Mabeve", "shop": "clothes"}}, {"type": "node", "id": 2603373952, "lat": 40.4157384, "lon": -3.709126}, {"type": "node", "id": 2603373953, "lat": 40.4157414, "lon": -3.7091172}, {"type": "node", "id": 2603373957, "lat": 40.4157726, "lon": -3.7091432}, {"type": "node", "id": 2603373959, "lat": 40.4157942, "lon": -3.7090112}, {"type": "node", "id": 2603373960, "lat": 40.4157992, "lon": -3.7090401}, {"type": "node", "id": 2622900841, "lat": 40.4185568, "lon": -3.7046745, "tags": {"brand": "Bershka", "brand:wikidata": "Q827258", "brand:wikipedia": "en:Bershka", "name": "Bershka", "shop": "clothes", "source": "survey"}}, {"type": "node", "id": 2622900843, "lat": 40.4194526, "lon": -3.7057168, "tags": {"addr:city": "Madrid", "addr:country": "ES", "addr:housenumber": "25", "addr:postcode": "28013", "addr:street": "Calle Preciados", "brand": "Desigual", "brand:wikidata": "Q83750", "brand:wikipedia": "en:Desigual", "entrance": "main", "name": "Desigual", "shop": "clothes", "source": "survey"}}, {"type": "node", "id": 2622900846, "lat": 40.4181826, "lon": -3.7042557, "tags": {"name": "La Zapater\u00eda", "opening_hours": "Mo-Th 10:00-21:00; Fr,Sa 10:00-21:30; Su 11:00-21:30", "shop": "shoes", "source": "survey"}}, {"type": "node", "id": 2622900855, "lat": 40.4201053, "lon": -3.7054542, "tags": {"addr:city": "Madrid", "addr:housenumber": "39", "addr:postcode": "28013", "addr:street": "Gran V\u00eda", "name": "Primor", "old_name": "Zapatos Ulanka", "shop": "cosmetics", "source": "survey", "website": "https://www.primor.eu/"}}, {"type": "node", "id": 2622900856, "lat": 40.4184616, "lon": -3.7045539, "tags": {"brand": "Zara", "brand:wikidata": "Q147662", "brand:wikipedia": "en:Zara (retailer)", "name": "Zara", "shop": "clothes", "source": "survey"}}, {"type": "node", "id": 2650143059, "lat": 40.4180664, "lon": -3.7041278, "tags": {"brand": "Mango", "brand:wikidata": "Q136503", "brand:wikipedia": "en:Mango (retailer)", "name": "Mango", "shop": "clothes", "source": "survey"}}, {"type": "node", "id": 2689636991, "lat": 40.4212062, "lon": -3.7077645, "tags": {"addr:city": "Madrid", "addr:housenumber": "51", "addr:postcode": "28013", "addr:street": "Gran V\u00eda", "name": "Bodybell", "phone": "+34 911390855", "shop": "perfumery", "website": "http://www.bodybell.com/nuestras_tiendas/300228/tienda_perfume_MADRID"}}, {"type": "node", "id": 2689693275, "lat": 40.4172925, "lon": -3.7079481, "tags": {"addr:city": "Madrid", "addr:country": "ES", "addr:housenumber": "10", "addr:postcode": "28013", "addr:street": "Calle de las Hileras", "contact:phone": "+34 919209516", "contact:website": "https://thinfat.es/", "name": "Thinfat", "old_name": "Margot", "shop": "tattoo"}}, {"type": "node", "id": 2694452213, "lat": 40.4211441, "lon": -3.7076739, "tags": {"addr:city": "Madrid", "addr:housenumber": "49", "addr:postcode": "28013", "addr:street": "Gran V\u00eda", "contact:website": "http://www.peleteriasjacintorodriguez.es/", "name": "JR Leather", "old_name": "Peleter\u00eda Jacinto Rodr\u00edguez", "shop": "clothes"}}, {"type": "node", "id": 2696236495, "lat": 40.4210993, "lon": -3.7076013, "tags": {"addr:city": "Madrid", "addr:housenumber": "49", "addr:postcode": "28013", "addr:street": "Gran V\u00eda", "contact:website": "http://www.calzadosrumbo.com/", "name": "Rumbo", "old_name": "Blanco", "shop": "shoes"}}, {"type": "node", "id": 2697665179, "lat": 40.4212707, "lon": -3.7071947, "tags": {"addr:city": "Madrid", "addr:housenumber": "54", "addr:postcode": "28013", "addr:street": "Gran V\u00eda", "name": "Bravo Java", "phone": "+34 91 547 33 20", "shop": "shoes", "website": "http://www.bravojava.net/"}}, {"type": "node", "id": 2699835927, "lat": 40.4208454, "lon": -3.7065186, "tags": {"addr:city": "Madrid", "addr:housenumber": "50", "addr:postcode": "28013", "addr:street": "Gran V\u00eda", "brand": "Geox", "brand:wikidata": "Q588001", "brand:wikipedia": "en:Geox", "name": "Geox", "phone": "+34 915416690", "shop": "shoes", "website": "https://www.geox.com/"}}, {"type": "node", "id": 2699835931, "lat": 40.420586, "lon": -3.7067959, "tags": {"addr:city": "Madrid", "addr:housenumber": "43", "addr:postcode": "28013", "addr:street": "Gran V\u00eda", "name": "Iris", "shop": "shoes"}}, {"type": "node", "id": 2701070791, "lat": 40.4204536, "lon": -3.705516, "tags": {"addr:city": "Madrid", "addr:housenumber": "44", "addr:postcode": "28013", "addr:street": "Gran V\u00eda", "name": "Zapshop", "old_name": "Subarusushi", "shop": "shoes"}}, {"type": "node", "id": 2701070792, "lat": 40.4204739, "lon": -3.7057501, "tags": {"addr:city": "Madrid", "addr:housenumber": "46", "addr:postcode": "28013", "addr:street": "Gran V\u00eda", "brand": "The Body Shop", "brand:wikidata": "Q837851", "brand:wikipedia": "en:The Body Shop", "name": "The Body Shop", "phone": "+34 915223602", "shop": "cosmetics", "website": "http://www.thebodyshop.es/"}}, {"type": "node", "id": 2701070793, "lat": 40.4209321, "lon": -3.705569, "tags": {"addr:city": "Madrid", "addr:country": "ES", "addr:housenumber": "6", "addr:postcode": "28004", "addr:street": "Calle de Miguel Moya", "name": "Sant\u00e9 & Beaut\u00e9", "shop": "hairdresser"}}, {"type": "node", "id": 2701070795, "lat": 40.4201036, "lon": -3.705302, "tags": {"addr:city": "Madrid", "addr:housenumber": "39", "addr:postcode": "28013", "addr:street": "Gran V\u00eda", "name": "NYX Professional Makeup", "old_name": "Swarovski", "phone": "+34 917 295 362", "shop": "cosmetics", "website": "https://www.nyxcosmetics.es"}}, {"type": "node", "id": 2711609307, "lat": 40.4203702, "lon": -3.7043242, "tags": {"addr:city": "Madrid", "addr:country": "ES", "addr:housenumber": "36", "addr:postcode": "28013", "addr:street": "Gran V\u00eda", "brand": "Nyx", "brand:wikidata": "Q23671513", "brand:wikipedia": "fr:NYX Professional Makeup", "contact:website": "https://www.nyxcosmetics.es/", "name": "Nyx", "old_name": "La Caixa;House of Hoops", "shop": "cosmetics", "source": "survey"}}, {"type": "node", "id": 2711609319, "lat": 40.4203896, "lon": -3.7047238, "tags": {"addr:city": "Madrid", "addr:country": "ES", "addr:housenumber": "38", "addr:postcode": "28013", "addr:street": "Gran V\u00eda", "brand": "Nike", "brand:wikidata": "Q483915", "brand:wikipedia": "en:Nike, Inc.", "name": "Nike", "opening_hours": "Mo-Sa 10:00-21:30; Su,PH 11:00-21:30", "phone": "+34 915 23 73 59", "shop": "clothes", "source": "survey", "website": "https://store.nike.com/es/es_es/"}}, {"type": "node", "id": 2727060496, "lat": 40.4169038, "lon": -3.7084778, "tags": {"addr:city": "Madrid", "addr:country": "ES", "addr:housenumber": "3", "addr:postcode": "28013", "addr:street": "Calle de las Hileras", "name": "Polo", "shop": "hairdresser"}}, {"type": "node", "id": 2727060497, "lat": 40.4171974, "lon": -3.708165, "tags": {"addr:city": "Madrid", "addr:housenumber": "7", "addr:postcode": "28013", "addr:street": "Calle de las Hileras", "name": "Maty", "phone": "+34 91 541 20 16", "shop": "clothes", "website": "http://www.maty.es/"}}, {"type": "node", "id": 2727060499, "lat": 40.4175335, "lon": -3.707893, "tags": {"addr:city": "Madrid", "addr:housenumber": "19", "addr:postcode": "28013", "addr:street": "Calle Arenal", "brand": "Geox", "brand:wikidata": "Q588001", "brand:wikipedia": "en:Geox", "name": "Geox", "phone": "+34 911724657", "shop": "shoes", "website": "https://www.geox.com/"}}, {"type": "node", "id": 2727060509, "lat": 40.4175887, "lon": -3.7075614, "tags": {"addr:city": "Madrid", "addr:housenumber": "22", "addr:postcode": "28013", "addr:street": "Calle Arenal", "name": "Aerosoles", "shop": "shoes", "website": "http://www.aerosoles.com/", "wheelchair": "limited"}}, {"type": "node", "id": 2727060510, "lat": 40.4204075, "lon": -3.7049318, "tags": {"addr:city": "Madrid", "addr:housenumber": "40", "addr:postcode": "28013", "addr:street": "Gran V\u00eda", "brand": "Springfield", "brand:wikidata": "Q958209", "brand:wikipedia": "es:Springfield (cadena de tiendas)", "name": "Springfield", "phone": "+34 91 521 37 63", "shop": "clothes", "website": "https://spf.com/"}}, {"type": "node", "id": 2734061920, "lat": 40.4122992, "lon": -3.7053962}, {"type": "node", "id": 2734061922, "lat": 40.4123256, "lon": -3.7055196}, {"type": "node", "id": 2734061924, "lat": 40.4123493, "lon": -3.705635}, {"type": "node", "id": 2734061925, "lat": 40.4123643, "lon": -3.7054751}, {"type": "node", "id": 2734061927, "lat": 40.4123633, "lon": -3.7055045}, {"type": "node", "id": 2734061928, "lat": 40.4123742, "lon": -3.7057637}, {"type": "node", "id": 2734061931, "lat": 40.4124039, "lon": -3.7054584}, {"type": "node", "id": 2734061933, "lat": 40.4124103, "lon": -3.705487}, {"type": "node", "id": 2736312608, "lat": 40.4133088, "lon": -3.7014383, "tags": {"addr:city": "Madrid", "addr:housenumber": "30", "addr:postcode": "28012", "addr:street": "Calle de Atocha", "name": "Tejidos Paredes", "opening_hours": "Mo-Sa 10:00-14:00, 17:00-20:30", "phone": "+34 91 429 66 63", "shop": "fabric", "website": "http://www.tejidosparedes.net"}}, {"type": "node", "id": 2769265435, "lat": 40.4203852, "lon": -3.7044992, "tags": {"addr:city": "Madrid", "addr:country": "ES", "addr:housenumber": "38", "addr:postcode": "28013", "addr:street": "Gran V\u00eda", "brand": "Tous", "brand:wikidata": "Q3815128", "brand:wikipedia": "en:Tous (company)", "name": "Tous", "old_name": "Jules", "phone": "+34 91 521 36 16", "shop": "jewelry"}}, {"type": "node", "id": 2769265436, "lat": 40.4203746, "lon": -3.7043974, "tags": {"addr:city": "Madrid", "addr:country": "ES", "addr:housenumber": "36", "addr:postcode": "28013", "addr:street": "Gran V\u00eda", "email": "info@vaqueroseldorado.com", "name": "El Dorado", "phone": "+34 915 212 194", "shop": "clothes", "website": "http://www.vaqueroseldorado.com/"}}, {"type": "node", "id": 2781347239, "lat": 40.4175321, "lon": -3.7057153, "tags": {"addr:city": "Madrid", "addr:housenumber": "2", "addr:postcode": "28013", "addr:street": "Calle del Maestro Victoria", "name": "Maty", "phone": "+34 91 531 32 91", "shop": "clothes", "website": "http://www.maty.es/"}}, {"type": "node", "id": 2822786390, "lat": 40.4209833, "lon": -3.7082921, "tags": {"addr:city": "Madrid", "addr:housenumber": "5", "addr:postcode": "28013", "addr:street": "Calle de San Bernardo", "name": "Jaime", "shop": "clothes"}}, {"type": "node", "id": 2822786393, "lat": 40.4167182, "lon": -3.7087314, "tags": {"addr:city": "Madrid", "addr:housenumber": "8", "addr:postcode": "28013", "addr:street": "Plaza de Herradores", "contact:phone": "+34 915 15 44 02", "contact:website": "http://aramayo.es/", "name": "Aramayo", "old_name": "Higiensec", "opening_hours": "Mo-Su 11:00-21:30", "shop": "clothes"}}, {"type": "node", "id": 2824456973, "lat": 40.4195002, "lon": -3.7095511, "tags": {"addr:city": "Madrid", "addr:country": "ES", "addr:housenumber": "10", "addr:postcode": "28013", "addr:street": "Cuesta de Santo Domingo", "name": "Are you ready?", "phone": "+34 911693758", "shop": "hairdresser", "website": "https://www.areyouready.es/"}}, {"type": "node", "id": 2824456975, "lat": 40.4194212, "lon": -3.7096188, "tags": {"addr:city": "Madrid", "addr:housenumber": "8", "addr:postcode": "28013", "addr:street": "Cuesta de Santo Domingo", "contact:facebook": "https://www.facebook.com/Bouclepeluqueria/info", "name": "Boucl\u00e9", "phone": "+34 913 64 01 93", "shop": "beauty"}}, {"type": "node", "id": 2912539523, "lat": 40.4137166, "lon": -3.7069438, "tags": {"addr:city": "Madrid", "addr:housenumber": "31", "addr:postcode": "28012", "addr:street": "Calle de la Concepci\u00f3n Jer\u00f3nima", "old_name": "Ludorum Juegos", "phone": "+34 91 364 53 43", "shop": "hairdresser", "source": "survey", "website": "http://www.ludorumjuegos.es/"}}, {"type": "node", "id": 2946208307, "lat": 40.4166895, "lon": -3.7084281, "tags": {"addr:city": "Madrid", "addr:housenumber": "10", "addr:postcode": "28013", "addr:street": "Plaza de Herradores", "name": "Rufino Sastre", "shop": "clothes"}}, {"type": "node", "id": 2954345610, "lat": 40.4130534, "lon": -3.7012599}, {"type": "node", "id": 2954345624, "lat": 40.4132321, "lon": -3.7011589}, {"type": "node", "id": 2955144571, "lat": 40.4123356, "lon": -3.7034935}, {"type": "node", "id": 3117345710, "lat": 40.4198868, "lon": -3.7023841, "tags": {"branch": "Make Up Milano", "brand": "KIKO Milano", "brand:wikidata": "Q3812045", "brand:wikipedia": "it:KIKO", "name": "KIKO Milano", "shop": "cosmetics", "source": "survey"}}, {"type": "node", "id": 3163832971, "lat": 40.4207957, "lon": -3.7013022, "tags": {"addr:city": "Madrid", "addr:country": "ES", "addr:housenumber": "8", "addr:postcode": "28004", "addr:street": "Calle de Fuencarral", "addr:subdistrict": "Justicia", "brand": "Nyx", "brand:wikidata": "Q23671513", "brand:wikipedia": "fr:NYX Professional Makeup", "name": "Nyx", "shop": "cosmetics"}}, {"type": "node", "id": 3191248754, "lat": 40.4190313, "lon": -3.7022005, "tags": {"addr:city": "Madrid", "addr:country": "ES", "addr:housenumber": "37", "addr:postcode": "28013", "addr:street": "Calle de la Montera", "name": "Salvador Bachiller", "shop": "clothes"}}, {"type": "node", "id": 3235339921, "lat": 40.4199391, "lon": -3.7031057, "tags": {"beauty": "cosmetics", "brand": "Yves Rocher", "brand:wikidata": "Q28496595", "brand:wikipedia": "en:Yves Rocher (company)", "name": "Yves Rocher", "opening_hours": "Mo-Sa 10:00-21:00; Su 12:00-20:00", "shop": "beauty"}}, {"type": "node", "id": 3237905300, "lat": 40.4173295, "lon": -3.7066079, "tags": {"addr:city": "Madrid", "addr:housenumber": "16", "addr:postcode": "28013", "addr:street": "Calle Arenal", "brand": "Celio", "brand:wikidata": "Q2672003", "brand:wikipedia": "en:Celio (retailer)", "contact:website": "http://www.celio.com/", "name": "Celio", "shop": "clothes"}}, {"type": "node", "id": 3244687921, "lat": 40.42028, "lon": -3.7063607, "tags": {"name": "Benetton", "shop": "clothes", "source": "knowledge"}}, {"type": "node", "id": 3260817255, "lat": 40.4126734, "lon": -3.7052167}, {"type": "node", "id": 3260817259, "lat": 40.4126961, "lon": -3.7051509}, {"type": "node", "id": 3260817272, "lat": 40.4127508, "lon": -3.7051306}, {"type": "node", "id": 3260817274, "lat": 40.4127579, "lon": -3.7052549}, {"type": "node", "id": 3260817278, "lat": 40.4127752, "lon": -3.7052441}, {"type": "node", "id": 3306785585, "lat": 40.4125801, "lon": -3.707688}, {"type": "node", "id": 3306785590, "lat": 40.4126029, "lon": -3.7077668}, {"type": "node", "id": 3306785593, "lat": 40.4126453, "lon": -3.7077601}, {"type": "node", "id": 3312744522, "lat": 40.4210696, "lon": -3.7038672, "tags": {"addr:city": "Madrid", "addr:country": "ES", "addr:housenumber": "22", "addr:postcode": "28004", "addr:street": "Calle del Desenga\u00f1o", "description": "Venta de compuestos qu\u00edmicos.", "name": "Manuel Riesgo", "opening_hours": "Mo-Fr 09:00-20:00; Sa 10:00-16:00", "phone": "+34902524001;+34 91 521 61 34", "shop": "chemist", "website": "https://www.manuelriesgo.com"}}, {"type": "node", "id": 3365559339, "lat": 40.4191769, "lon": -3.7050341, "tags": {"addr:city": "Madrid", "addr:housenumber": "26", "addr:postcode": "28013", "addr:street": "Calle del Carmen", "name": "Zap Shop", "old_name": "Oomuombo", "shop": "shoes"}}, {"type": "node", "id": 3365559341, "lat": 40.419046, "lon": -3.7049315, "tags": {"addr:city": "Madrid", "addr:housenumber": "26", "addr:postcode": "28013", "addr:street": "Calle del Carmen", "name": "Krack", "phone": "+34 915 231 103", "shop": "shoes", "website": "https://www.krackonline.com/es/"}}, {"type": "node", "id": 3381180429, "lat": 40.4200253, "lon": -3.7042179, "tags": {"addr:city": "Madrid", "addr:country": "ES", "addr:housenumber": "33", "addr:postcode": "28013", "addr:street": "Gran V\u00eda", "brand": "Desigual", "brand:wikidata": "Q83750", "brand:wikipedia": "en:Desigual", "contact:phone": "+34 915 314 730", "contact:website": "http://www.desigual.com/", "name": "Desigual", "shop": "clothes"}}, {"type": "node", "id": 3385917993, "lat": 40.4200399, "lon": -3.7044024, "tags": {"addr:city": "Madrid", "addr:country": "ES", "addr:housenumber": "33", "addr:postcode": "28013", "addr:street": "Gran V\u00eda", "brand": "Punt Roma", "brand:wikidata": "Q101423290", "clothes": "women", "contact:phone": "+34 915317924", "contact:website": "http://www.puntroma.com/", "name": "Punt Roma", "opening_hours": "Mo-Sa 10:00-21:00; PH,Su 11:00-21:00", "shop": "clothes"}}, {"type": "node", "id": 3429275105, "lat": 40.4194522, "lon": -3.7029244, "tags": {"name": "JacobStyle", "shop": "hairdresser"}}, {"type": "node", "id": 3429275107, "lat": 40.4191441, "lon": -3.7029494, "tags": {"name": "Niuma", "shop": "hairdresser"}}, {"type": "node", "id": 3429293411, "lat": 40.4199827, "lon": -3.7036612, "tags": {"brand": "Clarks", "brand:wikidata": "Q1095857", "brand:wikipedia": "en:C. & J. Clark", "name": "Clarks", "opening_hours": "Mo-Sa 10:00-21:00; PH,Su 12:00-20:00", "shop": "shoes"}}, {"type": "node", "id": 3429293412, "lat": 40.4199299, "lon": -3.7028925, "tags": {"brand": "Douglas", "brand:wikidata": "Q2052213", "name": "Douglas", "shop": "perfumery"}}, {"type": "node", "id": 3429293414, "lat": 40.4199798, "lon": -3.7035925, "tags": {"name": "Real Madrid", "opening_hours": "Mo-Su 11:00-20:00", "shop": "clothes"}}, {"type": "node", "id": 3429293415, "lat": 40.4202317, "lon": -3.7023733, "tags": {"brand": "Sfera", "brand:wikidata": "Q110065666", "clothes": "fashion", "name": "Sfera", "shop": "clothes"}}, {"type": "node", "id": 3429401827, "lat": 40.4174175, "lon": -3.7028535, "tags": {"name": "Aplauso", "shop": "shoes"}}, {"type": "node", "id": 3429401829, "lat": 40.4175031, "lon": -3.7028046, "tags": {"addr:city": "Madrid", "addr:housenumber": "6", "addr:postcode": "28013", "addr:street": "Calle de la Montera", "brand": "Douglas", "brand:wikidata": "Q2052213", "brand:wikipedia": "de:Parf\u00fcmerie Douglas", "contact:phone": "+34 911390856", "contact:website": "https://douglas.es", "name": "Douglas", "old_name": "Bodybell", "shop": "perfumery"}}, {"type": "node", "id": 3431845451, "lat": 40.417871, "lon": -3.7027956, "tags": {"name": "Elena Hern\u00e1ndez", "shop": "shoes"}}, {"type": "node", "id": 3431845452, "lat": 40.4183763, "lon": -3.7022443, "tags": {"name": "Factory Tattoo", "shop": "tattoo"}}, {"type": "node", "id": 3431845453, "lat": 40.4177209, "lon": -3.7026871, "tags": {"addr:city": "Madrid", "addr:housenumber": "14", "addr:postcode": "28013", "addr:street": "Calle de la Montera", "contact:phone": "+34 91 531 14 29", "contact:website": "http://www.calzadosdiez.com/", "name": "D\u00edez", "old_name": "A Pie", "shop": "shoes"}}, {"type": "node", "id": 3431845456, "lat": 40.4174757, "lon": -3.7030108, "tags": {"brand": "Springfield", "brand:wikidata": "Q958209", "brand:wikipedia": "es:Springfield (cadena de tiendas)", "name": "Springfield", "shop": "clothes"}}, {"type": "node", "id": 3433712292, "lat": 40.4201733, "lon": -3.7015222, "tags": {"name": "Uni\u00f3n Suiza", "shop": "watches"}}, {"type": "node", "id": 3508885635, "lat": 40.4203102, "lon": -3.7034467, "tags": {"addr:city": "Madrid", "addr:housenumber": "32", "addr:postcode": "28013", "addr:street": "Calle Gran Via", "alt_name": "Primark Gran Via", "brand": "Primark", "brand:wikidata": "Q137023", "brand:wikipedia": "en:Primark", "contact:phone": "+34 913 60 55 06", "contact:website": "https://stores.primark.com/es_es/espana/madrid/calle-gran-via-32", "internet_access": "wlan", "name": "Primark", "shop": "clothes", "toilets": "yes", "toilets:wheelchair": "yes", "website": "https://www.primark.com/es"}}, {"type": "node", "id": 3533276782, "lat": 40.4192903, "lon": -3.7056161, "tags": {"addr:city": "Madrid", "addr:housenumber": "23", "addr:postcode": "28013", "addr:street": "Calle Preciados", "brand": "Camper", "brand:wikidata": "Q1030922", "brand:wikipedia": "en:Camper (company)", "contact:phone": "+34 915317897", "contact:website": "http://www.camper.com/es_ES", "name": "Camper", "name:es": "Camper", "name:ko": "\ucea0\ud37c", "shop": "shoes"}}, {"type": "node", "id": 3533276783, "lat": 40.4192297, "lon": -3.7055721, "tags": {"addr:city": "Madrid", "addr:housenumber": "23", "addr:postcode": "28013", "addr:street": "Calle Preciados", "brand": "Geox", "brand:wikidata": "Q588001", "brand:wikipedia": "en:Geox", "contact:phone": "+34 915325502", "contact:website": "https://www.geox.com", "name": "Geox", "shop": "shoes"}}, {"type": "node", "id": 3614543602, "lat": 40.4128584, "lon": -3.7076591}, {"type": "node", "id": 3614543608, "lat": 40.4128752, "lon": -3.7076224}, {"type": "node", "id": 3623340408, "lat": 40.4178918, "lon": -3.7044245, "tags": {"brand": "Intimissimi", "brand:wikidata": "Q305404", "brand:wikipedia": "en:Intimissimi", "clothes": "underwear", "name": "Intimissimi", "opening_hours": "Mo-Sa 10:00-22:00; Su 10:00-21:30", "shop": "clothes", "source": "survey"}}, {"type": "node", "id": 3639015514, "lat": 40.4212688, "lon": -3.7012726, "tags": {"addr:city": "Madrid", "addr:housenumber": "19", "addr:postcode": "28004", "addr:street": "Calle de Fuencarral", "brand": "Diesel", "brand:wikidata": "Q158285", "brand:wikipedia": "en:Diesel (brand)", "contact:phone": "+34 915 226 924", "contact:website": "http://www.diesel.com/store-locator/store/359/fuencarral", "name": "Diesel", "shop": "clothes"}}, {"type": "node", "id": 3644961940, "lat": 40.4173431, "lon": -3.7028939, "tags": {"name": "Lola Rey", "shop": "shoes"}}, {"type": "node", "id": 3644961941, "lat": 40.4174479, "lon": -3.7028366, "tags": {"name": "Montera Tattoo", "shop": "tattoo"}}, {"type": "node", "id": 3644961942, "lat": 40.417782, "lon": -3.7026551, "tags": {"addr:city": "Madrid", "addr:housenumber": "14", "addr:postcode": "28013", "addr:street": "Calle de la Montera", "contact:facebook": "https://es-es.facebook.com/irenecalzados/", "name": "Irene", "old_name": "Mps souvenirs", "shop": "shoes"}}, {"type": "node", "id": 3644961943, "lat": 40.4172853, "lon": -3.7029237, "tags": {"shop": "variety_store"}}, {"type": "node", "id": 3644961945, "lat": 40.4175437, "lon": -3.7027855, "tags": {"name": "Ysusi", "shop": "perfumery"}}, {"type": "node", "id": 3649181145, "lat": 40.414113, "lon": -3.7076244}, {"type": "node", "id": 3660795679, "lat": 40.4178585, "lon": -3.7085361, "tags": {"addr:city": "Madrid", "addr:housenumber": "28", "addr:postcode": "28013", "addr:street": "Calle Arenal", "name": "Natura", "shop": "clothes"}}, {"type": "node", "id": 3660795684, "lat": 40.4177419, "lon": -3.7087443, "tags": {"addr:city": "Madrid", "addr:housenumber": "21", "addr:postcode": "28013", "addr:street": "Calle Arenal", "contact:phone": "+34 911 73 72 14", "contact:website": "http://www.pampling.com/", "name": "Pampling.com", "shop": "clothes", "wheelchair": "no"}}, {"type": "node", "id": 3660796668, "lat": 40.4178199, "lon": -3.7084053, "tags": {"name": "Perfumer\u00edas Padilla", "shop": "beauty"}}, {"type": "node", "id": 3660796669, "lat": 40.4178092, "lon": -3.7083596, "tags": {"addr:city": "Madrid", "addr:housenumber": "26", "addr:postcode": "28013", "addr:street": "Calle Arenal", "contact:website": "https://theextremecollection.com/", "name": "The Extreme Collection", "shop": "clothes", "wheelchair": "no"}}, {"type": "node", "id": 3670167555, "lat": 40.4173864, "lon": -3.707358, "tags": {"addr:city": "Madrid", "addr:housenumber": "15", "addr:postcode": "28013", "addr:street": "Calle Arenal", "brand": "Havaianas", "brand:wikidata": "Q3128675", "brand:wikipedia": "en:Havaianas", "contact:phone": "+34 915 428 878", "contact:website": "http://es.havaianas.com/es-ES/", "name": "Havaianas", "shop": "shoes"}}, {"type": "node", "id": 3670167556, "lat": 40.417367, "lon": -3.7072936, "tags": {"addr:city": "Madrid", "addr:housenumber": "15", "addr:postcode": "28013", "addr:street": "Calle Arenal", "contact:phone": "+34 91 542 75 65", "contact:website": "http://www.lolarey.com/", "name": "Lola Rey", "shop": "shoes"}}, {"type": "node", "id": 3680192187, "lat": 40.416474, "lon": -3.7087001, "tags": {"addr:city": "Madrid", "addr:housenumber": "4", "addr:postcode": "28013", "addr:street": "Plaza de Herradores", "name": "MissNail", "old_name": "Brooklyn Vintage", "shop": "beauty"}}, {"type": "node", "id": 3682248283, "lat": 40.4174116, "lon": -3.7069304, "tags": {"addr:city": "Madrid", "addr:housenumber": "18", "addr:postcode": "28013", "addr:street": "Calle Arenal", "contact:phone": "+34 915213729", "contact:website": "http://www.misako.com/", "name": "Misako", "shop": "bag"}}, {"type": "node", "id": 3682248286, "lat": 40.4166728, "lon": -3.7057594, "tags": {"addr:city": "Madrid", "addr:housenumber": "2", "addr:postcode": "28013", "addr:street": "Traves\u00eda del Arenal", "contact:phone": "+34 91 532 75 80", "contact:website": "http://bravesoul.es/", "name": "Brave Soul", "shop": "clothes"}}, {"type": "node", "id": 3713681940, "lat": 40.4191523, "lon": -3.7055196, "tags": {"addr:city": "Madrid", "addr:housenumber": "21", "addr:postcode": "28013", "addr:street": "Calle Preciados", "name": "Tacones", "shop": "shoes"}}, {"type": "node", "id": 3713681943, "lat": 40.4188819, "lon": -3.7053364, "tags": {"addr:city": "Madrid", "addr:country": "ES", "addr:housenumber": "15", "addr:postcode": "28013", "addr:street": "Calle Preciados", "contact:website": "http://www.portobrazil.net/", "name": "Porto Brazil", "old_name": "Fauna", "shop": "clothes", "wheelchair": "no"}}, {"type": "node", "id": 3713681944, "lat": 40.4188582, "lon": -3.7053216, "tags": {"addr:city": "Madrid", "addr:country": "ES", "addr:housenumber": "15", "addr:postcode": "28013", "addr:street": "Calle Preciados", "name": "Atrezzo", "shop": "clothes"}}, {"type": "node", "id": 3715230141, "lat": 40.4173144, "lon": -3.7065462, "tags": {"addr:city": "Madrid", "addr:postcode": "28013", "addr:street": "Calle Arenal", "name": "Summum", "shop": "shoes"}}, {"type": "node", "id": 3715230142, "lat": 40.4172574, "lon": -3.7063223, "tags": {"addr:city": "Madrid", "addr:housenumber": "16", "addr:postcode": "28013", "addr:street": "Calle Arenal", "brand": "Punt Roma", "brand:wikidata": "Q101423290", "clothes": "women", "contact:website": "https://www.puntroma.com/", "name": "Punt Roma", "shop": "clothes"}}, {"type": "node", "id": 3715230146, "lat": 40.4184093, "lon": -3.7050215, "tags": {"addr:city": "Madrid", "addr:housenumber": "11", "addr:postcode": "28013", "addr:street": "Calle Preciados", "brand": "Calzedonia", "brand:wikidata": "Q1027874", "brand:wikipedia": "en:Calzedonia", "contact:phone": "+34 91 5212786", "contact:website": "http://www.calzedonia.it/es/", "name": "Calzedonia", "opening_hours": "Su-Th 10:00-21:00; Fr,Sa 10:00-21:30", "shop": "clothes"}}, {"type": "node", "id": 3715230148, "lat": 40.4182721, "lon": -3.7050324, "tags": {"addr:city": "Madrid", "addr:country": "ES", "addr:postcode": "28013", "addr:street": "Callej\u00f3n de Preciados", "name": "Padilla", "shop": "perfumery"}}, {"type": "node", "id": 3730668597, "lat": 40.4178885, "lon": -3.7046811, "tags": {"addr:city": "Madrid", "addr:housenumber": "7", "addr:postcode": "28013", "addr:street": "Calle Preciados", "name": "Sport 2000", "shop": "clothes"}}, {"type": "node", "id": 3730668598, "lat": 40.4187017, "lon": -3.7050048, "tags": {"addr:city": "Madrid", "addr:housenumber": "26", "addr:postcode": "28013", "addr:street": "Calle Preciados", "brand": "Swatch", "brand:wikidata": "Q573422", "brand:wikipedia": "en:Swatch", "contact:phone": "+34 91 532 64 44", "contact:website": "http://www.swatch.com/es_es/store-locator/spain/madrid/madrid/preciados-madrid", "name": "Swatch", "opening_hours": "Mo-Sa 10:00-21:00; Su 11:00-21:00", "shop": "watches"}}, {"type": "node", "id": 3757077736, "lat": 40.4180141, "lon": -3.7047583, "tags": {"addr:city": "Madrid", "addr:housenumber": "7", "addr:postcode": "28013", "addr:street": "Calle Preciados", "brand": "MAC Cosmetics", "brand:wikidata": "Q2624442", "brand:wikipedia": "en:MAC Cosmetics", "contact:phone": "+34 91 085 19 00", "contact:website": "http://www.maccosmetics.es", "name": "MAC Cosmetics", "shop": "cosmetics", "short_name": "M\u00b7A\u00b7C"}}, {"type": "node", "id": 3757077737, "lat": 40.4179869, "lon": -3.7047449, "tags": {"addr:city": "Madrid", "addr:housenumber": "7", "addr:postcode": "28013", "addr:street": "Calle Preciados", "contact:phone": "+34 628229586", "contact:website": "http://www.parfois.com/", "name": "Parfois", "opening_hours": "Mo-Sa 10:00-22:00; Su 11:00-21:00", "shop": "bag"}}, {"type": "node", "id": 3757077740, "lat": 40.4181863, "lon": -3.7026315, "tags": {"addr:city": "Madrid", "addr:housenumber": "23", "addr:postcode": "28013", "addr:street": "Calle de la Montera", "contact:phone": "+34 92 523 80 45", "contact:website": "http://www.aplausocalzados.com/", "name": "Aplauso", "shop": "shoes"}}, {"type": "node", "id": 3771872667, "lat": 40.4130423, "lon": -3.7012623}, {"type": "node", "id": 3771872668, "lat": 40.4130211, "lon": -3.7012503}, {"type": "node", "id": 3771872669, "lat": 40.4130061, "lon": -3.7012011}, {"type": "node", "id": 3791776558, "lat": 40.4122967, "lon": -3.6999278}, {"type": "node", "id": 3791776562, "lat": 40.4123154, "lon": -3.6999281}, {"type": "node", "id": 3794186296, "lat": 40.4121303, "lon": -3.7007513}, {"type": "node", "id": 3794200501, "lat": 40.4121401, "lon": -3.7010637}, {"type": "node", "id": 3794200502, "lat": 40.4123122, "lon": -3.7010667}, {"type": "node", "id": 3794200503, "lat": 40.4121451, "lon": -3.7008156}, {"type": "node", "id": 3794200504, "lat": 40.4121446, "lon": -3.7009366}, {"type": "node", "id": 3794200505, "lat": 40.412184, "lon": -3.7009364}, {"type": "node", "id": 3794200508, "lat": 40.4121867, "lon": -3.7013048}, {"type": "node", "id": 3794200509, "lat": 40.4123053, "lon": -3.7013044}, {"type": "node", "id": 3794200510, "lat": 40.4122298, "lon": -3.7010666}, {"type": "node", "id": 3794200515, "lat": 40.4121694, "lon": -3.7013039}, {"type": "node", "id": 3794201609, "lat": 40.4121271, "lon": -3.7008156}, {"type": "node", "id": 3794201610, "lat": 40.4123197, "lon": -3.7008143}, {"type": "node", "id": 3805867120, "lat": 40.4132723, "lon": -3.7049283}, {"type": "node", "id": 3805868212, "lat": 40.4134389, "lon": -3.7048626}, {"type": "node", "id": 3807703974, "lat": 40.4203058, "lon": -3.7033685, "tags": {"addr:city": "Madrid", "addr:housenumber": "32", "addr:postcode": "28013", "addr:street": "Gran V\u00eda", "brand": "H&M", "brand:wikidata": "Q188326", "brand:wikipedia": "en:H&M", "name": "H&M", "phone": "+34 913 60 55 06", "shop": "clothes"}}, {"type": "node", "id": 3828719386, "lat": 40.4212202, "lon": -3.701103, "tags": {"addr:city": "Madrid", "addr:housenumber": "14", "addr:postcode": "28004", "addr:street": "Calle de Fuencarral", "brand": "Victoria's Secret", "brand:wikidata": "Q332477", "brand:wikipedia": "en:Victoria's Secret", "clothes": "underwear;women", "name": "Victoria's Secret", "old_name": "Asics", "shop": "clothes"}}, {"type": "node", "id": 3946850008, "lat": 40.4190839, "lon": -3.7021758, "tags": {"name": "Camiser\u00eda Salvador Pe\u00f1a", "shop": "clothes"}}, {"type": "node", "id": 3946850011, "lat": 40.4188494, "lon": -3.7022853, "tags": {"name": "Iris", "shop": "shoes"}}, {"type": "node", "id": 3946850013, "lat": 40.4179159, "lon": -3.7027709, "tags": {"addr:city": "Madrid", "addr:housenumber": "15", "addr:postcode": "28013", "addr:street": "Calle de la Montera", "contact:phone": "+34 91 438 99 18", "contact:website": "https://www.alpargatus.com", "name": "Alpargatus", "old_name": "La rana con pelo", "shop": "shoes"}}, {"type": "node", "id": 3946850018, "lat": 40.418055, "lon": -3.7026939, "tags": {"contact:phone": "+34 91 522 88 44", "contact:website": "http://tattoocenter.es", "name": "Tattoo center", "shop": "tattoo"}}, {"type": "node", "id": 3946850019, "lat": 40.4193478, "lon": -3.7020437, "tags": {"branch": "shop Madrid", "brand": "Vans", "brand:wikidata": "Q1135366", "name": "Vans", "shop": "shoes"}}, {"type": "node", "id": 3946850020, "lat": 40.4176832, "lon": -3.7028948, "tags": {"addr:city": "Madrid", "addr:housenumber": "9", "addr:postcode": "28013", "addr:street": "Calle de la Montera", "contact:website": "http://oasismoda.com/", "name": "Oasis Shoes", "name:en": "Oasis Shoes", "shop": "shoes"}}, {"type": "node", "id": 3946850021, "lat": 40.4177512, "lon": -3.7028613, "tags": {"addr:city": "Madrid", "addr:housenumber": "11", "addr:postcode": "28013", "addr:street": "Calle de la Montera", "name": "Fanzy", "shop": "clothes"}}, {"type": "node", "id": 3961357150, "lat": 40.4187919, "lon": -3.7088038, "tags": {"addr:city": "Madrid", "addr:housenumber": "5", "addr:postcode": "28013", "addr:street": "Calle de Ca\u00f1os del Peral", "contact:email": "opera@maoandcathy.com", "contact:phone": "+34 912 502 990", "contact:website": "http://maoandcathy.com/", "name": "Mao & Cathy", "shop": "tattoo"}}, {"type": "node", "id": 3985459368, "lat": 40.4170692, "lon": -3.7055841, "tags": {"beauty": "cosmetics", "brand": "Yves Rocher", "brand:wikidata": "Q28496595", "brand:wikipedia": "en:Yves Rocher (company)", "name": "Yves Rocher", "shop": "beauty"}}, {"type": "node", "id": 4012562560, "lat": 40.4208951, "lon": -3.700621, "tags": {"addr:city": "Madrid", "addr:housenumber": "12", "addr:postcode": "28004", "addr:street": "Calle de Hortaleza", "contact:phone": "+34 915328121", "contact:website": "https://www.naturaselection.com/v1/", "name": "Natura", "shop": "clothes"}}, {"type": "node", "id": 4121942012, "lat": 40.4210885, "lon": -3.7011724, "tags": {"addr:city": "Madrid", "addr:housenumber": "12", "addr:postcode": "28004", "addr:street": "Calle de Fuencarral", "contact:phone": "+34 672 612 604", "contact:website": "https://www.size.co.uk", "name": "Size", "shop": "shoes"}}, {"type": "node", "id": 4213743491, "lat": 40.4164159, "lon": -3.7031704, "tags": {"addr:city": "Madrid", "addr:housenumber": "3", "addr:postcode": "28012", "addr:street": "Calle de Carretas", "contact:phone": "+34 91 522 70 43", "contact:website": "http://www.lolarey.com/", "name": "Lola Rey", "shop": "shoes"}}, {"type": "node", "id": 4213743492, "lat": 40.4159647, "lon": -3.7031514, "tags": {"addr:city": "Madrid", "addr:housenumber": "15", "addr:postcode": "28012", "addr:street": "Calle de Carretas", "contact:phone": "+34 91 521 81 23", "contact:website": "http://www.lolarey.com/", "name": "Lola Rey", "shop": "shoes"}}, {"type": "node", "id": 4213743494, "lat": 40.4155518, "lon": -3.7031574, "tags": {"addr:city": "Madrid", "addr:housenumber": "23", "addr:postcode": "28012", "addr:street": "Calle de Carretas", "brand": "Pull & Bear", "brand:wikidata": "Q691029", "brand:wikipedia": "en:Pull&Bear", "contact:phone": "+34 915228453", "contact:website": "http://www.pullandbear.com/es/es/", "name": "Pull & Bear", "shop": "clothes"}}, {"type": "node", "id": 4213743496, "lat": 40.4155455, "lon": -3.7033301, "tags": {"addr:city": "Madrid", "addr:housenumber": "10", "addr:postcode": "28012", "addr:street": "Calle de Carretas", "contact:phone": "+34 915312188", "contact:website": "http://www.lefties.com/es/", "name": "Lefties", "shop": "clothes"}}, {"type": "node", "id": 4213743497, "lat": 40.4152719, "lon": -3.7031535, "tags": {"addr:city": "Madrid", "addr:housenumber": "27", "addr:postcode": "28012", "addr:street": "Calle de Carretas", "contact:phone": "+34 91 521 85 74", "contact:website": "http://www.aplausocalzados.com/", "name": "Aplauso", "shop": "shoes"}}, {"type": "node", "id": 4224135950, "lat": 40.4211055, "lon": -3.7008497, "tags": {"addr:city": "Madrid", "addr:postcode": "28004", "addr:street": "Calle de las Infantas", "contact:facebook": "https://es-es.facebook.com/Elices-Company-794605043938604/", "contact:phone": "+34 918 51 35 75", "name": "Elices Company", "shop": "clothes"}}, {"type": "node", "id": 4224135951, "lat": 40.4207531, "lon": -3.7002699, "tags": {"addr:city": "Madrid", "addr:postcode": "28004", "addr:street": "Calle de las Infantas", "name": "Barber\u00eda Compadre", "shop": "hairdresser"}}, {"type": "node", "id": 4225320815, "lat": 40.4208766, "lon": -3.6999061, "tags": {"addr:city": "Madrid", "addr:housenumber": "1", "addr:postcode": "28004", "addr:street": "Plaza de Pedro Zerolo", "contact:phone": "+34 91 521 8810", "contact:website": "http://www.espacio-eco.com/", "name": "espacio-eco", "shop": "beauty"}}, {"type": "node", "id": 4225441900, "lat": 40.4211451, "lon": -3.7082142, "tags": {"addr:city": "Madrid", "addr:housenumber": "5", "addr:postcode": "28013", "addr:street": "Calle de San Bernardo", "name": "Moda India", "shop": "clothes"}}, {"type": "node", "id": 4225441903, "lat": 40.421045, "lon": -3.7082898, "tags": {"addr:city": "Madrid", "addr:housenumber": "5", "addr:postcode": "28013", "addr:street": "Calle de San Bernardo", "name": "Spring", "shop": "perfumery"}}, {"type": "node", "id": 4273746102, "lat": 40.4210254, "lon": -3.7035912, "tags": {"name": "Au Revoir Cinderella", "shop": "shoes"}}, {"type": "node", "id": 4332197390, "lat": 40.4158841, "lon": -3.708542, "tags": {"addr:housenumber": "47", "addr:postcode": "28013", "addr:street": "Calle Mayor", "name": "Kukuxumusu", "phone": "+34902787092", "shop": "clothes", "website": "https://kukuxumusu.com/"}}, {"type": "node", "id": 4358898496, "lat": 40.4166345, "lon": -3.7025017, "tags": {"addr:housenumber": "3", "addr:street": "Plaza de la Puerta del Sol", "brand": "Sephora", "brand:wikidata": "Q2408041", "brand:wikipedia": "en:Sephora", "name": "Sephora", "shop": "cosmetics"}}, {"type": "node", "id": 4384317839, "lat": 40.4139019, "lon": -3.7033528}, {"type": "node", "id": 4384317840, "lat": 40.4133508, "lon": -3.7048976}, {"type": "node", "id": 4384317850, "lat": 40.4132232, "lon": -3.7039228, "tags": {"name": "Lesac", "shop": "bag", "website": "http://www.lesac.es/"}}, {"type": "node", "id": 4384317851, "lat": 40.4140935, "lon": -3.7031353, "tags": {"brand": "Marco Aldany", "name": "Marco Aldany", "shop": "hairdresser"}}, {"type": "node", "id": 4384317852, "lat": 40.4130214, "lon": -3.7050383, "tags": {"name": "Martina K", "shop": "clothes"}}, {"type": "node", "id": 4384317856, "lat": 40.4134783, "lon": -3.7046493, "tags": {"name": "Xabuc", "shop": "clothes"}}, {"type": "node", "id": 4384317857, "lat": 40.4132059, "lon": -3.7049541}, {"type": "node", "id": 4387723478, "lat": 40.4125431, "lon": -3.7031325, "tags": {"craft": "tailor", "name": "Arreglos de Ropa", "shop": "clothes"}}, {"type": "node", "id": 4387723479, "lat": 40.4138941, "lon": -3.702421, "tags": {"name": "Autoservicio", "shop": "variety_store"}}, {"type": "node", "id": 4387723480, "lat": 40.412676, "lon": -3.703462, "tags": {"name": "Ben\u00edtez", "phone": "+34 918 263 289", "shop": "hairdresser", "wheelchair": "yes"}}, {"type": "node", "id": 4387730192, "lat": 40.4138451, "lon": -3.7022641, "tags": {"brand": "Humana", "brand:wikidata": "Q1636581", "brand:wikipedia": "de:Humana People to People", "name": "Humana", "shop": "charity"}}, {"type": "node", "id": 4387730195, "lat": 40.4138686, "lon": -3.7023405, "tags": {"name": "Miss Costuras", "shop": "fabric"}}, {"type": "node", "id": 4387730205, "lat": 40.4130664, "lon": -3.7032701, "tags": {"shop": "hairdresser"}}, {"type": "node", "id": 4390452984, "lat": 40.4150095, "lon": -3.7031929, "tags": {"brand": "Calzedonia", "brand:wikidata": "Q1027874", "brand:wikipedia": "en:Calzedonia", "name": "Calzedonia", "shop": "clothes"}}, {"type": "node", "id": 4390454891, "lat": 40.4148496, "lon": -3.7032032, "tags": {"brand": "Jack & Jones", "brand:wikidata": "Q6077665", "brand:wikipedia": "en:Jack & Jones", "name": "Jack & Jones", "shop": "clothes"}}, {"type": "node", "id": 4390454892, "lat": 40.4144642, "lon": -3.7072469, "tags": {"name": "La Casa Vertical", "shop": "clothes"}}, {"type": "node", "id": 4390454894, "lat": 40.4146375, "lon": -3.7071082, "tags": {"name": "Lucio", "shop": "fabric"}}, {"type": "node", "id": 4390454895, "lat": 40.4145544, "lon": -3.7071476, "tags": {"clothes": "hats", "name": "Sombrerer\u00eda Medrano", "shop": "clothes"}}, {"type": "node", "id": 4390454897, "lat": 40.4150423, "lon": -3.7034068, "tags": {"brand": "Flying Tiger Copenhagen", "brand:wikidata": "Q2786319", "brand:wikipedia": "en:Flying Tiger Copenhagen", "name": "Flying Tiger Copenhagen", "shop": "variety_store", "short_name": "Flying Tiger"}}, {"type": "node", "id": 4390454898, "lat": 40.4149481, "lon": -3.7031991, "tags": {"name": "Zap Shop", "shop": "shoes"}}, {"type": "node", "id": 4390454899, "lat": 40.4148651, "lon": -3.7034884, "tags": {"clothes": "underwear", "name": "\u00e1reainterior", "shop": "clothes"}}, {"type": "node", "id": 4390454901, "lat": 40.4148438, "lon": -3.703949, "tags": {"shop": "clothes"}}, {"type": "node", "id": 4394691967, "lat": 40.4147101, "lon": -3.6989965, "tags": {"addr:city": "Madrid", "addr:housenumber": "12", "addr:postcode": "28014", "addr:street": "Calle del Prado", "contact:phone": "+34 915 466 087", "name": "Corta Cabeza", "shop": "hairdresser"}}, {"type": "node", "id": 4394691974, "lat": 40.4127726, "lon": -3.6992805, "tags": {"addr:city": "Madrid", "addr:country": "ES", "addr:housenumber": "35", "addr:postcode": "28014", "addr:street": "Calle del Le\u00f3n", "name": "Diva", "shop": "hairdresser"}}, {"type": "node", "id": 4405701888, "lat": 40.4124757, "lon": -3.7078274, "tags": {"addr:city": "Madrid", "addr:housenumber": "42", "addr:postcode": "28005", "addr:street": "Calle de Toledo", "brand": "Humana", "brand:wikidata": "Q1636581", "brand:wikipedia": "de:Humana People to People", "contact:phone": "+34 91 603 47 22", "contact:website": "http://www.humana-spain.org/que-puedes-hacer-tu/comprar-ropa/tiendas/madrid/c-toledo-42-en-madrid/es", "name": "Humana", "shop": "charity"}}, {"type": "node", "id": 4611664689, "lat": 40.4156413, "lon": -3.7046331, "tags": {"addr:city": "Madrid", "addr:country": "ES", "addr:housenumber": "1", "addr:postcode": "28012", "addr:street": "Calle Marqu\u00e9s Viudo de Pontejos", "name": "Tejidos del Centro", "shop": "fabric", "website": "http://www.tejidosdelcentro.com/"}}, {"type": "node", "id": 4616116287, "lat": 40.4211337, "lon": -3.709171, "tags": {"addr:city": "Madrid", "addr:housenumber": "7", "addr:postcode": "28013", "addr:street": "Calle de Isabel La Cat\u00f3lica", "contact:website": "http://salon92.es/", "name": "Sal\u00f3n 92", "shop": "hairdresser"}}, {"type": "node", "id": 4634758121, "lat": 40.4191425, "lon": -3.7068638, "tags": {"addr:city": "Madrid", "addr:housenumber": "5", "addr:postcode": "28013", "addr:street": "Calle de las Navas de Tolosa", "contact:phone": "+34 910 424 974", "contact:website": "http://www.themenshairclub.com/", "name": "The Men's Hair Club", "shop": "hairdresser"}}, {"type": "node", "id": 4634758122, "lat": 40.4191534, "lon": -3.7067893, "tags": {"addr:city": "Madrid", "addr:housenumber": "5", "addr:postcode": "28013", "addr:street": "Calle de las Navas de Tolosa", "name": "Sampedro", "shop": "hairdresser"}}, {"type": "node", "id": 4643127889, "lat": 40.4179951, "lon": -3.7045274, "tags": {"brand": "Stradivarius", "brand:wikidata": "Q3322945", "brand:wikipedia": "en:Stradivarius (clothing brand)", "name": "Stradivarius", "opening_hours": "Mo-Su 10:00-22:00", "shop": "clothes", "source": "survey"}}, {"type": "node", "id": 4649251792, "lat": 40.4165311, "lon": -3.7056007, "tags": {"name": "La Provenza", "name:es": "La Provenza", "shop": "clothes"}}, {"type": "node", "id": 4649270692, "lat": 40.4162913, "lon": -3.7059572, "tags": {"brand": "Desigual", "brand:wikidata": "Q83750", "brand:wikipedia": "en:Desigual", "name": "Desigual", "name:es": "Desigual", "shop": "clothes"}}, {"type": "node", "id": 4649327990, "lat": 40.4165467, "lon": -3.7055019, "tags": {"name": "Padilla", "name:es": "Padilla", "shop": "beauty"}}, {"type": "node", "id": 4649420991, "lat": 40.4167703, "lon": -3.7047517, "tags": {"brand": "The Body Shop", "brand:wikidata": "Q837851", "brand:wikipedia": "en:The Body Shop", "name": "The Body Shop", "shop": "cosmetics"}}, {"type": "node", "id": 4678235387, "lat": 40.4204264, "lon": -3.7051437, "tags": {"addr:city": "Madrid", "addr:housenumber": "42", "addr:postcode": "28013", "addr:street": "Gran V\u00eda", "contact:phone": "+34 616044630", "contact:website": "http://www.parfois.com/es/", "name": "Parfois", "shop": "bag"}}, {"type": "node", "id": 4678872589, "lat": 40.4161393, "lon": -3.7031667, "tags": {"name": "Garca", "shop": "clothes"}}, {"type": "node", "id": 4678894689, "lat": 40.4134151, "lon": -3.7016694, "tags": {"name": "Classica", "name:es": "Classica", "shop": "clothes"}}, {"type": "node", "id": 4709865267, "lat": 40.4165632, "lon": -3.7084094, "tags": {"addr:city": "Madrid", "addr:housenumber": "10", "addr:postcode": "28013", "addr:street": "Plaza de Herradores", "name": "Montan\u00e9", "shop": "hairdresser_supply"}}, {"type": "node", "id": 4709955568, "lat": 40.416082, "lon": -3.7094724, "tags": {"addr:city": "Madrid", "addr:housenumber": "4", "addr:postcode": "28013", "addr:street": "Calle de los Milaneses", "name": "Barber\u00eda de los Austrias", "shop": "hairdresser"}}, {"type": "node", "id": 4711635312, "lat": 40.4164667, "lon": -3.7091722, "tags": {"addr:city": "Madrid", "addr:housenumber": "2", "addr:postcode": "28013", "addr:street": "Calle del Mes\u00f3n de Pa\u00f1os", "contact:phone": "+34 685842744", "contact:website": "http://www.naom.es/", "name": "Naom", "shop": "hairdresser"}}, {"type": "node", "id": 4727650684, "lat": 40.4132296, "lon": -3.7073231, "tags": {"addr:city": "Madrid", "addr:housenumber": "35", "addr:street": "Calle de Toledo", "contact:website": "http://www.zapshop.es/es/", "name": "Zapshop", "shop": "shoes"}}, {"type": "node", "id": 4727650686, "lat": 40.4124927, "lon": -3.6985615, "tags": {"addr:city": "Madrid", "addr:housenumber": "14", "addr:postcode": "28014", "addr:street": "Calle Amor de Dios", "contact:facebook": "https://es-es.facebook.com/ManueRodrMarce/", "contact:phone": "+34 913 69 17 09", "name": "Trasquilones", "shop": "hairdresser"}}, {"type": "node", "id": 4727650687, "lat": 40.4135866, "lon": -3.698479, "tags": {"addr:city": "Madrid", "addr:housenumber": "37", "addr:postcode": "28014", "addr:street": "Calle de las Huertas", "contact:website": "http://peseta.org/", "name": "peSeta", "shop": "bag"}}, {"type": "node", "id": 4736252766, "lat": 40.4196356, "lon": -3.7069192, "tags": {"addr:city": "Madrid", "addr:housenumber": "33", "addr:postcode": "28013", "addr:street": "Calle Preciados", "contact:phone": "+34 915 225 262", "contact:website": "http://prosscasual.com/landing/", "name": "Pross", "shop": "clothes", "wheelchair": "no"}}, {"type": "node", "id": 4736252767, "lat": 40.4196651, "lon": -3.7071972, "tags": {"addr:city": "Madrid", "addr:housenumber": "35", "addr:postcode": "28013", "addr:street": "Calle Preciados", "contact:phone": "+34 915 483 466", "contact:website": "http://www.peleteriasiber.com/", "name": "Siber", "shop": "clothes", "wheelchair": "limited"}}, {"type": "node", "id": 4739735220, "lat": 40.414734, "lon": -3.6993201, "tags": {"addr:city": "Madrid", "addr:housenumber": "7", "addr:postcode": "28014", "addr:street": "Calle del Prado", "contact:facebook": "https://es-es.facebook.com/nudmadrid/", "contact:phone": "+34 915 31 33 80", "name": "Nud", "opening_hours": "Mo-Tu, Th-Sa 11:00-21:00; Su 12:00-20:00; We 11:30-20:30", "shop": "clothes", "wheelchair": "no"}}, {"type": "node", "id": 4739735325, "lat": 40.4147842, "lon": -3.6990875, "tags": {"addr:city": "Madrid", "addr:housenumber": "9", "addr:postcode": "28014", "addr:street": "Calle del Prado", "contact:phone": "+34 914 296 120", "contact:website": "http://www.maletasvarela.com/", "name": "Varela", "shop": "bag", "wheelchair": "no"}}, {"type": "node", "id": 4745037857, "lat": 40.4206081, "lon": -3.7009396, "tags": {"addr:city": "Madrid", "addr:housenumber": "7", "addr:postcode": "28004", "addr:street": "Calle de Hortaleza", "name": "Toni", "shop": "hairdresser"}}, {"type": "node", "id": 4745037860, "lat": 40.4202972, "lon": -3.6999228, "tags": {"addr:city": "Madrid", "addr:housenumber": "15", "addr:postcode": "28004", "addr:street": "Calle de la Reina", "contact:phone": "+34 911394609", "contact:website": "https://www.grimeystore.com/aboutUsMadrid.php", "name": "Grimey Store", "shop": "clothes"}}, {"type": "node", "id": 4756642421, "lat": 40.4155101, "lon": -3.7042569, "tags": {"addr:city": "Madrid", "addr:country": "ES", "addr:housenumber": "4", "addr:postcode": "28012", "addr:street": "Calle de la Paz", "name": "Justo Algaba", "shop": "tailor", "website": "http://www.justoalgaba.com/"}}, {"type": "node", "id": 4774553322, "lat": 40.4200577, "lon": -3.699434, "tags": {"addr:city": "Madrid", "addr:housenumber": "4", "addr:postcode": "28004", "addr:street": "Calle del Clavel", "contact:phone": "+34 915 229 350", "contact:website": "https://www.eduardorivera.es/tiendas/tienda-clavel/", "name": "Eduardo Rivera", "shop": "clothes"}}, {"type": "node", "id": 4776957473, "lat": 40.4133272, "lon": -3.7075624, "tags": {"addr:city": "Madrid", "addr:housenumber": "30", "addr:postcode": "28005", "addr:street": "Calle de Toledo", "contact:phone": "+34 913 664 017", "contact:website": "https://www.calzadoslobo.com/tiendas/madrid", "email": "info@calzadoslobo.com", "name": "Lobo", "opening_hours": "Mo-Fr 09:30-14:00,16:30-20:00; Sa 09:30-14:00; Jun 15-Sep 15: Mo-Fr 09:30-14:00,17:30-20:00", "shop": "shoes"}}, {"type": "node", "id": 4788148354, "lat": 40.4157729, "lon": -3.7033266, "tags": {"addr:city": "Madrid", "addr:housenumber": "6", "addr:postcode": "28012", "addr:street": "Calle de Carretas", "brand": "Zara", "brand:wikidata": "Q147662", "brand:wikipedia": "en:Zara (retailer)", "contact:phone": "+34 915226945", "contact:website": "https://www.zara.com", "name": "Zara", "shop": "clothes"}}, {"type": "node", "id": 4822364446, "lat": 40.4137869, "lon": -3.7065199, "tags": {"addr:city": "Madrid", "addr:housenumber": "2", "addr:postcode": "28012", "addr:street": "Calle del Duque de Rivas", "clothes": "fashion", "description": "Tienda de ropa, vestidos de fiesta y trajes de ba\u00f1o", "name": "Charmline", "operator": "CHARMLINE - MADRID - MAYORISTA", "phone": "+34 914082811", "shop": "clothes", "website": "https://www.charmline.es/"}}, {"type": "node", "id": 4883121843, "lat": 40.415793, "lon": -3.7049791, "tags": {"addr:city": "Madrid", "addr:housenumber": "2", "addr:postcode": "28012", "addr:street": "Calle del Marqu\u00e9s Viudo de Pontejos", "email": "borca@borca.es", "name": "Borca, S.A.", "opening_hours": "Mo-Sa 10:00-20:00", "phone": "+34 915 326 153", "shop": "fabric", "website": "https://www.borca.es/"}}, {"type": "node", "id": 4961630551, "lat": 40.4210117, "lon": -3.6988769, "tags": {"addr:city": "Madrid", "addr:housenumber": "10", "addr:postcode": "28004", "addr:street": "Plaza de Pedro Zerolo", "brand": "Clarel", "brand:wikidata": "Q48784350", "brand:wikipedia": "es:Clarel", "contact:website": "https://www.clarel.es/", "name": "Clarel", "shop": "chemist"}}, {"type": "node", "id": 4962635823, "lat": 40.4129781, "lon": -3.7001211, "tags": {"addr:city": "Madrid", "addr:country": "ES", "addr:housenumber": "53", "addr:postcode": "28012", "addr:street": "Calle de Atocha", "shop": "shoes"}}, {"type": "node", "id": 5153679522, "lat": 40.4204655, "lon": -3.7013923, "tags": {"brand": "Mango", "brand:wikidata": "Q136503", "brand:wikipedia": "en:Mango (retailer)", "name": "Mango", "shop": "clothes"}}, {"type": "node", "id": 5225041214, "lat": 40.413219, "lon": -3.7051242}, {"type": "node", "id": 5225041422, "lat": 40.4133915, "lon": -3.7050411}, {"type": "node", "id": 5225041423, "lat": 40.4134081, "lon": -3.7050346}, {"type": "node", "id": 5225041649, "lat": 40.4137458, "lon": -3.7068317, "tags": {"addr:city": "Madrid", "addr:country": "ES", "addr:housenumber": "29", "addr:postcode": "28012", "addr:street": "Calle de la Concepci\u00f3n Jer\u00f3nima", "name": "Street Fade Barbershop", "opening_hours": "Mo-Th, Fr, Sa, 10:00-20:00, 10:00-21:00, 10:00-18:00", "shop": "hairdresser"}}, {"type": "node", "id": 5256264721, "lat": 40.4156727, "lon": -3.7065757, "tags": {"addr:city": "Madrid", "addr:country": "ES", "addr:housenumber": "2", "addr:postcode": "28012", "addr:street": "Calle de la Sal", "name": "Antigua Relojer\u00eda", "shop": "jewelry"}}, {"type": "node", "id": 5363453869, "lat": 40.4179489, "lon": -3.7025722, "tags": {"addr:city": "Madrid", "addr:postcode": "28013", "addr:street": "Calle de la Montera", "brand": "Oasis", "brand:wikidata": "Q64532852", "name": "Oasis", "shop": "clothes"}}, {"type": "node", "id": 5370259457, "lat": 40.4162764, "lon": -3.7074879, "tags": {"addr:city": "Madrid", "addr:housenumber": "30", "addr:postcode": "28013", "addr:street": "Calle Mayor", "contact:phone": "+34 91 139 79 95", "contact:website": "https://www.zapateriasrin.com/", "name": "Rin", "shop": "shoes", "wheelchair": "no"}}, {"type": "node", "id": 5370259459, "lat": 40.4162901, "lon": -3.7073817, "tags": {"addr:city": "Madrid", "addr:housenumber": "28", "addr:postcode": "28013", "addr:street": "Calle Mayor", "contact:facebook": "https://es-es.facebook.com/La-Hija-de-Ca%C3%ADn-1694064604145346/", "contact:phone": "+34 910 84 40 73", "name": "La Hija de Ca\u00edn", "shop": "clothes", "wheelchair": "no"}}, {"type": "node", "id": 5370259460, "lat": 40.4162992, "lon": -3.7073191, "tags": {"addr:city": "Madrid", "addr:housenumber": "28", "addr:postcode": "28013", "addr:street": "Calle Mayor", "name": "Premier", "shop": "beauty", "wheelchair": "limited"}}, {"type": "node", "id": 5370259461, "lat": 40.4163059, "lon": -3.7072763, "tags": {"addr:city": "Madrid", "addr:housenumber": "26", "addr:postcode": "28013", "addr:street": "Calle Mayor", "contact:phone": "+34 913 65 54 76", "contact:website": "http://yaymarcoronas.com/", "name": "Yaymar Coronas", "shop": "clothes", "wheelchair": "no"}}, {"type": "node", "id": 5370902823, "lat": 40.4190947, "lon": -3.7041828, "tags": {"name": "Outlet El Carte Ingles", "shop": "clothes"}}, {"type": "node", "id": 5383807318, "lat": 40.4142021, "lon": -3.7073788, "tags": {"name": "Zapateria Alpargateria", "shop": "shoes"}}, {"type": "node", "id": 5383874576, "lat": 40.4156827, "lon": -3.7064903, "tags": {"shop": "clothes"}}, {"type": "node", "id": 5383874579, "lat": 40.4158435, "lon": -3.7067834, "tags": {"name": "Casa Yustas", "shop": "clothes"}}, {"type": "node", "id": 5383874583, "lat": 40.4157812, "lon": -3.7078629, "tags": {"addr:city": "Madrid", "addr:housenumber": "25", "addr:street": "Plaza Mayor", "name": "Sombreros La Gorras", "shop": "clothes"}}, {"type": "node", "id": 5395666961, "lat": 40.4202675, "lon": -3.7028938, "tags": {"addr:city": "Madrid", "addr:housenumber": "30", "addr:postcode": "28013", "addr:street": "Gran V\u00eda", "brand": "Calzedonia", "brand:wikidata": "Q1027874", "brand:wikipedia": "en:Calzedonia", "contact:website": "https://es.calzedonia.com/home.jsp", "name": "Calzedonia", "shop": "clothes"}}, {"type": "node", "id": 5395666962, "lat": 40.4199062, "lon": -3.7026113, "tags": {"addr:city": "Madrid", "addr:housenumber": "27", "addr:postcode": "28013", "addr:street": "Gran V\u00eda", "name": "Salsa Jeans Studio", "shop": "clothes"}}, {"type": "node", "id": 5395666965, "lat": 40.4203599, "lon": -3.7014628, "tags": {"addr:city": "Madrid", "addr:housenumber": "4", "addr:postcode": "28004", "addr:street": "Calle de Fuencarral", "brand": "Foot Locker", "brand:wikidata": "Q63335", "brand:wikipedia": "en:Foot Locker", "contact:website": "https://www.footlocker.es/es/inicio", "name": "Foot Locker", "shop": "shoes", "wheelchair": "no"}}, {"type": "node", "id": 5395666966, "lat": 40.4205647, "lon": -3.7013753, "tags": {"addr:city": "Madrid", "addr:housenumber": "6", "addr:postcode": "28004", "addr:street": "Calle de Fuencarral", "brand": "Tezenis", "brand:wikidata": "Q28056374", "brand:wikipedia": "ru:Tezenis", "clothes": "underwear", "contact:phone": "+34 915316887", "contact:website": "https://es.tezenis.com/home.jsp", "name": "Tezenis", "shop": "clothes", "wheelchair": "limited"}}, {"type": "node", "id": 5395666967, "lat": 40.4205231, "lon": -3.701564, "tags": {"addr:city": "Madrid", "addr:housenumber": "5", "addr:postcode": "28004", "addr:street": "Calle de Fuencarral", "clothes": "women", "contact:phone": "+34 915233938", "contact:website": "https://www.adolfodominguez.com/es/u-woman/vestidos/", "name": "Adolfo Dominguez", "shop": "clothes", "wheelchair": "limited"}}, {"type": "node", "id": 5395722034, "lat": 40.4206882, "lon": -3.7014866, "tags": {"addr:city": "Madrid", "addr:housenumber": "9", "addr:postcode": "28004", "addr:street": "Calle de Fuencarral", "name": "C & C", "shop": "tattoo", "wheelchair": "yes"}}, {"type": "node", "id": 5395722036, "lat": 40.4208401, "lon": -3.7012783, "tags": {"addr:city": "Madrid", "addr:housenumber": "8", "addr:postcode": "28004", "addr:street": "Calle de Fuencarral", "brand": "Calzedonia", "brand:wikidata": "Q1027874", "brand:wikipedia": "en:Calzedonia", "contact:phone": "+34 915222532", "contact:website": "https://es.calzedonia.com", "name": "Calzedonia", "shop": "clothes", "wheelchair": "limited"}}, {"type": "node", "id": 5395722037, "lat": 40.4208024, "lon": -3.7014581, "tags": {"addr:city": "Madrid", "addr:housenumber": "9", "addr:postcode": "28004", "addr:street": "Calle de Fuencarral", "name": "Tommy Jeans", "shop": "clothes", "wheelchair": "limited"}}, {"type": "node", "id": 5395722039, "lat": 40.4208768, "lon": -3.7012584, "tags": {"addr:city": "Madrid", "addr:housenumber": "10", "addr:postcode": "28004", "addr:street": "Calle de Fuencarral", "brand": "Maje", "brand:wikidata": "Q3280458", "brand:wikipedia": "fr:Maje", "clothes": "women", "contact:phone": "+34 915 21 73 63", "contact:website": "https://es.maje.com/", "name": "Maje", "shop": "clothes", "wheelchair": "yes"}}, {"type": "node", "id": 5395722040, "lat": 40.4209707, "lon": -3.7012278, "tags": {"addr:city": "Madrid", "addr:housenumber": "10", "addr:postcode": "28004", "addr:street": "Calle de Fuencarral", "brand": "The Body Shop", "brand:wikidata": "Q837851", "contact:phone": "+34 91 522 61 00", "contact:website": "https://www.thebodyshop.com", "name": "The Body Shop", "shop": "cosmetics", "wheelchair": "yes"}}, {"type": "node", "id": 5395722042, "lat": 40.4209409, "lon": -3.7014063, "tags": {"addr:city": "Madrid", "addr:housenumber": "13", "addr:postcode": "28004", "addr:street": "Calle de Fuencarral", "brand": "Parfois", "brand:wikidata": "Q7136948", "brand:wikipedia": "en:Parfois", "contact:phone": "+34 628228845", "contact:website": "https://www.parfois.com", "name": "Parfois", "shop": "fashion_accessories", "wheelchair": "limited"}}, {"type": "node", "id": 5395722043, "lat": 40.421024, "lon": -3.7012081, "tags": {"addr:city": "Madrid", "addr:housenumber": "10", "addr:postcode": "28004", "addr:street": "Calle de Fuencarral", "brand": "Michael Kors", "brand:wikidata": "Q19572998", "brand:wikipedia": "en:Capri Holdings", "contact:website": "https://www.michaelkors.es", "name": "Michael Kors", "shop": "clothes", "wheelchair": "no"}}, {"type": "node", "id": 5395722044, "lat": 40.421039, "lon": -3.7013651, "tags": {"addr:city": "Madrid", "addr:housenumber": "15", "addr:postcode": "28004", "addr:street": "Calle de Fuencarral", "contact:phone": "+34 914219586", "contact:website": "https://www.morato.it", "name": "Antony Morato", "shop": "clothes", "wheelchair": "no"}}, {"type": "node", "id": 5395722045, "lat": 40.4211279, "lon": -3.7013281, "tags": {"addr:city": "Madrid", "addr:housenumber": "17", "addr:postcode": "28004", "addr:street": "Calle de Fuencarral", "contact:phone": "+34 915216031", "contact:website": "https://www.pikolinos.com", "name": "Pikolinos", "shop": "shoes", "wheelchair": "limited"}}, {"type": "node", "id": 5398300238, "lat": 40.4193891, "lon": -3.698907, "tags": {"addr:city": "Madrid", "addr:housenumber": "7", "addr:postcode": "28013", "addr:street": "Gran V\u00eda", "contact:phone": "+34 915229698", "contact:website": "https://www.sanzjoyeria.com", "name": "Sanz", "shop": "jewelry", "wheelchair": "no"}}, {"type": "node", "id": 5409792466, "lat": 40.4179711, "lon": -3.6997137, "tags": {"addr:city": "Madrid", "addr:street": "Calle de Alcal\u00e1", "brand": "Flying Tiger Copenhagen", "brand:wikidata": "Q2786319", "brand:wikipedia": "en:Flying Tiger Copenhagen", "name": "Flying Tiger Copenhagen", "old_name": "Faborit", "shop": "variety_store", "short_name": "Flying Tiger"}}, {"type": "node", "id": 5409792468, "lat": 40.417877, "lon": -3.6999799, "tags": {"addr:city": "Madrid", "addr:housenumber": "19", "addr:postcode": "28014", "addr:street": "Calle de Alcal\u00e1", "contact:phone": "+34 912 908 117", "contact:website": "https://www.herbolarionavarro.es/", "name": "Navarro", "shop": "herbalist"}}, {"type": "node", "id": 5409792474, "lat": 40.4164852, "lon": -3.6993075, "tags": {"addr:city": "Madrid", "addr:housenumber": "30", "addr:postcode": "28014", "addr:street": "Carrera de San Jer\u00f3nimo", "name": "Garc\u00eda del Rio", "shop": "jewelry", "wheelchair": "no"}}, {"type": "node", "id": 5409792476, "lat": 40.4165127, "lon": -3.6998963, "tags": {"addr:city": "Madrid", "addr:postcode": "28014", "addr:street": "Carrera de San Jer\u00f3nimo", "name": "La Villa de Par\u00eds", "shop": "clothes"}}, {"type": "node", "id": 5409792480, "lat": 40.416523, "lon": -3.7007496, "tags": {"addr:city": "Madrid", "addr:housenumber": "6", "addr:postcode": "28014", "addr:street": "Plaza de Canalejas", "contact:phone": "+34 915217120", "contact:website": "http://camiseriacanalejas.com/", "name": "Canalejas", "shop": "clothes", "wheelchair": "no"}}, {"type": "node", "id": 5424538415, "lat": 40.4158144, "lon": -3.7095908, "tags": {"addr:city": "Madrid", "addr:postcode": "28013", "addr:street": "Calle Mayor", "name": "La Posada de los Perfumes", "shop": "perfumery", "wheelchair": "no"}}, {"type": "node", "id": 5426466840, "lat": 40.4137957, "lon": -3.7045356, "tags": {"addr:city": "Madrid", "addr:housenumber": "3", "addr:postcode": "28012", "addr:street": "Calle del Conde de Romanones", "name": "Circus", "shop": "clothes", "wheelchair": "limited"}}, {"type": "node", "id": 5426466841, "lat": 40.4136942, "lon": -3.7045756, "tags": {"addr:city": "Madrid", "addr:housenumber": "3", "addr:postcode": "28012", "addr:street": "Calle del Conde de Romanones", "contact:phone": "+34 911302237", "contact:website": "http://www.annaspinello.com/Home/Contacto", "name": "Anna Spinello", "shop": "clothes", "wheelchair": "no"}}, {"type": "node", "id": 5426466842, "lat": 40.413591, "lon": -3.7046146, "tags": {"addr:city": "Madrid", "addr:housenumber": "5", "addr:postcode": "28012", "addr:street": "Calle del Conde de Romanones", "name": "Azzo", "shop": "clothes", "wheelchair": "limited"}}, {"type": "node", "id": 5426466843, "lat": 40.4134015, "lon": -3.7046884, "tags": {"addr:city": "Madrid", "addr:housenumber": "5", "addr:postcode": "28012", "addr:street": "Calle del Conde de Romanones", "contact:facebook": "https://es-es.facebook.com/pg/JUNCO-301107199911225/about/", "contact:phone": "+34 913 69 45 69", "name": "Junco", "shop": "clothes"}}, {"type": "node", "id": 5426466844, "lat": 40.4132744, "lon": -3.7047439, "tags": {"addr:city": "Madrid", "addr:housenumber": "7", "addr:postcode": "28012", "addr:street": "Calle del Conde de Romanones", "name": "Teria Yabar", "shop": "clothes", "wheelchair": "no"}}, {"type": "node", "id": 5426466845, "lat": 40.413185, "lon": -3.7047814, "tags": {"addr:city": "Madrid", "addr:housenumber": "9", "addr:postcode": "28012", "addr:street": "Calle del Conde de Romanones", "name": "Takezo", "shop": "clothes", "wheelchair": "no"}}, {"type": "node", "id": 5426466846, "lat": 40.4130409, "lon": -3.7048373, "tags": {"addr:city": "Madrid", "addr:housenumber": "11", "addr:postcode": "28012", "addr:street": "Calle del Conde de Romanones", "contact:phone": "+34 91 420 15 20", "contact:website": "http://juliedorleac.es/", "name": "Julie D'Orleac", "shop": "clothes", "wheelchair": "no"}}, {"type": "node", "id": 5426466847, "lat": 40.412974, "lon": -3.7048597, "tags": {"addr:city": "Madrid", "addr:housenumber": "13", "addr:postcode": "28012", "addr:street": "Calle del Conde de Romanones", "name": "Iris", "shop": "clothes", "wheelchair": "no"}}, {"type": "node", "id": 5426466848, "lat": 40.412904, "lon": -3.7048925, "tags": {"addr:city": "Madrid", "addr:housenumber": "13", "addr:postcode": "28012", "addr:street": "Calle del Conde de Romanones", "contact:phone": "+34 91 429 27 01", "contact:website": "http://www.gmarfil.com/", "name": "Marfil", "shop": "clothes", "wheelchair": "no"}}, {"type": "node", "id": 5428971985, "lat": 40.4182365, "lon": -3.7047083, "tags": {"addr:city": "Madrid", "addr:housenumber": "16", "addr:postcode": "28013", "addr:street": "Calle Preciados", "contact:phone": "+34 915 216 288", "contact:website": "https://www.zapshop.es", "name": "Zapshop", "shop": "shoes", "wheelchair": "limited"}}, {"type": "node", "id": 5428971986, "lat": 40.4181663, "lon": -3.704663, "tags": {"addr:city": "Madrid", "addr:housenumber": "16", "addr:postcode": "28013", "addr:street": "Calle Preciados", "contact:phone": "+34 91 532 06 42", "contact:website": "http://www.eldanubioazul.com/", "name": "El Danubio Azul", "opening_hours": "Mo-Su 10:00-20:30", "shop": "clothes", "wheelchair": "no"}}, {"type": "node", "id": 5428971987, "lat": 40.4176728, "lon": -3.7043222, "tags": {"addr:city": "Madrid", "addr:housenumber": "6", "addr:postcode": "28013", "addr:street": "Calle Preciados", "contact:website": "https://www.footlocker.es/es/content/house_of_hoops_page", "name": "House of Hoops", "old_name": "llaollao", "shop": "clothes", "wheelchair": "limited"}}, {"type": "node", "id": 5428971988, "lat": 40.417489, "lon": -3.7042089, "tags": {"addr:city": "Madrid", "addr:housenumber": "4", "addr:postcode": "28013", "addr:street": "Calle Preciados", "brand": "Sfera", "brand:wikidata": "Q110065666", "clothes": "fashion", "name": "Sfera", "opening_hours": "Mo-Sa 10:00-22:00; Su 11:00-21:00", "phone": "+34 915238370", "shop": "clothes", "website": "https://www.sfera.com", "wheelchair": "limited"}}, {"type": "node", "id": 5431727945, "lat": 40.4187346, "lon": -3.7046844, "tags": {"name": "Calzados D\u00edez", "shop": "shoes", "source": "survey"}}, {"type": "node", "id": 5431727949, "lat": 40.4187413, "lon": -3.7048579, "tags": {"addr:city": "Madrid", "addr:housenumber": "27", "addr:postcode": "28013", "addr:street": "Calle del Carmen", "contact:phone": "+34 91 532 3250", "contact:website": "https://www.totto.es/", "shop": "bag", "wheelchair": "no"}}, {"type": "node", "id": 5431727950, "lat": 40.4187044, "lon": -3.7048218, "tags": {"addr:city": "Madrid", "addr:housenumber": "25", "addr:postcode": "28013", "addr:street": "Calle del Carmen", "contact:website": "http://www.tonipons.cat/es/", "name": "Toni Pons", "shop": "shoes", "wheelchair": "no"}}, {"type": "node", "id": 5431727951, "lat": 40.418611, "lon": -3.7045639, "tags": {"addr:city": "Madrid", "addr:housenumber": "16", "addr:postcode": "28013", "addr:street": "Calle del Carmen", "name": "\u00c1valon", "shop": "clothes", "wheelchair": "no"}}, {"type": "node", "id": 5431727952, "lat": 40.4184759, "lon": -3.7044002, "tags": {"addr:city": "Madrid", "addr:housenumber": "12", "addr:postcode": "28013", "addr:street": "Calle del Carmen", "contact:phone": "+34 915 313 252", "contact:website": "https://www.alvaromoreno.com", "name": "Alvaro Moreno", "old_name": "Coronel Tapioca", "shop": "clothes", "source": "survey", "wheelchair": "limited"}}, {"type": "node", "id": 5431727954, "lat": 40.4183847, "lon": -3.7044539, "tags": {"addr:city": "Madrid", "addr:housenumber": "17", "addr:postcode": "28013", "addr:street": "Calle del Carmen", "contact:phone": "+34 915229005", "contact:website": "https://es.loccitane.com", "name": "L'Occitane en Provence", "shop": "perfumery", "wheelchair": "limited"}}, {"type": "node", "id": 5431727957, "lat": 40.4179546, "lon": -3.7038127, "tags": {"addr:city": "Madrid", "addr:housenumber": "8", "addr:postcode": "28013", "addr:street": "Calle del Carmen", "contact:website": "http://www.alpargatus.com/", "name": "Alpargatus", "shop": "shoes", "wheelchair": "yes"}}, {"type": "node", "id": 5431727959, "lat": 40.4178097, "lon": -3.7039014, "tags": {"addr:city": "Madrid", "addr:housenumber": "7", "addr:postcode": "28013", "addr:street": "Calle del Carmen", "contact:phone": "+34 915219070", "contact:website": "http://perfumeriaspadilla.es/", "name": "Perfumer\u00edas Padilla", "shop": "perfumery", "wheelchair": "no"}}, {"type": "node", "id": 5431727960, "lat": 40.4177402, "lon": -3.7038489, "tags": {"addr:city": "Madrid", "addr:housenumber": "5", "addr:postcode": "28013", "addr:street": "Calle del Carmen", "contact:phone": "+34 91 522 21 23", "contact:website": "http://www.strover.es/", "name": "Strover", "shop": "shoes", "wheelchair": "limited"}}, {"type": "node", "id": 5431727962, "lat": 40.4178705, "lon": -3.7037472, "tags": {"addr:city": "Madrid", "addr:housenumber": "8", "addr:postcode": "28013", "addr:street": "Calle del Carmen", "contact:phone": "+34 915 227 993", "contact:website": "https://truccoshop.com/", "name": "Trucco", "shop": "clothes", "wheelchair": "no"}}, {"type": "node", "id": 5431727964, "lat": 40.4177022, "lon": -3.7036244, "tags": {"addr:city": "Madrid", "addr:housenumber": "6", "addr:postcode": "28013", "addr:street": "Calle del Carmen", "brand": "Punt Roma", "brand:wikidata": "Q101423290", "clothes": "women", "contact:phone": "+34 915321061", "contact:website": "https://www.puntroma.com", "name": "Punt Roma", "shop": "clothes", "wheelchair": "limited"}}, {"type": "node", "id": 5431727968, "lat": 40.4173293, "lon": -3.7035023, "tags": {"addr:city": "Madrid", "addr:housenumber": "2", "addr:postcode": "28013", "addr:street": "Calle del Carmen", "contact:phone": "+34 918319552", "contact:website": "https://www.perfumeriajulia.es/", "name": "J\u00falia", "shop": "perfumery", "wheelchair": "no"}}, {"type": "node", "id": 5431727969, "lat": 40.4172321, "lon": -3.703712, "tags": {"addr:city": "Madrid", "addr:housenumber": "11", "addr:postcode": "28013", "addr:street": "Plaza de la Puerta del Sol", "brand": "Sephora", "brand:wikidata": "Q2408041", "brand:wikipedia": "en:Sephora", "contact:website": "http://www.sephora.es/", "name": "Sephora", "old_name": "Cortefiel", "phone": "+34 647 43 44 02", "shop": "cosmetics", "wheelchair": "limited"}}, {"type": "node", "id": 5437522105, "lat": 40.4177583, "lon": -3.7081511, "tags": {"addr:city": "Madrid", "addr:housenumber": "26", "addr:postcode": "28013", "addr:street": "Calle Arenal", "brand": "L'Occitane", "brand:wikidata": "Q1880676", "brand:wikipedia": "en:L'Occitane en Provence", "contact:phone": "+34 91 3623366", "contact:website": "https://es.loccitane.com", "name": "L'Occitane", "shop": "cosmetics", "wheelchair": "no"}}, {"type": "node", "id": 5437522106, "lat": 40.4177451, "lon": -3.7080954, "tags": {"addr:city": "Madrid", "addr:housenumber": "26", "addr:postcode": "28013", "addr:street": "Calle Arenal", "contact:phone": "+34 915 487 164", "contact:website": "https://www.anasaenzcalzados.com/", "name": "Ana Sa\u00e9nz", "shop": "shoes", "wheelchair": "limited"}}, {"type": "node", "id": 5437522110, "lat": 40.4175444, "lon": -3.7074113, "tags": {"addr:city": "Madrid", "addr:housenumber": "20", "addr:postcode": "28013", "addr:street": "Calle Arenal", "contact:facebook": "https://es-es.facebook.com/esteveshoes/", "contact:phone": "+34 915 21 67 17", "name": "Esteve", "shop": "shoes", "wheelchair": "limited"}}, {"type": "node", "id": 5437522111, "lat": 40.417533, "lon": -3.7073683, "tags": {"addr:city": "Madrid", "addr:housenumber": "20", "addr:postcode": "28013", "addr:street": "Calle Arenal", "contact:phone": "+34 91 521 75 43", "contact:website": "http://calzadoscremades.com/", "name": "Cremades", "shop": "shoes", "wheelchair": "limited"}}, {"type": "node", "id": 5475598896, "lat": 40.4163011, "lon": -3.7031657, "tags": {"addr:city": "Madrid", "addr:housenumber": "7", "addr:postcode": "28012", "addr:street": "Calle de Carretas", "name": "Fanzy", "shop": "clothes", "wheelchair": "limited"}}, {"type": "node", "id": 5475598897, "lat": 40.4162469, "lon": -3.7031678, "tags": {"addr:city": "Madrid", "addr:housenumber": "7", "addr:postcode": "28012", "addr:street": "Calle de Carretas", "contact:facebook": "https://es-es.facebook.com/Boludos-Boludas-by-Elena-Hernandez-155555887865917/", "contact:phone": "+34 915 22 32 71", "name": "Boludos & Boludas", "shop": "shoes", "wheelchair": "no"}}, {"type": "node", "id": 5475598898, "lat": 40.4160771, "lon": -3.7031635, "tags": {"addr:city": "Madrid", "addr:housenumber": "11", "addr:postcode": "28012", "addr:street": "Calle de Carretas", "contact:website": "https://www.elenahernandez.es", "name": "Elena Hern\u00e1ndez", "shop": "shoes", "wheelchair": "no"}}, {"type": "node", "id": 5475598900, "lat": 40.4157917, "lon": -3.7031579, "tags": {"addr:city": "Madrid", "addr:housenumber": "19", "addr:postcode": "28012", "addr:street": "Calle de Carretas", "brand": "Celio", "brand:wikidata": "Q2672003", "brand:wikipedia": "en:Celio (retailer)", "contact:phone": "+34 915 21 04 01", "contact:website": "https://www.celio.com/", "name": "Celio", "shop": "clothes", "wheelchair": "limited"}}, {"type": "node", "id": 5475598901, "lat": 40.4157445, "lon": -3.7031594, "tags": {"addr:city": "Madrid", "addr:housenumber": "19", "addr:postcode": "28012", "addr:street": "Calle de Carretas", "name": "Joyer\u00eda Cristina", "shop": "jewelry", "wheelchair": "no"}}, {"type": "node", "id": 5475598903, "lat": 40.4151832, "lon": -3.7031684, "tags": {"addr:city": "Madrid", "addr:housenumber": "27", "addr:postcode": "28012", "addr:street": "Calle de Carretas", "brand": "Oysho", "brand:wikidata": "Q3327046", "brand:wikipedia": "en:Oysho", "contact:phone": "+34 915229789", "contact:website": "https://www.oysho.com", "name": "Oysho", "shop": "clothes", "wheelchair": "limited"}}, {"type": "node", "id": 5475598906, "lat": 40.4150457, "lon": -3.70319, "tags": {"addr:city": "Madrid", "addr:housenumber": "31", "addr:postcode": "28012", "addr:street": "Calle de Carretas", "brand": "Oasis", "brand:wikidata": "Q64532852", "name": "Oasis", "shop": "clothes", "wheelchair": "limited"}}, {"type": "node", "id": 5498929497, "lat": 40.4187546, "lon": -3.7021169, "tags": {"addr:city": "Madrid", "addr:housenumber": "30", "addr:postcode": "28013", "addr:street": "Calle de la Montera", "contact:phone": "+34 915 21 87 15", "contact:website": "https://tumundofantastico.com/", "name": "Love Shop", "shop": "erotic", "wheelchair": "no"}}, {"type": "node", "id": 5498929498, "lat": 40.4186434, "lon": -3.7021774, "tags": {"addr:city": "Madrid", "addr:housenumber": "26", "addr:postcode": "28013", "addr:street": "Calle de la Montera", "contact:website": "http://www.modelisa.com/", "name": "Modelisa", "shop": "clothes", "wheelchair": "no"}}, {"type": "node", "id": 5498929499, "lat": 40.418596, "lon": -3.7022043, "tags": {"addr:city": "Madrid", "addr:housenumber": "26", "addr:postcode": "28013", "addr:street": "Calle de la Montera", "name": "Montera Moda", "shop": "clothes", "wheelchair": "limited"}}, {"type": "node", "id": 5556466840, "lat": 40.4159525, "lon": -3.7050747, "tags": {"addr:city": "Madrid", "addr:housenumber": "5", "addr:postcode": "28012", "addr:street": "Calle de Esparteros", "name": "Almacenes Esparteros", "shop": "clothes", "wheelchair": "no"}}, {"type": "node", "id": 5556466845, "lat": 40.4153326, "lon": -3.7053867, "tags": {"addr:city": "Madrid", "addr:housenumber": "13", "addr:postcode": "28012", "addr:street": "Calle de Esparteros", "contact:website": "http://telassanjulian.com/", "name": "San Juli\u00e1n", "shop": "fabric", "wheelchair": "no"}}, {"type": "node", "id": 5663293623, "lat": 40.4168229, "lon": -3.7049749, "tags": {"brand": "Camper", "brand:wikidata": "Q1030922", "brand:wikipedia": "en:Camper (company)", "name": "Camper", "shop": "shoes"}}, {"type": "node", "id": 5663306821, "lat": 40.4172392, "lon": -3.7062268, "tags": {"name": "Tony Pons", "name:en": "Tony Pons", "shop": "shoes"}}, {"type": "node", "id": 5764016654, "lat": 40.4142151, "lon": -3.7076742, "tags": {"addr:city": "Madrid", "addr:housenumber": "18", "addr:postcode": "28005", "addr:street": "Calle de Toledo", "name": "Casa Hernanz", "name:en": "Casa Hernanz", "opening_hours": "Mo-Fr 09:00-13:30, 16:30-20:00; Sa 10:00-14:00", "phone": "+34 913 66 54 50", "shop": "shoes", "website": "https://www.alpargateriahernanz.com/"}}, {"type": "node", "id": 5892726868, "lat": 40.4183165, "lon": -3.7047478, "tags": {"brand": "Zara", "brand:wikidata": "Q147662", "brand:wikipedia": "en:Zara (retailer)", "name": "Zara", "shop": "clothes", "source": "survey"}}, {"type": "node", "id": 5892726869, "lat": 40.4182801, "lon": -3.7049447, "tags": {"brand": "Pull & Bear", "brand:wikidata": "Q691029", "brand:wikipedia": "en:Pull&Bear", "name": "Pull & Bear", "shop": "clothes", "source": "survey"}}, {"type": "node", "id": 6334379597, "lat": 40.4186528, "lon": -3.7049699, "tags": {"brand": "Pandora", "brand:wikidata": "Q2241604", "brand:wikipedia": "en:Pandora (jewelry)", "name": "Pandora", "shop": "jewelry"}}, {"type": "node", "id": 6340751297, "lat": 40.4134648, "lon": -3.7050144}, {"type": "node", "id": 6340751298, "lat": 40.4133954, "lon": -3.7048799}, {"type": "node", "id": 6340751299, "lat": 40.413422, "lon": -3.7050312}, {"type": "node", "id": 6340751300, "lat": 40.4133781, "lon": -3.7050433}, {"type": "node", "id": 6340751301, "lat": 40.4132914, "lon": -3.7050814}, {"type": "node", "id": 6340751303, "lat": 40.4131419, "lon": -3.704979}, {"type": "node", "id": 6340751304, "lat": 40.4131703, "lon": -3.7051433}, {"type": "node", "id": 6340751305, "lat": 40.4132938, "lon": -3.7051005}, {"type": "node", "id": 6340751306, "lat": 40.413229, "lon": -3.7051184}, {"type": "node", "id": 6340751307, "lat": 40.4130981, "lon": -3.7049951}, {"type": "node", "id": 6340751308, "lat": 40.4131251, "lon": -3.7051204}, {"type": "node", "id": 6340751309, "lat": 40.4130519, "lon": -3.7050115}, {"type": "node", "id": 6340751310, "lat": 40.413081, "lon": -3.7051392}, {"type": "node", "id": 6340751315, "lat": 40.4126971, "lon": -3.7052877}, {"type": "node", "id": 6340751316, "lat": 40.4140628, "lon": -3.7046725, "tags": {"name": "Pedro Gallego", "shop": "clothes"}}, {"type": "node", "id": 6357173370, "lat": 40.4152059, "lon": -3.7041742, "tags": {"shop": "fabric"}}, {"type": "node", "id": 6357173371, "lat": 40.4152329, "lon": -3.7035352, "tags": {"name": "Mafhesa", "repair": "yes", "shop": "watches"}}, {"type": "node", "id": 6357173379, "lat": 40.4152288, "lon": -3.7037833, "tags": {"name": "Elmerfor, S.L.", "repair": "yes", "shop": "watches"}}, {"type": "node", "id": 6357173380, "lat": 40.4151482, "lon": -3.7038658, "tags": {"name": "Reyforsa", "shop": "watches"}}, {"type": "node", "id": 6357173384, "lat": 40.4151579, "lon": -3.7039308, "tags": {"name": "Girod", "shop": "watches"}}, {"type": "node", "id": 6357175385, "lat": 40.4151722, "lon": -3.7040039, "tags": {"addr:housenumber": "17", "alt_name": "Er\u00eda Oro Local 17", "name": "Serviwatch", "repair": "yes", "shop": "watches"}}, {"type": "node", "id": 6372020658, "lat": 40.4122565, "lon": -3.7054137}, {"type": "node", "id": 6372020663, "lat": 40.4123832, "lon": -3.7054671}, {"type": "node", "id": 6372020664, "lat": 40.4124519, "lon": -3.7054711}, {"type": "node", "id": 6372020665, "lat": 40.4124225, "lon": -3.7053427}, {"type": "node", "id": 6372020666, "lat": 40.4123608, "lon": -3.7053695}, {"type": "node", "id": 6372020667, "lat": 40.4123713, "lon": -3.7055019}, {"type": "node", "id": 6372020672, "lat": 40.4123266, "lon": -3.7057292}, {"type": "node", "id": 6372020673, "lat": 40.4123361, "lon": -3.7057775}, {"type": "node", "id": 6373247252, "lat": 40.4132568, "lon": -3.7012177}, {"type": "node", "id": 6373247627, "lat": 40.4140029, "lon": -3.7032936}, {"type": "node", "id": 6373247628, "lat": 40.4139361, "lon": -3.7034594}, {"type": "node", "id": 6373247629, "lat": 40.4140392, "lon": -3.7034022}, {"type": "node", "id": 6431838213, "lat": 40.4122443, "lon": -3.6999204}, {"type": "node", "id": 6431838214, "lat": 40.4122457, "lon": -3.6999739}, {"type": "node", "id": 6431838215, "lat": 40.4123176, "lon": -3.6999814}, {"type": "node", "id": 6431838834, "lat": 40.4121696, "lon": -3.70138}, {"type": "node", "id": 6431838835, "lat": 40.4123047, "lon": -3.7013794}, {"type": "node", "id": 6431838839, "lat": 40.412141, "lon": -3.7010052}, {"type": "node", "id": 6431838840, "lat": 40.4123141, "lon": -3.7010058}, {"type": "node", "id": 6431838841, "lat": 40.4121851, "lon": -3.7009627}, {"type": "node", "id": 6431838842, "lat": 40.4123154, "lon": -3.7009609}, {"type": "node", "id": 6431838845, "lat": 40.4123178, "lon": -3.7008804}, {"type": "node", "id": 6431838846, "lat": 40.4121448, "lon": -3.7008785}, {"type": "node", "id": 6431838847, "lat": 40.4121308, "lon": -3.7007411}, {"type": "node", "id": 6431838848, "lat": 40.4123219, "lon": -3.7007387}, {"type": "node", "id": 6432436943, "lat": 40.4121961, "lon": -3.7034302}, {"type": "node", "id": 6432436944, "lat": 40.4121829, "lon": -3.7034829}, {"type": "node", "id": 6432436945, "lat": 40.4123258, "lon": -3.7035436}, {"type": "node", "id": 6499502376, "lat": 40.4130458, "lon": -3.7075899, "tags": {"entrance": "main"}}, {"type": "node", "id": 6499502381, "lat": 40.4130817, "lon": -3.7076926}, {"type": "node", "id": 6499502382, "lat": 40.4130327, "lon": -3.7077121}, {"type": "node", "id": 6499502384, "lat": 40.4128888, "lon": -3.7076198, "tags": {"entrance": "main"}}, {"type": "node", "id": 6499502885, "lat": 40.4128837, "lon": -3.7077544}, {"type": "node", "id": 6499502886, "lat": 40.4129582, "lon": -3.7077225}, {"type": "node", "id": 6499502887, "lat": 40.4130591, "lon": -3.7075874}, {"type": "node", "id": 6499502888, "lat": 40.4129278, "lon": -3.7076124}, {"type": "node", "id": 6499502889, "lat": 40.4130066, "lon": -3.7075974}, {"type": "node", "id": 6499502915, "lat": 40.4126876, "lon": -3.7077469}, {"type": "node", "id": 6499502916, "lat": 40.4126687, "lon": -3.7076635}, {"type": "node", "id": 6499794660, "lat": 40.4141326, "lon": -3.7076272, "tags": {"entrance": "main"}}, {"type": "node", "id": 6499794662, "lat": 40.4140919, "lon": -3.7076742}, {"type": "node", "id": 6499794663, "lat": 40.4141337, "lon": -3.7076973}, {"type": "node", "id": 6499794664, "lat": 40.4141506, "lon": -3.7076298}, {"type": "node", "id": 6501213001, "lat": 40.4156939, "lon": -3.7090922}, {"type": "node", "id": 6501213002, "lat": 40.4156753, "lon": -3.7091595}, {"type": "node", "id": 6501213003, "lat": 40.4157609, "lon": -3.7091947}, {"type": "node", "id": 6501213004, "lat": 40.4157673, "lon": -3.7091666, "tags": {"entrance": "main"}}, {"type": "node", "id": 6501213006, "lat": 40.4157518, "lon": -3.708996}, {"type": "node", "id": 6501213007, "lat": 40.4157348, "lon": -3.7090844}, {"type": "node", "id": 6501213008, "lat": 40.4157829, "lon": -3.7091035}, {"type": "node", "id": 6510761150, "lat": 40.413144, "lon": -3.7073425, "tags": {"addr:city": "Madrid", "addr:housenumber": "35", "addr:postcode": "28005", "addr:street": "Calle de Toledo", "name": "El Botijo1754", "opening_hours": "Mo-Fr 09:30-14:00,17:00-20:30; Sa 09:30-14:00", "phone": "+34 91 365 18 38", "shop": "perfumery", "start_date": "1754", "website": "https://elbotijo1754.es/"}}, {"type": "node", "id": 6510792117, "lat": 40.4133376, "lon": -3.7076123, "tags": {"name": "Oyag", "shop": "jewelry"}}, {"type": "node", "id": 6510801381, "lat": 40.4137173, "lon": -3.7073497, "tags": {"name": "Zorrilla", "shop": "clothes"}}, {"type": "node", "id": 6553827824, "lat": 40.4171833, "lon": -3.7039265, "tags": {"name": "Primor", "shop": "cosmetics"}}, {"type": "node", "id": 7306931153, "lat": 40.414006, "lon": -3.7076053, "tags": {"addr:city": "Madrid", "addr:housenumber": "22-24", "addr:postcode": "28005", "addr:street": "Calle de Toledo", "level": "0", "name": "M. Hern\u00e1ndez", "shop": "clothes"}}, {"type": "node", "id": 7398563714, "lat": 40.4154195, "lon": -3.7055294, "tags": {"addr:city": "Madrid", "addr:country": "ES", "addr:housenumber": "13", "addr:postcode": "28012", "addr:street": "Calle Esparteros", "contact:facebook": "https://www.facebook.com/lostejidosdelamaja", "description": "Tejidos de Decoraci\u00f3n elegidos uno a uno alrededor del Mundo con sello propio. Todo tipo de confecci\u00f3n, instalaci\u00f3n y tapizado. Asesoramiento personalizado.", "name": "Los Tejidos de la Maja", "opening_hours": "Mo-Fr 10:00-14:00, 17:00-20:30; Sa 10:00-14:00", "phone": "+34 915 22 25 13", "shop": "fabric"}}, {"type": "node", "id": 8095017480, "lat": 40.4179313, "lon": -3.7032679, "tags": {"name": "Marbella", "shop": "shoes"}}, {"type": "node", "id": 8095017483, "lat": 40.4181277, "lon": -3.703165, "tags": {"name": "J. Lude\u00f1a", "shop": "jewelry"}}, {"type": "node", "id": 8098289303, "lat": 40.4130196, "lon": -3.7012358}, {"type": "node", "id": 8098289304, "lat": 40.4130075, "lon": -3.7012389}, {"type": "node", "id": 8098289305, "lat": 40.4130416, "lon": -3.7012498}, {"type": "node", "id": 8098314411, "lat": 40.4174519, "lon": -3.7001298, "tags": {"brand": "Herm\u00e8s", "brand:wikidata": "Q843887", "name": "Herm\u00e8s", "shop": "clothes", "website": "https://www.hermes.com"}}, {"type": "node", "id": 8848285317, "lat": 40.4142417, "lon": -3.7079294, "tags": {"addr:housenumber": "15", "addr:postcode": "28005", "addr:street": "Calle de Cuchilleros", "name": "The Kinze de Cuchilleros", "opening_hours": "Mo-Fr 09:00-20:00; Sa 09:00-14:00", "phone": "+34 913 66 58 87", "shop": "hairdresser", "website": "https://www.barberiaelkinze.es/"}}, {"type": "node", "id": 9071663160, "lat": 40.4211849, "lon": -3.7013061, "tags": {"name": "Uno de 50", "shop": "jewelry"}}, {"type": "node", "id": 9087822817, "lat": 40.4132638, "lon": -3.7008427, "tags": {"addr:city": "Madrid", "addr:country": "ES", "addr:housenumber": "45", "addr:postcode": "28012", "addr:street": "Calle de Atocha", "name": "Real Cash (Atocha)", "opening_hours": "Mo-Fr 10:30-14:00, 16:30-20:30; Sa 10:30-14:00", "phone": "+34 911 38 54 72", "shop": "clothes", "website": "https://realcash.es/"}}, {"type": "node", "id": 9338894211, "lat": 40.4124609, "lon": -3.7007303, "tags": {"name": "Manuel Fern\u00e1ndez", "shop": "tailor"}}, {"type": "node", "id": 9426324747, "lat": 40.415872, "lon": -3.7004329, "tags": {"clothes": "women", "level": "0", "name": "oh Nicole", "shop": "clothes"}}, {"type": "node", "id": 9573010617, "lat": 40.4144447, "lon": -3.7023828, "tags": {"name": "Eduardo Rivera", "opening_hours": "Mo-Su 09:00-22:00", "shop": "clothes"}}, {"type": "node", "id": 9592793254, "lat": 40.4157025, "lon": -3.7061625, "tags": {"name": "Cyma", "shop": "jewelry"}}, {"type": "node", "id": 9723737270, "lat": 40.4150173, "lon": -3.698429, "tags": {"name": "M", "shop": "clothes"}}, {"type": "node", "id": 9872350291, "lat": 40.4164881, "lon": -3.7001945, "tags": {"addr:city": "Madrid", "addr:housenumber": "3", "addr:postcode": "28014", "addr:street": "Plaza de Canalejas", "name": "Typographia", "phone": "+34911375176", "shop": "clothes", "website": "http://www.typographia.com/"}}, {"type": "node", "id": 9881650618, "lat": 40.4152635, "lon": -3.7031497, "tags": {"brand": "Oysho", "brand:wikidata": "Q3327046", "name": "Oysho", "name:en": "Oysho", "shop": "clothes"}}, {"type": "node", "id": 9885626985, "lat": 40.415107, "lon": -3.7058374, "tags": {"name": "Tom\u00e1s Ram\u00edrez", "shop": "boutique"}}, {"type": "node", "id": 9899051317, "lat": 40.417323, "lon": -3.7065699, "tags": {"addr:housenumber": "16", "addr:postcode": "28013", "addr:street": "Calle Arenal", "name:en": "Sketchers", "shop": "shoes"}}, {"type": "node", "id": 9932668417, "lat": 40.4184676, "lon": -3.7045976, "tags": {"name:en": "Zara", "shop": "clothes"}}, {"type": "node", "id": 9933054445, "lat": 40.4135525, "lon": -3.7021274, "tags": {"level": "0", "name": "Ribes & Casals S.A.", "shop": "fabric"}}, {"type": "node", "id": 9933054446, "lat": 40.4137032, "lon": -3.7025637, "tags": {"clothes": "men", "name": "Dakota", "shop": "clothes"}}, {"type": "node", "id": 9933067452, "lat": 40.4132555, "lon": -3.7012975, "tags": {"level": "0", "name": "Abraham", "shop": "chemist"}}, {"type": "way", "id": 677174919, "nodes": [6340751299, 6340751297, 3805868212, 6340751298, 6340751299], "tags": {"name": "Lucca", "shop": "clothes"}}, {"type": "way", "id": 677174921, "nodes": [4384317840, 6340751300, 5225041422, 5225041423, 6340751299, 6340751298, 4384317840], "tags": {"name": "Apotheke", "shop": "clothes"}}, {"type": "way", "id": 677174926, "nodes": [6340751306, 5225041214, 6340751304, 6340751303, 4384317857, 6340751306], "tags": {"name": "Brasilia", "shop": "clothes"}}, {"type": "way", "id": 677174928, "nodes": [4384317857, 6340751306, 6340751305, 6340751301, 3805867120, 4384317857], "tags": {"name": "Ada Gatti", "shop": "clothes"}}, {"type": "way", "id": 677174930, "nodes": [6340751310, 6340751308, 6340751307, 6340751309, 6340751310], "tags": {"level": "0", "name": "Iris", "shop": "clothes"}}, {"type": "way", "id": 677174936, "nodes": [3260817274, 3260817278, 3260817272, 3260817259, 3260817255, 6340751315, 3260817274], "tags": {"name": "Bocetto", "shop": "clothes"}}, {"type": "way", "id": 680528677, "nodes": [6372020658, 6372020672, 6372020673, 2734061928, 2734061924, 2734061922, 2734061920, 6372020658], "tags": {"name": "Italy Fulars", "shop": "clothes"}}, {"type": "way", "id": 680528678, "nodes": [6372020666, 6372020663, 2734061925, 6372020667, 2734061927, 2734061922, 2734061920, 6372020666], "tags": {"level": "0", "name": "Ada Gatti", "shop": "clothes"}}, {"type": "way", "id": 680528680, "nodes": [6372020666, 6372020665, 6372020664, 2734061933, 2734061931, 6372020663, 6372020666], "tags": {"level": "0", "name": "Aqua Bijoux", "shop": "jewelry"}}, {"type": "way", "id": 680634054, "nodes": [6373247252, 2954345610, 3771872667, 8098289305, 3771872668, 8098289303, 8098289304, 3771872669, 2954345624, 6373247252], "tags": {"addr:city": "Madrid", "addr:housenumber": "32", "addr:postcode": "28012", "addr:street": "Calle de Atocha", "level": "0", "name": "The Factory", "shop": "clothes"}}, {"type": "way", "id": 680634080, "nodes": [6373247629, 6373247628, 4384317839, 6373247627, 6373247629], "tags": {"level": "0", "name": "Alvi Oro", "shop": "jewelry"}}, {"type": "way", "id": 686207594, "nodes": [6431838835, 6431838834, 3794200515, 3794200508, 3794200509, 6431838835], "tags": {"description": "\"Artesania bisuteria Hindu\"", "name": "Namaste", "shop": "jewelry"}}, {"type": "way", "id": 686207598, "nodes": [6431838840, 6431838839, 3794200501, 3794200510, 3794200502, 6431838840], "tags": {"level": "0", "name": "Elena Bisuteria", "shop": "jewelry"}}, {"type": "way", "id": 686207599, "nodes": [6431838842, 6431838841, 3794200505, 3794200504, 6431838846, 6431838845, 6431838842], "tags": {"level": "0", "name": "El Ferrocarril", "shop": "shoes"}}, {"type": "way", "id": 686207602, "nodes": [6431838848, 6431838847, 3794186296, 3794201609, 3794200503, 3794201610, 6431838848], "tags": {"level": "0", "shop": "beauty"}}, {"type": "way", "id": 686207614, "nodes": [6431838215, 6431838214, 6431838213, 3791776558, 3791776562, 6431838215], "tags": {"addr:city": "Madrid", "addr:housenumber": "36", "addr:postcode": "28012", "addr:street": "Calle de la Magdalena", "name": "Pelucas Cabello R.", "opening_hours": "Mo-Fr 10:00-14:00,16:30-20:00; Sa 10:00-14:00", "phone": "+34913692423", "shop": "hairdresser", "website": "https://cabellor.com"}}, {"type": "way", "id": 686273874, "nodes": [6432436945, 6432436944, 6432436943, 2955144571, 6432436945], "tags": {"level": "0", "name": "H.H.G.", "shop": "clothes"}}, {"type": "way", "id": 692395495, "nodes": [6499502889, 6499502382, 6499502381, 6499502887, 6499502376, 6499502889], "tags": {"level": "0", "name": "La Ventana Natural Market", "shop": "herbalist"}}, {"type": "way", "id": 692395497, "nodes": [3614543608, 6499502384, 6499502888, 6499502886, 6499502885, 3614543602, 3614543608], "tags": {"addr:city": "Madrid", "addr:housenumber": "34", "addr:street": "Calle de Toledo", "level": "0", "name": "Mulaya", "shop": "clothes"}}, {"type": "way", "id": 692395499, "nodes": [6499502916, 6499502915, 3306785593, 3306785590, 3306785585, 6499502916], "tags": {"addr:city": "Madrid", "addr:housenumber": "38", "addr:street": "Calle de Toledo", "name": "Calzados Carballo", "shop": "shoes"}}, {"type": "way", "id": 692427537, "nodes": [6499794664, 6499794663, 6499794662, 3649181145, 6499794660, 6499794664], "tags": {"addr:city": "Madrid", "addr:housenumber": "20", "addr:street": "Calle de Toledo", "level": "0", "name": "Calzados Toledo", "shop": "shoes"}}, {"type": "way", "id": 692496135, "nodes": [6501213003, 6501213002, 6501213001, 2603373953, 2603373952, 2603373957, 6501213004, 6501213003], "tags": {"name": "Gyll", "shop": "bag"}}, {"type": "way", "id": 692496136, "nodes": [6501213008, 6501213007, 6501213006, 2603373959, 2603373960, 6501213008], "tags": {"name": "El Castillo", "shop": "clothes"}}]}