{"version": 0.6, "generator": "Overpass API 0.7.58.5 b0c4acbb", "osm3s": {"timestamp_osm_base": "2022-08-22T10:51:24Z", "copyright": "The data included in this document is from www.openstreetmap.org. The data is made available under ODbL."}, "elements": [{"type": "node", "id": 2503337829, "lat": 40.4072408, "lon": -3.6733251, "tags": {"brand": "Lidl", "brand:wikidata": "Q151954", "brand:wikipedia": "en:Lidl", "name": "Lidl", "opening_hours": "Mo-Su 09:00-21:00", "opening_hours:covid19": "Mo-Sa 09:00-19:00", "operator": "LIDL", "payment:cash": "yes", "payment:mastercard": "yes", "payment:visa": "yes", "shop": "supermarket"}}, {"type": "node", "id": 2533476399, "lat": 40.4071541, "lon": -3.66993, "tags": {"amenity": "fast_food", "brand": "Rodilla", "brand:wikidata": "Q7356777", "brand:wikipedia": "es:Rodilla (franquicia)", "cuisine": "sandwich", "name": "Rodilla", "takeaway": "yes"}}, {"type": "node", "id": 2533476414, "lat": 40.4096842, "lon": -3.670218, "tags": {"amenity": "cafe", "name": "Cafeter\u00eda Bilbao"}}, {"type": "node", "id": 2573861973, "lat": 40.4096389, "lon": -3.6696277, "tags": {"brand": "La Plaza de DIA", "brand:wikidata": "Q58904673", "name": "La Plaza de DIA", "shop": "supermarket"}}, {"type": "node", "id": 2830518336, "lat": 40.4070152, "lon": -3.671088, "tags": {"addr:city": "Madrid", "addr:country": "ES", "addr:housenumber": "39", "addr:postcode": "28007", "addr:street": "Avenida del Mediterr\u00e1neo", "name": "Viena Azul", "shop": "bakery"}}, {"type": "node", "id": 2830518360, "lat": 40.4070652, "lon": -3.6708895, "tags": {"amenity": "restaurant", "brand": "100 Montaditos", "brand:wikidata": "Q8355805", "brand:wikipedia": "en:Cervecer\u00eda 100 Montaditos", "cuisine": "sandwich", "name": "100 Montaditos"}}, {"type": "node", "id": 2836475122, "lat": 40.4067671, "lon": -3.6727199, "tags": {"amenity": "cafe", "name": "Caf\u00e9 Troy", "outdoor_seating": "yes"}}, {"type": "node", "id": 3072066174, "lat": 40.4069251, "lon": -3.6690498, "tags": {"addr:city": "Madrid", "addr:housenumber": "53", "addr:postcode": "28007", "addr:street": "Avenida del Mediterr\u00e1neo", "amenity": "cafe", "name": "Cafeteria Gran Cafe Bar Y Tapas"}}, {"type": "node", "id": 3242576244, "lat": 40.4069644, "lon": -3.6687864, "tags": {"addr:city": "Madrid", "addr:housenumber": "47", "addr:postcode": "28007", "addr:street": "Avenida del Mediterr\u00e1neo", "brand": "Ahorram\u00e1s", "brand:wikidata": "Q58221883", "level": "0", "name": "Ahorram\u00e1s", "opening_hours": "Mo-Sa 09:00-21:00", "operator": "Ahorram\u00e1s", "shop": "supermarket"}}, {"type": "node", "id": 3274732551, "lat": 40.407297, "lon": -3.6699894, "tags": {"shop": "kiosk"}}, {"type": "node", "id": 3475007564, "lat": 40.4077061, "lon": -3.6713984, "tags": {"addr:city": "Madrid", "addr:country": "ES", "addr:housenumber": "4", "addr:postcode": "28007", "addr:street": "Calle de Walia", "amenity": "restaurant", "name": "Restaurante Cafeter\u00eda Casa Hern\u00e1ndez"}}, {"type": "node", "id": 4309768895, "lat": 40.406441, "lon": -3.6727811, "tags": {"addr:city": "Madrid", "addr:housenumber": "43", "addr:postcode": "28007", "addr:street": "Calle de S\u00e1nchez Barc\u00e1iztegui", "name": "La Despensa", "old_name": "Supersol", "opening_hours": "Mo-Sa 09:00-21:00; Su 09:00-15:00; PH closed", "shop": "supermarket"}}, {"type": "node", "id": 4994130034, "lat": 40.4083178, "lon": -3.6691122, "tags": {"addr:city": "Madrid", "addr:housenumber": "8", "addr:postcode": "28007", "addr:street": "Calle de Lira", "amenity": "restaurant", "cuisine": "burger", "diet:vegan": "yes", "diet:vegetarian": "yes", "facebook": "https://www.cookaluzka.com/", "instagram": "Cookaluzka", "name": "Cookaluzka", "opening_hours": "Mo-Th 08:00-16:35, 19:35-23:00; Fr 08:00-23:30; Sa 08:00-17:30, 20:00-23:30", "phone": "+34638888954"}}, {"type": "node", "id": 5781837005, "lat": 40.4069974, "lon": -3.6708246, "tags": {"shop": "kiosk", "source": "survey"}}, {"type": "node", "id": 5781880573, "lat": 40.4066897, "lon": -3.6720456, "tags": {"name": "El Torno al Vino", "shop": "alcohol"}}, {"type": "node", "id": 5781880576, "lat": 40.407049, "lon": -3.6714583, "tags": {"name": "Aqui La Fruta", "shop": "greengrocer"}}, {"type": "node", "id": 5781880579, "lat": 40.4070652, "lon": -3.6716083, "tags": {"bakery": "churreria", "name": "La Conchita", "shop": "bakery", "source": "survey"}}, {"type": "node", "id": 5781880580, "lat": 40.4070575, "lon": -3.6715466, "tags": {"amenity": "cafe", "name": "Yedra"}}, {"type": "node", "id": 6404210972, "lat": 40.4068078, "lon": -3.6731597, "tags": {"amenity": "fast_food", "name": "Mahalo Pok\u00e9", "old_name": "Pan de P\u00e1jaro", "website": "https://mahalopoke.es/"}}, {"type": "node", "id": 7052365975, "lat": 40.4086429, "lon": -3.6690299, "tags": {"amenity": "cafe", "name": "Ghost Lira"}}, {"type": "node", "id": 7052365977, "lat": 40.4083649, "lon": -3.6705302, "tags": {"amenity": "restaurant", "name": "La Parisiena"}}, {"type": "node", "id": 7093675585, "lat": 40.4097349, "lon": -3.6705178, "tags": {"addr:city": "Madrid", "addr:country": "ES", "addr:housenumber": "30", "addr:postcode": "28007", "addr:street": "Calle de Arias Montano", "amenity": "restaurant", "cuisine": "italian_pizza;italian", "name": "Acqua In Bocca Trattoria", "opening_hours": "Mo-Su 13:00-16:30,20:00-23:00"}}, {"type": "node", "id": 7235044850, "lat": 40.4072203, "lon": -3.6704236, "tags": {"name": "Bazar", "shop": "convenience"}}, {"type": "node", "id": 7235044856, "lat": 40.4079289, "lon": -3.6703581, "tags": {"name": "Global Deals", "shop": "convenience"}}, {"type": "node", "id": 7235044862, "lat": 40.4083642, "lon": -3.6703305, "tags": {"name": "Panaria", "shop": "bakery"}}, {"type": "node", "id": 7235093906, "lat": 40.409318, "lon": -3.6702447, "tags": {"amenity": "restaurant", "name": "Ruta 108"}}, {"type": "node", "id": 7235093907, "lat": 40.409361, "lon": -3.670246, "tags": {"name": "Alimentaci\u00f3n Bazar", "shop": "convenience"}}, {"type": "node", "id": 8436133567, "lat": 40.4082424, "lon": -3.669026, "tags": {"name": "Alimentaci\u00f3n", "shop": "convenience"}}, {"type": "node", "id": 8436149089, "lat": 40.4069339, "lon": -3.6693838, "tags": {"name": "El Obrador de Goya", "phone": "+34914109813", "shop": "bakery"}}, {"type": "node", "id": 8439631112, "lat": 40.4071577, "lon": -3.6688015, "tags": {"addr:city": "Madrid", "addr:housenumber": "31", "addr:postcode": "28007", "addr:street": "Calle Cruz del Sur", "name": "El Valle", "phone": "+34602101036", "shop": "greengrocer"}}, {"type": "node", "id": 8439724170, "lat": 40.4072281, "lon": -3.6699206, "tags": {"name": "Alimentaci\u00f3n", "opening_hours": "PH,Mo-Su 09:00-22:00", "shop": "convenience"}}, {"type": "node", "id": 9459250136, "lat": 40.4063686, "lon": -3.6725674, "tags": {"amenity": "pub", "name": "Dondemario"}}, {"type": "node", "id": 9459250620, "lat": 40.4065135, "lon": -3.6727149, "tags": {"amenity": "restaurant", "name": "Croqueta y presumida", "takeaway": "only"}}, {"type": "node", "id": 9460616634, "lat": 40.4063392, "lon": -3.668952, "tags": {"level": "0", "name": "Alimentaci\u00f3n", "shop": "convenience"}}, {"type": "node", "id": 9460616635, "lat": 40.4063463, "lon": -3.6690056, "tags": {"level": "0", "name": "Sole", "shop": "coffee"}}, {"type": "node", "id": 9466937954, "lat": 40.4063893, "lon": -3.6709092, "tags": {"amenity": "restaurant", "name": "El Casal de Pepa"}}, {"type": "node", "id": 9738217119, "lat": 40.407035, "lon": -3.6704473, "tags": {"alt_name": "Empanadas Argentinas Malv\u00f3n", "amenity": "fast_food", "branch": "Empanadas Argentinas", "brand": "Malv\u00f3n", "brand:wikidata": "Q109877196", "cuisine": "empanada", "name": "Malv\u00f3n", "takeaway": "yes"}}, {"type": "node", "id": 9829267277, "lat": 40.4092733, "lon": -3.6702469, "tags": {"brand": "Carrefour Express", "brand:wikidata": "Q2940190", "name": "Carrefour Express", "shop": "convenience"}}]}