{"version": 0.6, "generator": "Overpass API 0.7.58.5 b0c4acbb", "osm3s": {"timestamp_osm_base": "2022-08-21T21:51:23Z", "copyright": "The data included in this document is from www.openstreetmap.org. The data is made available under ODbL."}, "elements": [{"type": "node", "id": 2533476404, "lat": 40.4070333, "lon": -3.6699245, "tags": {"name": "Amore", "shop": "clothes"}}, {"type": "node", "id": 2830482295, "lat": 40.4073149, "lon": -3.6744248, "tags": {"addr:city": "Madrid", "addr:country": "ES", "addr:housenumber": "23", "addr:postcode": "28007", "addr:street": "Avenida del Mediterr\u00e1neo", "brand": "Marco Aldany", "brand:wikidata": "Q112095114", "name": "Marco Aldany", "shop": "hairdresser"}}, {"type": "node", "id": 2834135508, "lat": 40.4043683, "lon": -3.675616, "tags": {"name": "Reparaci\u00f3n de Calzado Alfaro", "shop": "shoes"}}, {"type": "node", "id": 2834135509, "lat": 40.4042845, "lon": -3.6754432, "tags": {"name": "Zapateros Zapagasc\u00f3n", "shop": "shoes"}}, {"type": "node", "id": 2834193225, "lat": 40.4070818, "lon": -3.6717874, "tags": {"addr:city": "Madrid", "addr:country": "ES", "addr:housenumber": "108", "addr:postcode": "28007", "addr:street": "Avenida del Mediterr\u00e1neo", "name": "Peluquer\u00eda I & S", "shop": "hairdresser"}}, {"type": "node", "id": 2834193226, "lat": 40.4047166, "lon": -3.6763161, "tags": {"addr:city": "Madrid", "addr:country": "ES", "addr:housenumber": "26A", "addr:postcode": "28007", "addr:street": "Calle de Valderribas", "name": "Peluquer\u00eda Imagen", "shop": "hairdresser"}}, {"type": "node", "id": 2836475126, "lat": 40.4070984, "lon": -3.6719257, "tags": {"name": "Shango", "shop": "cosmetics"}}, {"type": "node", "id": 3237226929, "lat": 40.4046157, "lon": -3.6726223, "tags": {"name": "Plaza China", "shop": "variety_store"}}, {"type": "node", "id": 3265644560, "lat": 40.4041633, "lon": -3.6747775, "tags": {"addr:city": "Madrid", "addr:country": "ES", "addr:housenumber": "45", "addr:postcode": "28007", "addr:street": "Calle de Valderribas", "shop": "hairdresser"}}, {"type": "node", "id": 3274732362, "lat": 40.4077423, "lon": -3.6698805, "tags": {"contact:phone": "+34 910 33 85 24", "level": "0", "name": "360\u00b0", "opening_hours": "Mo-Sa 09:30-22:00; Su 10:00-22:00; PH closed", "shop": "hairdresser", "unisex": "yes", "wheelchair": "no"}}, {"type": "node", "id": 3842074708, "lat": 40.4119063, "lon": -3.6679841, "tags": {"addr:city": "Madrid", "addr:housenumber": "3", "addr:postcode": "28007", "addr:street": "Calle Cruz del Sur", "name": "Zapater\u00eda Cruz del Sur", "shop": "shoes"}}, {"type": "node", "id": 4309768894, "lat": 40.4054288, "lon": -3.6735896, "tags": {"addr:city": "Madrid", "addr:housenumber": "29", "addr:postcode": "28007", "addr:street": "Calle de S\u00e1nchez Barc\u00e1iztegui", "shop": "clothes"}}, {"type": "node", "id": 4309768896, "lat": 40.4055611, "lon": -3.6732007, "tags": {"shop": "shoes"}}, {"type": "node", "id": 4953459818, "lat": 40.4065291, "lon": -3.6756874, "tags": {"name": "Fanes", "shop": "clothes"}}, {"type": "node", "id": 5781837006, "lat": 40.4070423, "lon": -3.6705986, "tags": {"name": "Marjo Joyero", "shop": "jewelry", "source": "survey"}}, {"type": "node", "id": 5781837008, "lat": 40.4070494, "lon": -3.6706322, "tags": {"name": "Herbolario", "shop": "herbalist"}}, {"type": "node", "id": 5781837009, "lat": 40.4070428, "lon": -3.6705028, "tags": {"name": "Bianca", "shop": "shoes"}}, {"type": "node", "id": 5781880574, "lat": 40.4066897, "lon": -3.6721805, "tags": {"level": "0", "name": "Mulaya", "shop": "clothes", "source": "survey"}}, {"type": "node", "id": 5781880582, "lat": 40.4070705, "lon": -3.6716665, "tags": {"name": "Verdelim", "shop": "clothes"}}, {"type": "node", "id": 6404210971, "lat": 40.4067508, "lon": -3.6725442, "tags": {"brand": "Amplifon", "brand:wikidata": "Q477222", "brand:wikipedia": "en:Amplifon", "name": "Amplifon", "shop": "hearing_aids"}}, {"type": "node", "id": 6404210974, "lat": 40.4068564, "lon": -3.6736846, "tags": {"name": "La Rana con Pelo", "shop": "shoes"}}, {"type": "node", "id": 6803126012, "lat": 40.4056857, "lon": -3.6748036, "tags": {"name": "La Ventana Natural", "shop": "herbalist"}}, {"type": "node", "id": 6970332049, "lat": 40.4052543, "lon": -3.675431, "tags": {"shop": "hairdresser"}}, {"type": "node", "id": 6970332050, "lat": 40.4051664, "lon": -3.6755115, "tags": {"shop": "fabric"}}, {"type": "node", "id": 6970332057, "lat": 40.4042293, "lon": -3.6753292, "tags": {"brand": "Marionnaud", "brand:wikidata": "Q1129073", "brand:wikipedia": "fr:Marionnaud", "name": "Marionnaud", "shop": "perfumery"}}, {"type": "node", "id": 6970332058, "lat": 40.4042974, "lon": -3.6750636, "tags": {"shop": "fabric"}}, {"type": "node", "id": 6970332059, "lat": 40.4043178, "lon": -3.6747913, "tags": {"shop": "hairdresser"}}, {"type": "node", "id": 6970332064, "lat": 40.4051011, "lon": -3.6736205, "tags": {"description": "Tienda de ropa femenina", "shop": "clothes"}}, {"type": "node", "id": 7174804786, "lat": 40.4043155, "lon": -3.6755103, "tags": {"description": "Tienda de art\u00edculos de peluquer\u00eda", "name": "El Olivar", "shop": "hairdresser_supply"}}, {"type": "node", "id": 7235044846, "lat": 40.4070335, "lon": -3.671317, "tags": {"name": "Mart\u00ednez Ca\u00f1as", "shop": "hairdresser"}}, {"type": "node", "id": 7235044849, "lat": 40.4071787, "lon": -3.6704294, "tags": {"name": "Naturhouse", "shop": "herbalist"}}, {"type": "node", "id": 7235044857, "lat": 40.4080033, "lon": -3.6703524, "tags": {"brand": "GAES", "brand:wikidata": "Q98492565", "name": "GAES", "shop": "hearing_aids"}}, {"type": "node", "id": 7235044865, "lat": 40.4088694, "lon": -3.6702881, "tags": {"name": "Audioptica", "shop": "hearing_aids"}}, {"type": "node", "id": 7235093905, "lat": 40.4092643, "lon": -3.6702484, "tags": {"female": "yes", "name": "Lola Aranda", "shop": "hairdresser"}}, {"type": "node", "id": 7951119697, "lat": 40.4044297, "lon": -3.6757108, "tags": {"name": "Sintzazu", "shop": "hairdresser", "unisex": "yes"}}, {"type": "node", "id": 8436133566, "lat": 40.4082771, "lon": -3.6690149, "tags": {"contact:facebook": "https://www.facebook.com/medsalon", "name": "Med Sal\u00f3n Peluqueria De Caballeros", "opening_hours": "Mo-Fr 09:30-14:00,16:00-21:00; Sa 09:30-15:00; Su off", "phone": "+34910336424", "shop": "hairdresser"}}, {"type": "node", "id": 8436149086, "lat": 40.4070373, "lon": -3.6690295, "tags": {"contact:facebook": "flaygas", "contact:mobile": "+34 638 19 43 66", "contact:phone": "+34 911 99 56 65", "name": "Flavia Gast\u00f3n Peluqueros", "shop": "hairdresser", "unisex": "yes"}}, {"type": "node", "id": 8436149087, "lat": 40.4069452, "lon": -3.6696132, "tags": {"addr:city": "Madrid", "addr:housenumber": "5", "addr:postcode": "28007", "addr:street": "Plaza del Conde de Casal", "name": "Gran Bazar Redeye", "opening_hours": "PH,Mo-Su 09:00-22:00", "phone": "+34917524108", "shop": "variety_store"}}, {"type": "node", "id": 8436195743, "lat": 40.4086978, "lon": -3.6696773, "tags": {"shop": "hairdresser"}}, {"type": "node", "id": 8439630363, "lat": 40.4082024, "lon": -3.6690246, "tags": {"name": "Peluquer\u00eda Hern\u00e1ndez", "phone": "+34670471135", "shop": "hairdresser"}}, {"type": "node", "id": 8439631110, "lat": 40.4072203, "lon": -3.6687976, "tags": {"addr:city": "Madrid", "addr:housenumber": "31", "addr:postcode": "28007", "addr:street": "Calle Cruz del Sur", "name": "Jean Remi", "opening_hours": "Mo-Fr 09:00-21:00; Sa 09:00-20:00", "phone": "+34914334296", "shop": "hairdresser"}}, {"type": "node", "id": 8439631114, "lat": 40.4071242, "lon": -3.6690291, "tags": {"beauty": "nails", "level": "0", "name": "Bling Bling Nail", "opening_hours": "Mo-Sa 10:00-21:00; Su 11:00-21:00", "shop": "beauty"}}, {"type": "node", "id": 8439631115, "lat": 40.4072094, "lon": -3.6690243, "tags": {"contact:phone": "+34 914 21 27 37", "female": "no", "male": "yes", "name": "Flavia Gast\u00f3n Barberos", "shop": "hairdresser"}}, {"type": "node", "id": 8439724167, "lat": 40.4069216, "lon": -3.6691828, "tags": {"level": "0", "name": "The Factory Outlet", "shop": "clothes", "wheelchair": "yes"}}, {"type": "node", "id": 8439724171, "lat": 40.4078194, "lon": -3.6698766, "tags": {"beauty": "tanning;hair_removal;skin_care", "level": "0", "name": "Osorno", "shop": "beauty", "wheelchair": "no"}}, {"type": "node", "id": 8439724173, "lat": 40.4082891, "lon": -3.6698379, "tags": {"beauty": "hair_removal;tanning;skin_care", "level": "0", "name": "Armirax Depil Center", "shop": "beauty", "wheelchair": "no"}}, {"type": "node", "id": 9453881599, "lat": 40.4080108, "lon": -3.6698326, "tags": {"beauty": "hair_removal", "name": "Grupo Stop", "opening_hours": "Mo-Fr 10:00-21:00; Sa 09:00-14:00; PH closed", "shop": "beauty", "wheelchair": "no"}}, {"type": "node", "id": 9453881601, "lat": 40.4075148, "lon": -3.66988, "tags": {"brand": "Peluquer\u00eda Unisex", "level": "1", "name": "M\u00aa Carmen Pliego", "shop": "hairdresser", "unisex": "yes"}}, {"type": "node", "id": 9459250133, "lat": 40.4061563, "lon": -3.6727397, "tags": {"name": "A Lin", "shop": "beauty"}}, {"type": "node", "id": 9459250139, "lat": 40.4066158, "lon": -3.6723613, "tags": {"name": "Iniesta", "shop": "hairdresser"}}, {"type": "node", "id": 9525390276, "lat": 40.4064215, "lon": -3.6757521, "tags": {"beauty": "tanning;cosmetics", "contact:facebook": "jacideleon_beauty", "contact:instagram": "jacideleon_beauty", "mobile": "+34 623 03 21 13", "name": "Jac\u00ed de Le\u00f3n", "shop": "beauty"}}, {"type": "node", "id": 9525402850, "lat": 40.4063592, "lon": -3.6761934, "tags": {"beauty": "nails;hair_removal", "name": "YH", "opening_hours": "Mo-Sa 10:00-21:00; PH closed", "shop": "beauty"}}, {"type": "node", "id": 9739427399, "lat": 40.4054883, "lon": -3.6704799, "tags": {"brand": "Marco Aldany", "brand:wikidata": "Q112095114", "name": "Marco Aldany", "shop": "hairdresser"}}]}