{"version": 0.6, "generator": "Overpass API 0.7.58.5 b0c4acbb", "osm3s": {"timestamp_osm_base": "2022-08-21T21:47:23Z", "copyright": "The data included in this document is from www.openstreetmap.org. The data is made available under ODbL."}, "elements": [{"type": "node", "id": 977419733, "lat": 40.40624, "lon": -3.6707329, "tags": {"amenity": "cafe", "name": "Gal\u00e1pago"}}, {"type": "node", "id": 1673070182, "lat": 40.4117164, "lon": -3.6746523, "tags": {"amenity": "pub", "internet_access": "wlan", "internet_access:fee": "no", "name": "La Pool"}}, {"type": "node", "id": 1984222532, "lat": 40.4070346, "lon": -3.6756195, "tags": {"amenity": "restaurant", "name": "Los Vi\u00f1edos"}}, {"type": "node", "id": 2423845776, "lat": 40.4090831, "lon": -3.676125, "tags": {"addr:city": "Madrid", "addr:postcode": "28007", "addr:street": "Plaza Reyes Magos", "brand": "Mercadona", "brand:wikidata": "Q377705", "brand:wikipedia": "es:Mercadona", "name": "Mercadona", "nohousenumber": "yes", "operator": "Mercadona", "shop": "supermarket", "website": "https://www.mercadona.es"}}, {"type": "node", "id": 2485212879, "lat": 40.4046411, "lon": -3.6713333, "tags": {"amenity": "cafe", "name": "Cafeter\u00eda Niasca"}}, {"type": "node", "id": 2485310684, "lat": 40.4047634, "lon": -3.6697776}, {"type": "node", "id": 2485310686, "lat": 40.4050226, "lon": -3.6702636}, {"type": "node", "id": 2494786416, "lat": 40.4041465, "lon": -3.6763836, "tags": {"addr:city": "Madrid", "addr:housenumber": "11", "addr:postcode": "28007", "addr:street": "Calle de Abtao", "brand": "Dia Market", "brand:wikidata": "Q925132", "brand:wikipedia": "es:Supermercados DIA", "name": "Dia Market", "operator": "Dia", "shop": "supermarket", "website": "https://www.dia.es"}}, {"type": "node", "id": 2494802900, "lat": 40.4047294, "lon": -3.6728795, "tags": {"addr:city": "Madrid", "addr:housenumber": "47", "addr:postcode": "28007", "addr:street": "Calle de Cavanilles", "brand": "Dia Market", "brand:wikidata": "Q925132", "brand:wikipedia": "es:Supermercados DIA", "name": "Dia Market", "operator": "Dia", "shop": "supermarket", "website": "http://www.dia.es"}}, {"type": "node", "id": 2503337829, "lat": 40.4072408, "lon": -3.6733251, "tags": {"brand": "Lidl", "brand:wikidata": "Q151954", "brand:wikipedia": "en:Lidl", "name": "Lidl", "opening_hours": "Mo-Su 09:00-21:00", "opening_hours:covid19": "Mo-Sa 09:00-19:00", "operator": "LIDL", "payment:cash": "yes", "payment:mastercard": "yes", "payment:visa": "yes", "shop": "supermarket"}}, {"type": "node", "id": 2529967011, "lat": 40.4041492, "lon": -3.6761029, "tags": {"name": "Frutas & Verduras Hermanos Moreno Romero", "shop": "greengrocer"}}, {"type": "node", "id": 2529967013, "lat": 40.4042293, "lon": -3.6760406, "tags": {"addr:city": "Madrid", "addr:country": "ES", "addr:housenumber": "16", "addr:postcode": "28007", "addr:street": "Calle de Abtao", "name": "Horno San Miguel", "shop": "bakery", "wheelchair": "limited"}}, {"type": "node", "id": 2529967018, "lat": 40.4043102, "lon": -3.6759327, "tags": {"amenity": "restaurant", "cuisine": "regional", "name": "Restaurante San Rom\u00e1n"}}, {"type": "node", "id": 2529991293, "lat": 40.4064301, "lon": -3.6763719, "tags": {"amenity": "fast_food", "cuisine": "kebab", "name": "Doner Kebab Madrid"}}, {"type": "node", "id": 2529991306, "lat": 40.4069427, "lon": -3.6746523, "tags": {"amenity": "fast_food", "brand": "Burger King", "brand:wikidata": "Q177054", "brand:wikipedia": "es:Burger King", "cuisine": "burger", "name": "Burger King", "operator": "Burger King", "takeaway": "yes"}}, {"type": "node", "id": 2533476399, "lat": 40.4071541, "lon": -3.66993, "tags": {"amenity": "fast_food", "brand": "Rodilla", "brand:wikidata": "Q7356777", "brand:wikipedia": "es:Rodilla (franquicia)", "cuisine": "sandwich", "name": "Rodilla", "takeaway": "yes"}}, {"type": "node", "id": 2533476414, "lat": 40.4096842, "lon": -3.670218, "tags": {"amenity": "cafe", "name": "Cafeter\u00eda Bilbao"}}, {"type": "node", "id": 2573861973, "lat": 40.4096389, "lon": -3.6696277, "tags": {"brand": "La Plaza de DIA", "brand:wikidata": "Q58904673", "name": "La Plaza de DIA", "shop": "supermarket"}}, {"type": "node", "id": 2727977855, "lat": 40.4100442, "lon": -3.667474, "tags": {"amenity": "cafe", "name": "Destinos", "old_name": "Viena cappeans", "shop": "bakery"}}, {"type": "node", "id": 2727977856, "lat": 40.411034, "lon": -3.6680473, "tags": {"brand": "Dia", "brand:wikidata": "Q925132", "brand:wikipedia": "es:DIA (supermercados)", "name": "Dia", "shop": "supermarket"}}, {"type": "node", "id": 2727978648, "lat": 40.4101735, "lon": -3.6674934, "tags": {"shop": "kiosk"}}, {"type": "node", "id": 2727978651, "lat": 40.4128752, "lon": -3.6679828, "tags": {"shop": "kiosk"}}, {"type": "node", "id": 2727978653, "lat": 40.4115703, "lon": -3.6660435, "tags": {"shop": "kiosk"}}, {"type": "node", "id": 2830430856, "lat": 40.404179, "lon": -3.6752122, "tags": {"addr:city": "Madrid", "addr:country": "ES", "addr:housenumber": "32", "addr:postcode": "28007", "addr:street": "Calle de Valderribas", "email": "valderribas@carnesmoran.com", "name": "Carnicer\u00eda Mor\u00e1n", "phone": "+34 91 551 90 42", "shop": "butcher", "website": "https://www.carnesmoran.com/"}}, {"type": "node", "id": 2830430857, "lat": 40.4060638, "lon": -3.676371, "tags": {"amenity": "pub", "name": "Mama Toci"}}, {"type": "node", "id": 2830430858, "lat": 40.404917, "lon": -3.6740368, "tags": {"amenity": "pub", "name": "Cervecer\u00eda Abril"}}, {"type": "node", "id": 2830430861, "lat": 40.4057941, "lon": -3.6750189, "tags": {"amenity": "pub", "name": "El bodeg\u00f3n del molinero"}}, {"type": "node", "id": 2830482291, "lat": 40.4074601, "lon": -3.6760105, "tags": {"name": "Levaduramadre", "opening_hours": "08:30-21:30", "phone": "+34914686197", "shop": "bakery", "website": "https://levaduramadre.es/"}}, {"type": "node", "id": 2830482299, "lat": 40.4073205, "lon": -3.6744797, "tags": {"addr:city": "Madrid", "addr:country": "ES", "addr:housenumber": "21", "addr:postcode": "28007", "addr:street": "Avenida del Mediterr\u00e1neo", "amenity": "fast_food", "cuisine": "pizza", "name": "Twin Pizza"}}, {"type": "node", "id": 2830482300, "lat": 40.4074082, "lon": -3.6736504, "tags": {"amenity": "restaurant", "brand": "Vips", "brand:wikidata": "Q66087862", "cuisine": "international", "name": "Vips", "wikipedia": "es:Grupo Vips"}}, {"type": "node", "id": 2830518336, "lat": 40.4070152, "lon": -3.671088, "tags": {"addr:city": "Madrid", "addr:country": "ES", "addr:housenumber": "39", "addr:postcode": "28007", "addr:street": "Avenida del Mediterr\u00e1neo", "name": "Viena Azul", "shop": "bakery"}}, {"type": "node", "id": 2830518360, "lat": 40.4070652, "lon": -3.6708895, "tags": {"amenity": "restaurant", "brand": "100 Montaditos", "brand:wikidata": "Q8355805", "brand:wikipedia": "en:Cervecer\u00eda 100 Montaditos", "cuisine": "sandwich", "name": "100 Montaditos"}}, {"type": "node", "id": 2836475122, "lat": 40.4067671, "lon": -3.6727199, "tags": {"amenity": "cafe", "name": "Caf\u00e9 Troy", "outdoor_seating": "yes"}}, {"type": "node", "id": 2836715671, "lat": 40.4043848, "lon": -3.6701189}, {"type": "node", "id": 2836715673, "lat": 40.4045126, "lon": -3.6703624}, {"type": "node", "id": 2942778747, "lat": 40.4096188, "lon": -3.6757617, "tags": {"addr:city": "Madrid", "addr:housenumber": "8", "addr:postcode": "28007", "addr:street": "Calle de Amado Nervo", "brand": "Supercor", "brand:wikidata": "Q6135841", "brand:wikipedia": "es:Supercor", "name": "Supercor", "operator": "Supercor", "shop": "supermarket"}}, {"type": "node", "id": 3072066174, "lat": 40.4069251, "lon": -3.6690498, "tags": {"addr:city": "Madrid", "addr:housenumber": "53", "addr:postcode": "28007", "addr:street": "Avenida del Mediterr\u00e1neo", "amenity": "cafe", "name": "Cafeteria Gran Cafe Bar Y Tapas"}}, {"type": "node", "id": 3237226921, "lat": 40.4042264, "lon": -3.6754823, "tags": {"brand": "Ahorram\u00e1s", "brand:wikidata": "Q58221883", "name": "Ahorram\u00e1s", "opening_hours": "Mo-Sa 09:00-21:30; PH 09:00-14:30", "shop": "supermarket", "wheelchair": "yes"}}, {"type": "node", "id": 3242576244, "lat": 40.4069644, "lon": -3.6687864, "tags": {"addr:city": "Madrid", "addr:housenumber": "47", "addr:postcode": "28007", "addr:street": "Avenida del Mediterr\u00e1neo", "brand": "Ahorram\u00e1s", "brand:wikidata": "Q58221883", "level": "0", "name": "Ahorram\u00e1s", "opening_hours": "Mo-Sa 09:00-21:00", "operator": "Ahorram\u00e1s", "shop": "supermarket"}}, {"type": "node", "id": 3274732551, "lat": 40.407297, "lon": -3.6699894, "tags": {"shop": "kiosk"}}, {"type": "node", "id": 3452992444, "lat": 40.4118703, "lon": -3.668022}, {"type": "node", "id": 3452992445, "lat": 40.4119601, "lon": -3.6680154}, {"type": "node", "id": 3452992446, "lat": 40.4119491, "lon": -3.6677579}, {"type": "node", "id": 3452992447, "lat": 40.4118603, "lon": -3.6677644}, {"type": "node", "id": 3452992448, "lat": 40.4118609, "lon": -3.6677788}, {"type": "node", "id": 3452992449, "lat": 40.4117755, "lon": -3.6677851}, {"type": "node", "id": 3452992450, "lat": 40.4117854, "lon": -3.6680157}, {"type": "node", "id": 3452992451, "lat": 40.4118698, "lon": -3.6680095}, {"type": "node", "id": 3463156388, "lat": 40.4107797, "lon": -3.6672467, "tags": {"addr:city": "Madrid", "addr:housenumber": "5", "addr:postcode": "28007", "addr:street": "Calle de la Estrella Polar", "name": "Terravile\u00f1a", "shop": "greengrocer"}}, {"type": "node", "id": 3475007564, "lat": 40.4077061, "lon": -3.6713984, "tags": {"addr:city": "Madrid", "addr:country": "ES", "addr:housenumber": "4", "addr:postcode": "28007", "addr:street": "Calle de Walia", "amenity": "restaurant", "name": "Restaurante Cafeter\u00eda Casa Hern\u00e1ndez"}}, {"type": "node", "id": 3643292212, "lat": 40.4044813, "lon": -3.6703917}, {"type": "node", "id": 3643292213, "lat": 40.4046133, "lon": -3.670639}, {"type": "node", "id": 3679532485, "lat": 40.4072904, "lon": -3.6740333, "tags": {"addr:city": "Madrid", "addr:country": "ES", "addr:housenumber": "25", "addr:postcode": "28007", "addr:street": "Avenida del Mediterr\u00e1neo", "amenity": "restaurant", "cuisine": "seafood", "name": "Restaurant Poseidon"}}, {"type": "node", "id": 3842074707, "lat": 40.4124005, "lon": -3.6680404, "tags": {"addr:city": "Madrid", "addr:housenumber": "1", "addr:postcode": "28007", "addr:street": "Calle Cruz del Sur", "amenity": "restaurant", "name": "Mallorca en Madrid"}}, {"type": "node", "id": 3842074709, "lat": 40.4113053, "lon": -3.6708798, "tags": {"addr:city": "Madrid", "addr:housenumber": "10", "addr:postcode": "28007", "addr:street": "Avenida de Nazaret", "amenity": "pub", "name": "Casa Santo\u00f1a"}}, {"type": "node", "id": 4226967878, "lat": 40.405167, "lon": -3.6745094, "tags": {"amenity": "restaurant", "name": "El callej\u00f3n del gato"}}, {"type": "node", "id": 4309733131, "lat": 40.4052818, "lon": -3.6740263, "tags": {"name": "Los Canasteros", "phone": "+34 915 01 30 31", "shop": "bakery"}}, {"type": "node", "id": 4309768895, "lat": 40.406441, "lon": -3.6727811, "tags": {"addr:city": "Madrid", "addr:housenumber": "43", "addr:postcode": "28007", "addr:street": "Calle de S\u00e1nchez Barc\u00e1iztegui", "name": "La Despensa", "old_name": "Supersol", "opening_hours": "Mo-Sa 09:00-21:00; Su 09:00-15:00; PH closed", "shop": "supermarket"}}, {"type": "node", "id": 4309768898, "lat": 40.4055432, "lon": -3.6735099, "tags": {"name": "Frutas y verduras Aneli", "shop": "greengrocer"}}, {"type": "node", "id": 4318908536, "lat": 40.4053467, "lon": -3.6733907, "tags": {"amenity": "cafe", "name": "Cafeter\u00eda Bar Serrano"}}, {"type": "node", "id": 4410312392, "lat": 40.4058234, "lon": -3.6732714, "tags": {"amenity": "bar", "internet_access": "wlan", "name": "La Central"}}, {"type": "node", "id": 4410312393, "lat": 40.4054247, "lon": -3.6733359, "tags": {"amenity": "bar", "internet_access": "wlan", "name": "Bar Serrano"}}, {"type": "node", "id": 4410384489, "lat": 40.4060177, "lon": -3.6728228, "tags": {"amenity": "bar", "internet_access": "wlan", "name": "Bodega Estebaranz"}}, {"type": "node", "id": 4410384589, "lat": 40.4057868, "lon": -3.6730203, "tags": {"amenity": "bar", "name": "La Giralda"}}, {"type": "node", "id": 4460190609, "lat": 40.4058121, "lon": -3.6710106, "tags": {"amenity": "restaurant", "cuisine": "asian", "name": "Zen Central", "name:en": "Zen Central", "opening_hours": "Mo-Su 12:00-16:00, 20:00-24:00", "phone": "+34 91 593 66 30", "website": "http://zenvintage.es/zencentral/"}}, {"type": "node", "id": 4933840128, "lat": 40.4082606, "lon": -3.6745506, "tags": {"amenity": "restaurant", "name": "Landania", "name:es": "Landania"}}, {"type": "node", "id": 4953459817, "lat": 40.4062428, "lon": -3.6759212, "tags": {"amenity": "cafe", "name": "Las Do\u00f1as"}}, {"type": "node", "id": 4994130034, "lat": 40.4083178, "lon": -3.6691122, "tags": {"addr:city": "Madrid", "addr:housenumber": "8", "addr:postcode": "28007", "addr:street": "Calle de Lira", "amenity": "restaurant", "cuisine": "burger", "diet:vegan": "yes", "diet:vegetarian": "yes", "facebook": "https://www.cookaluzka.com/", "instagram": "Cookaluzka", "name": "Cookaluzka", "opening_hours": "Mo-Th 08:00-16:35, 19:35-23:00; Fr 08:00-23:30; Sa 08:00-17:30, 20:00-23:30", "phone": "+34638888954"}}, {"type": "node", "id": 5781837005, "lat": 40.4069974, "lon": -3.6708246, "tags": {"shop": "kiosk", "source": "survey"}}, {"type": "node", "id": 5781880573, "lat": 40.4066897, "lon": -3.6720456, "tags": {"name": "El Torno al Vino", "shop": "alcohol"}}, {"type": "node", "id": 5781880576, "lat": 40.407049, "lon": -3.6714583, "tags": {"name": "Aqui La Fruta", "shop": "greengrocer"}}, {"type": "node", "id": 5781880579, "lat": 40.4070652, "lon": -3.6716083, "tags": {"bakery": "churreria", "name": "La Conchita", "shop": "bakery", "source": "survey"}}, {"type": "node", "id": 5781880580, "lat": 40.4070575, "lon": -3.6715466, "tags": {"amenity": "cafe", "name": "Yedra"}}, {"type": "node", "id": 5878566070, "lat": 40.4058842, "lon": -3.6751736, "tags": {"addr:city": "Madrid", "addr:country": "ES", "addr:housenumber": "27", "addr:postcode": "28007", "addr:street": "Calle de Cavanilles", "brand": "Carrefour Express", "brand:wikidata": "Q2940190", "brand:wikipedia": "fr:Carrefour Express", "name": "Carrefour Express", "opening_hours": "Mo-Sa 09:00-23:00; Su 10:00-22:00", "shop": "convenience", "website": "https://www.carrefour.es/_includes/redirect.aspx?tcmUri=tcm:5-38794"}}, {"type": "node", "id": 6404210972, "lat": 40.4068078, "lon": -3.6731597, "tags": {"amenity": "fast_food", "name": "Mahalo Pok\u00e9", "old_name": "Pan de P\u00e1jaro", "website": "https://mahalopoke.es/"}}, {"type": "node", "id": 6611559985, "lat": 40.4127429, "lon": -3.6699941, "tags": {"amenity": "cafe", "name": "Hustar"}}, {"type": "node", "id": 6611559986, "lat": 40.411271, "lon": -3.6750505, "tags": {"amenity": "restaurant", "name": "La tabla del 3"}}, {"type": "node", "id": 6611563085, "lat": 40.4115717, "lon": -3.6757665, "tags": {"amenity": "restaurant", "name": "A picnic"}}, {"type": "node", "id": 6803126013, "lat": 40.4055955, "lon": -3.6746444, "tags": {"name": "La Tienda Ecol\u00f3gica", "shop": "convenience"}}, {"type": "node", "id": 6803126014, "lat": 40.4055536, "lon": -3.6745556, "tags": {"name": "Fruteri\u00eda Carolizzi", "shop": "greengrocer"}}, {"type": "node", "id": 6970332052, "lat": 40.4054258, "lon": -3.675028, "tags": {"amenity": "restaurant", "name": "Donde siempre"}}, {"type": "node", "id": 6970332053, "lat": 40.4055351, "lon": -3.6752446, "tags": {"addr:city": "Madrid", "addr:country": "ES", "addr:housenumber": "38", "addr:postcode": "28007", "addr:street": "Calle de Cavanilles", "amenity": "pub", "name": "La Oveja Amarilla"}}, {"type": "node", "id": 6970332060, "lat": 40.404502, "lon": -3.6754797, "tags": {"amenity": "cafe", "name": "Acebo", "outdoor_seating": "no"}}, {"type": "node", "id": 6970332061, "lat": 40.404916, "lon": -3.6754743, "tags": {"shop": "butcher"}}, {"type": "node", "id": 6970332065, "lat": 40.4051818, "lon": -3.6735588, "tags": {"amenity": "pub", "name": "Donde Pablo"}}, {"type": "node", "id": 7052365975, "lat": 40.4086429, "lon": -3.6690299, "tags": {"amenity": "cafe", "name": "Ghost Lira"}}, {"type": "node", "id": 7052365977, "lat": 40.4083649, "lon": -3.6705302, "tags": {"amenity": "restaurant", "name": "La Parisiena"}}, {"type": "node", "id": 7093675585, "lat": 40.4097349, "lon": -3.6705178, "tags": {"addr:city": "Madrid", "addr:country": "ES", "addr:housenumber": "30", "addr:postcode": "28007", "addr:street": "Calle de Arias Montano", "amenity": "restaurant", "cuisine": "italian_pizza;italian", "name": "Acqua In Bocca Trattoria", "opening_hours": "Mo-Su 13:00-16:30,20:00-23:00"}}, {"type": "node", "id": 7116387627, "lat": 40.4044567, "lon": -3.6702558}, {"type": "node", "id": 7116387628, "lat": 40.4045457, "lon": -3.6705123}, {"type": "node", "id": 7235044850, "lat": 40.4072203, "lon": -3.6704236, "tags": {"name": "Bazar", "shop": "convenience"}}, {"type": "node", "id": 7235044856, "lat": 40.4079289, "lon": -3.6703581, "tags": {"name": "Global Deals", "shop": "convenience"}}, {"type": "node", "id": 7235044862, "lat": 40.4083642, "lon": -3.6703305, "tags": {"name": "Panaria", "shop": "bakery"}}, {"type": "node", "id": 7235093906, "lat": 40.409318, "lon": -3.6702447, "tags": {"amenity": "restaurant", "name": "Ruta 108"}}, {"type": "node", "id": 7235093907, "lat": 40.409361, "lon": -3.670246, "tags": {"name": "Alimentaci\u00f3n Bazar", "shop": "convenience"}}, {"type": "node", "id": 7255150874, "lat": 40.4115698, "lon": -3.6700801, "tags": {"addr:city": "Madrid", "addr:housenumber": "13", "addr:postcode": "28009", "addr:street": "Avenida de Nazaret", "amenity": "restaurant", "name": "La Tagliatella", "opening_hours": "Mo-Su 13:00-16:30; Th-Su 20:00-23:00; Fr-Sa 20:00-24:00", "phone": "+34 915 39 15 09", "website": "https://www.latagliatella.es"}}, {"type": "node", "id": 7997094410, "lat": 40.4116284, "lon": -3.6758444, "tags": {"name": "Quiosco Plaza Ni\u00f1o Jes\u00fas", "shop": "kiosk"}}, {"type": "node", "id": 8113036243, "lat": 40.4046932, "lon": -3.6720396, "tags": {"addr:city": "Madrid", "addr:country": "ES", "addr:housenumber": "142", "addr:postcode": "28007", "addr:street": "Calle del Doctor Esquerdo", "brand": "La Sirena", "brand:wikidata": "Q21034458", "brand:wikipedia": "ca:La Sirena", "name": "La Sirena", "shop": "supermarket"}}, {"type": "node", "id": 8369644637, "lat": 40.4044445, "lon": -3.6702325}, {"type": "node", "id": 8369644645, "lat": 40.4046728, "lon": -3.6705844}, {"type": "node", "id": 8369644646, "lat": 40.4047018, "lon": -3.6705579, "tags": {"amenity": "parking_entrance"}}, {"type": "node", "id": 8369644647, "lat": 40.4047372, "lon": -3.6705254, "tags": {"amenity": "parking_entrance"}}, {"type": "node", "id": 8436133567, "lat": 40.4082424, "lon": -3.669026, "tags": {"name": "Alimentaci\u00f3n", "shop": "convenience"}}, {"type": "node", "id": 8436149089, "lat": 40.4069339, "lon": -3.6693838, "tags": {"name": "El Obrador de Goya", "phone": "+34914109813", "shop": "bakery"}}, {"type": "node", "id": 8439631112, "lat": 40.4071577, "lon": -3.6688015, "tags": {"addr:city": "Madrid", "addr:housenumber": "31", "addr:postcode": "28007", "addr:street": "Calle Cruz del Sur", "name": "El Valle", "phone": "+34602101036", "shop": "greengrocer"}}, {"type": "node", "id": 8439724170, "lat": 40.4072281, "lon": -3.6699206, "tags": {"name": "Alimentaci\u00f3n", "opening_hours": "PH,Mo-Su 09:00-22:00", "shop": "convenience"}}, {"type": "node", "id": 9459250135, "lat": 40.4063283, "lon": -3.6725943, "tags": {"amenity": "pub", "name": "Inka"}}, {"type": "node", "id": 9459250136, "lat": 40.4063686, "lon": -3.6725674, "tags": {"amenity": "pub", "name": "Dondemario"}}, {"type": "node", "id": 9459250620, "lat": 40.4065135, "lon": -3.6727149, "tags": {"amenity": "restaurant", "name": "Croqueta y presumida", "takeaway": "only"}}, {"type": "node", "id": 9460616634, "lat": 40.4063392, "lon": -3.668952, "tags": {"level": "0", "name": "Alimentaci\u00f3n", "shop": "convenience"}}, {"type": "node", "id": 9460616635, "lat": 40.4063463, "lon": -3.6690056, "tags": {"level": "0", "name": "Sole", "shop": "coffee"}}, {"type": "node", "id": 9466937954, "lat": 40.4063893, "lon": -3.6709092, "tags": {"amenity": "restaurant", "name": "El Casal de Pepa"}}, {"type": "node", "id": 9469555160, "lat": 40.4101485, "lon": -3.6673298, "tags": {"name": "Golosa", "shop": "bakery"}}, {"type": "node", "id": 9525383702, "lat": 40.4063523, "lon": -3.676146, "tags": {"amenity": "pub", "name": "Taranttela"}}, {"type": "node", "id": 9525402849, "lat": 40.4063798, "lon": -3.6762573, "tags": {"amenity": "fast_food", "cuisine": "kebab;pizza", "name": "Kebab Madrid", "outdoor_seating": "yes"}}, {"type": "node", "id": 9592714275, "lat": 40.4053139, "lon": -3.6747807, "tags": {"addr:city": "Madrid", "addr:country": "ES", "addr:housenumber": "42", "addr:postcode": "28007", "addr:street": "Calle de Cavanilles", "name": "La semilla", "organic": "only", "payment:cash": "yes", "payment:credit_cards": "yes", "shop": "supermarket"}}, {"type": "node", "id": 9707823922, "lat": 40.4115273, "lon": -3.6747891, "tags": {"amenity": "pub", "contact:instagram": "https://www.instagram.com/elterciobarcafeteria", "name": "El Tercio", "outdoor_seating": "yes"}}, {"type": "node", "id": 9738217119, "lat": 40.407035, "lon": -3.6704473, "tags": {"alt_name": "Empanadas Argentinas Malv\u00f3n", "amenity": "fast_food", "branch": "Empanadas Argentinas", "brand": "Malv\u00f3n", "brand:wikidata": "Q109877196", "cuisine": "empanada", "name": "Malv\u00f3n", "takeaway": "yes"}}, {"type": "node", "id": 9739470139, "lat": 40.4054479, "lon": -3.6705117, "tags": {"name": "Alimentaci\u00f3n", "shop": "convenience"}}, {"type": "node", "id": 9829267277, "lat": 40.4092733, "lon": -3.6702469, "tags": {"brand": "Carrefour Express", "brand:wikidata": "Q2940190", "name": "Carrefour Express", "shop": "convenience"}}, {"type": "node", "id": 9966125221, "lat": 40.4118102, "lon": -3.6679861, "tags": {"addr:city": "Madrid", "addr:housenumber": "3", "addr:postcode": "28007", "addr:street": "Calle Cruz del Sur", "amenity": "restaurant", "name": "Jumar"}}, {"type": "way", "id": 338226924, "nodes": [3452992444, 3452992445, 3452992446, 3452992447, 3452992448, 3452992449, 3452992450, 3452992451, 3452992444], "tags": {"amenity": "restaurant", "building": "yes"}}, {"type": "way", "id": 359651868, "nodes": [2836715671, 8369644637, 7116387627, 2836715673, 3643292212, 7116387628, 3643292213, 8369644645, 8369644646, 8369644647, 2485310686, 2485310684, 2836715671], "tags": {"addr:city": "Madrid", "addr:housenumber": "38", "addr:postcode": "28007", "addr:street": "Calle de las Adelfas", "brand": "Mercadona", "brand:wikidata": "Q377705", "brand:wikipedia": "en:Mercadona", "building": "yes", "building:levels": "0", "building:levels:underground": "1", "name": "Mercadona", "opening_hours": "Mo-Sa 09:00-21:30", "shop": "supermarket", "website": "https://www.mercadona.es"}}]}