{"version": 0.6, "generator": "Overpass API 0.7.58.5 b0c4acbb", "osm3s": {"timestamp_osm_base": "2022-08-22T13:56:07Z", "copyright": "The data included in this document is from www.openstreetmap.org. The data is made available under ODbL."}, "elements": [{"type": "node", "id": 2264591788, "lat": 41.396582, "lon": 2.175122}, {"type": "node", "id": 2264591791, "lat": 41.3966262, "lon": 2.1751544}, {"type": "node", "id": 2264591793, "lat": 41.3966585, "lon": 2.1751656}, {"type": "node", "id": 2264591794, "lat": 41.3966891, "lon": 2.1751648}, {"type": "node", "id": 2264591797, "lat": 41.3967155, "lon": 2.1751592}, {"type": "node", "id": 2264591798, "lat": 41.3967442, "lon": 2.1751472}, {"type": "node", "id": 2526209763, "lat": 41.4017742, "lon": 2.1767951}, {"type": "node", "id": 2682532973, "lat": 41.4006774, "lon": 2.1669342, "tags": {"access": "yes", "amenity": "parking", "park_ride": "no", "parking": "underground", "supervised": "yes"}}, {"type": "node", "id": 2969277279, "lat": 41.4009758, "lon": 2.1680259, "tags": {"amenity": "parking", "name": "Parking Chile"}}, {"type": "node", "id": 3609767508, "lat": 41.3966335, "lon": 2.1749756}, {"type": "node", "id": 3609767509, "lat": 41.396553, "lon": 2.1750835}, {"type": "node", "id": 3609767510, "lat": 41.396753, "lon": 2.1751382}, {"type": "node", "id": 3630832022, "lat": 41.4014287, "lon": 2.173574, "tags": {"address": "C Sic\u00edlia 215", "amenity": "bicycle_parking", "bicycle_parking": "anchors", "capacity": "10", "covered": "no", "operator": "http://ajuntament.barcelona.cat/bicicleta/ca", "website": "http://ajuntament.barcelona.cat/bicicleta/ca"}}, {"type": "node", "id": 3974458458, "lat": 41.4007944, "lon": 2.1649002, "tags": {"address": "C C\u00f2rsega 423", "amenity": "bicycle_parking", "bicycle_parking": "stands", "capacity": "12", "covered": "no", "operator": "http://ajuntament.barcelona.cat/bicicleta/ca", "website": "http://ajuntament.barcelona.cat/bicicleta/ca"}}, {"type": "node", "id": 3974561057, "lat": 41.4020108, "lon": 2.1662666, "tags": {"address": "Pg Sant Joan 152", "amenity": "bicycle_parking", "bicycle_parking": "stands", "capacity": "12", "covered": "no", "operator": "http://ajuntament.barcelona.cat/bicicleta/ca", "website": "http://ajuntament.barcelona.cat/bicicleta/ca"}}, {"type": "node", "id": 3974819413, "lat": 41.3999831, "lon": 2.1686605, "tags": {"address": "Pg Sant Joan 111", "amenity": "bicycle_parking", "bicycle_parking": "stands", "capacity": "14", "covered": "no", "operator": "http://ajuntament.barcelona.cat/bicicleta/ca", "website": "http://ajuntament.barcelona.cat/bicicleta/ca"}}, {"type": "node", "id": 3974819414, "lat": 41.4007805, "lon": 2.1695999, "tags": {"amenity": "bicycle_parking", "bicycle_parking": "stands", "capacity": "14", "check_date:capacity": "2021-02-19"}}, {"type": "node", "id": 3974819415, "lat": 41.4010377, "lon": 2.170054, "tags": {"address": "C Proven\u00e7a 388", "amenity": "bicycle_parking", "bicycle_parking": "stands", "capacity": "10", "covered": "no", "operator": "http://ajuntament.barcelona.cat/bicicleta/ca", "website": "http://ajuntament.barcelona.cat/bicicleta/ca"}}, {"type": "node", "id": 3974819419, "lat": 41.4020437, "lon": 2.1712661, "tags": {"address": "C Proven\u00e7a 408", "amenity": "bicycle_parking", "bicycle_parking": "stands", "capacity": "6", "operator": "http://ajuntament.barcelona.cat/bicicleta/ca", "website": "http://ajuntament.barcelona.cat/bicicleta/ca"}}, {"type": "node", "id": 3974837714, "lat": 41.4011488, "lon": 2.1701199, "tags": {"address": "C Proven\u00e7a 388", "amenity": "bicycle_parking", "bicycle_parking": "stands", "capacity": "14", "covered": "no", "operator": "http://ajuntament.barcelona.cat/bicicleta/ca", "website": "http://ajuntament.barcelona.cat/bicicleta/ca"}}, {"type": "node", "id": 3976916366, "lat": 41.3994703, "lon": 2.1678727, "tags": {"address": "C Proven\u00e7a 356", "amenity": "bicycle_parking", "bicycle_parking": "stands", "capacity": "10", "covered": "no", "operator": "http://ajuntament.barcelona.cat/bicicleta/ca", "website": "http://ajuntament.barcelona.cat/bicicleta/ca"}}, {"type": "node", "id": 3978048057, "lat": 41.39778, "lon": 2.1720357, "tags": {"address": "Pg Sant Joan 84", "amenity": "bicycle_parking", "bicycle_parking": "stands", "capacity": "10", "covered": "no", "operator": "http://ajuntament.barcelona.cat/bicicleta/ca", "website": "http://ajuntament.barcelona.cat/bicicleta/ca"}}, {"type": "node", "id": 4341315883, "lat": 41.3943652, "lon": 2.1757612, "tags": {"amenity": "bicycle_parking", "bicycle_parking": "stands", "capacity": "10", "covered": "no"}}, {"type": "node", "id": 4395516635, "lat": 41.3932327, "lon": 2.1641031}, {"type": "node", "id": 4395516636, "lat": 41.3939269, "lon": 2.1650311}, {"type": "node", "id": 4395516637, "lat": 41.3939108, "lon": 2.1650499}, {"type": "node", "id": 4395516638, "lat": 41.3932146, "lon": 2.1641245}, {"type": "node", "id": 4401882389, "lat": 41.3959907, "lon": 2.1743826, "tags": {"address": "Pg Sant Joan 52", "amenity": "bicycle_parking", "capacity": "10", "operator": "http://ajuntament.barcelona.cat/bicicleta/ca", "website": "http://ajuntament.barcelona.cat/bicicleta/ca"}}, {"type": "node", "id": 4682071305, "lat": 41.3954181, "lon": 2.1688871, "tags": {"access": "yes", "amenity": "parking_entrance", "fee": "yes", "parking": "underground"}}, {"type": "node", "id": 4717526994, "lat": 41.396639, "lon": 2.1751588}, {"type": "node", "id": 4717526996, "lat": 41.396702, "lon": 2.1751621}, {"type": "node", "id": 5101826916, "lat": 41.3990358, "lon": 2.1725749, "tags": {"amenity": "parking", "operator": "Garatge Parking"}}, {"type": "node", "id": 5101846783, "lat": 41.3969807, "lon": 2.1752623, "tags": {"access": "yes", "amenity": "parking", "fee": "yes", "operator": "Continental Parking", "parking": "underground"}}, {"type": "node", "id": 5112684192, "lat": 41.4014243, "lon": 2.1757234, "tags": {"addr:city": "Barcelona", "addr:postcode": "08013", "addr:street": "Carrer de Sardenya", "amenity": "parking", "name": "Aparcament S\u00e1nchez Turet"}}, {"type": "node", "id": 5277809665, "lat": 41.4019703, "lon": 2.1754724, "tags": {"amenity": "motorcycle_parking", "covered": "no"}}, {"type": "node", "id": 5300812322, "lat": 41.3946449, "lon": 2.1747748, "tags": {"address": "Pl Tetuan 15", "amenity": "bicycle_parking", "bicycle_parking": "stands", "capacity": "20", "covered": "no", "operator": "http://ajuntament.barcelona.cat/bicicleta/ca", "website": "http://ajuntament.barcelona.cat/bicicleta/ca"}}, {"type": "node", "id": 6045122623, "lat": 41.402065, "lon": 2.1763459}, {"type": "node", "id": 6045122624, "lat": 41.4021111, "lon": 2.1763797}, {"type": "node", "id": 6045123746, "lat": 41.4017918, "lon": 2.1763603}, {"type": "node", "id": 6045123747, "lat": 41.4018914, "lon": 2.1762189}, {"type": "node", "id": 6045123796, "lat": 41.4022288, "lon": 2.1766679}, {"type": "node", "id": 6045123820, "lat": 41.4022104, "lon": 2.1766925}, {"type": "node", "id": 6045123836, "lat": 41.4021906, "lon": 2.1767187}, {"type": "node", "id": 6045123839, "lat": 41.4021843, "lon": 2.1767271}, {"type": "node", "id": 6045123845, "lat": 41.401554, "lon": 2.1766891}, {"type": "node", "id": 6045123848, "lat": 41.4021601, "lon": 2.1767862}, {"type": "node", "id": 6045123854, "lat": 41.4021607, "lon": 2.1767585}, {"type": "node", "id": 6045123856, "lat": 41.4021549, "lon": 2.1767663}, {"type": "node", "id": 6045123857, "lat": 41.4021494, "lon": 2.1767735}, {"type": "node", "id": 6045123861, "lat": 41.4022165, "lon": 2.1766842}, {"type": "node", "id": 6045123869, "lat": 41.4021911, "lon": 2.1764382}, {"type": "node", "id": 6045123901, "lat": 41.4017056, "lon": 2.1764824}, {"type": "node", "id": 6045123904, "lat": 41.4019436, "lon": 2.1762571}, {"type": "node", "id": 6045123917, "lat": 41.4022196, "lon": 2.1764591}, {"type": "node", "id": 6045123918, "lat": 41.4018971, "lon": 2.1762231}, {"type": "node", "id": 6045123919, "lat": 41.4017382, "lon": 2.1764362}, {"type": "node", "id": 6045123920, "lat": 41.4016933, "lon": 2.1764663}, {"type": "node", "id": 6045123921, "lat": 41.4016663, "lon": 2.1765239}, {"type": "node", "id": 6045123922, "lat": 41.4016453, "lon": 2.1765685}, {"type": "node", "id": 6045123923, "lat": 41.401624, "lon": 2.1765964}, {"type": "node", "id": 6045123924, "lat": 41.401609, "lon": 2.1766161}, {"type": "node", "id": 6045123925, "lat": 41.4016106, "lon": 2.1767649}, {"type": "node", "id": 6045123926, "lat": 41.4017037, "lon": 2.1766413}, {"type": "node", "id": 6045123927, "lat": 41.4017993, "lon": 2.1767607}, {"type": "node", "id": 6045123928, "lat": 41.4018709, "lon": 2.1769173}, {"type": "node", "id": 6045123929, "lat": 41.4018962, "lon": 2.1768815}, {"type": "node", "id": 6045123930, "lat": 41.4019253, "lon": 2.176918}, {"type": "node", "id": 6045123931, "lat": 41.4019007, "lon": 2.1769538}, {"type": "node", "id": 6045123932, "lat": 41.4019259, "lon": 2.1769853}, {"type": "node", "id": 6045123933, "lat": 41.4019511, "lon": 2.1769501}, {"type": "node", "id": 6045123934, "lat": 41.4019958, "lon": 2.1770056}, {"type": "node", "id": 6045124055, "lat": 41.4021934, "lon": 2.1766201}, {"type": "node", "id": 6045124089, "lat": 41.4022692, "lon": 2.1765198}, {"type": "node", "id": 6045124115, "lat": 41.4022812, "lon": 2.1765041}, {"type": "node", "id": 6045124118, "lat": 41.4022714, "lon": 2.1764969}, {"type": "node", "id": 6188925839, "lat": 41.4006159, "lon": 2.1736148, "tags": {"amenity": "parking", "name": "Parking NN Valencia"}}, {"type": "node", "id": 6933374486, "lat": 41.39635, "lon": 2.16891, "tags": {"address": "C Girona 103", "amenity": "bicycle_parking", "bicycle_parking": "stands", "capacity": "14", "covered": "no", "operator": "http://ajuntament.barcelona.cat/bicicleta/ca", "website": "http://ajuntament.barcelona.cat/bicicleta/ca"}}, {"type": "node", "id": 6933374498, "lat": 41.40025, "lon": 2.16895, "tags": {"address": "C Proven\u00e7a 370", "amenity": "bicycle_parking", "operator": "http://ajuntament.barcelona.cat/bicicleta/ca", "website": "http://ajuntament.barcelona.cat/bicicleta/ca"}}, {"type": "node", "id": 6933374597, "lat": 41.40086, "lon": 2.17449, "tags": {"address": "C Sic\u00edlia 276", "amenity": "bicycle_parking", "bicycle_parking": "stands", "image": "https://storage13.openstreetcam.org/files/photo/2020/8/19/lth/2932838_71a0b6fdf03480d74ef1be9b00e63864.jpg", "operator": "http://ajuntament.barcelona.cat/bicicleta/ca", "survey:date": "2020-08-19", "website": "http://ajuntament.barcelona.cat/bicicleta/ca"}}, {"type": "node", "id": 6933374604, "lat": 41.39716, "lon": 2.17593, "tags": {"address": "C Diputaci\u00f3 385", "amenity": "bicycle_parking", "operator": "http://ajuntament.barcelona.cat/bicicleta/ca", "website": "http://ajuntament.barcelona.cat/bicicleta/ca"}}, {"type": "node", "id": 6933374686, "lat": 41.39721, "lon": 2.16922, "tags": {"address": "C Val\u00e8ncia 333", "amenity": "bicycle_parking", "operator": "http://ajuntament.barcelona.cat/bicicleta/ca", "website": "http://ajuntament.barcelona.cat/bicicleta/ca"}}, {"type": "node", "id": 6933375085, "lat": 41.39729, "lon": 2.17466, "tags": {"address": "C Roger de Flor 162", "amenity": "bicycle_parking", "bicycle_parking": "stands", "capacity": "22", "covered": "no", "operator": "http://ajuntament.barcelona.cat/bicicleta/ca", "website": "http://ajuntament.barcelona.cat/bicicleta/ca"}}, {"type": "node", "id": 6933375112, "lat": 41.40171, "lon": 2.17337, "tags": {"address": "C Sic\u00edlia 300", "amenity": "bicycle_parking", "capacity": "8", "operator": "http://ajuntament.barcelona.cat/bicicleta/ca", "website": "http://ajuntament.barcelona.cat/bicicleta/ca"}}, {"type": "node", "id": 6933378985, "lat": 41.40062, "lon": 2.17533, "tags": {"address": "Av Diagonal 324", "amenity": "bicycle_parking", "operator": "http://ajuntament.barcelona.cat/bicicleta/ca", "website": "http://ajuntament.barcelona.cat/bicicleta/ca"}}, {"type": "node", "id": 6933378987, "lat": 41.39818, "lon": 2.17546, "tags": {"address": "C N\u00e0pols 183", "amenity": "bicycle_parking", "operator": "http://ajuntament.barcelona.cat/bicicleta/ca", "website": "http://ajuntament.barcelona.cat/bicicleta/ca"}}, {"type": "node", "id": 6933379309, "lat": 41.39468, "lon": 2.17061, "tags": {"addr:description": "C Consell de Cent 368", "amenity": "bicycle_parking", "bicycle_parking": "stands", "covered": "no", "operator": "http://ajuntament.barcelona.cat/bicicleta/ca", "website": "http://ajuntament.barcelona.cat/bicicleta/ca"}}, {"type": "node", "id": 6933379310, "lat": 41.39851, "lon": 2.16602, "tags": {"addr:description": "C Girona 141", "amenity": "bicycle_parking", "covered": "no", "operator": "http://ajuntament.barcelona.cat/bicicleta/ca", "website": "http://ajuntament.barcelona.cat/bicicleta/ca"}}, {"type": "node", "id": 6933487098, "lat": 41.39699, "lon": 2.17368, "tags": {"address": "C Consell de Cent 410", "amenity": "bicycle_parking", "bicycle_parking": "stands", "capacity": "14", "covered": "no", "operator": "http://ajuntament.barcelona.cat/bicicleta/ca", "website": "http://ajuntament.barcelona.cat/bicicleta/ca"}}, {"type": "node", "id": 6933487099, "lat": 41.40065, "lon": 2.16947, "tags": {"address": "C Proven\u00e7a 382", "amenity": "bicycle_parking", "operator": "http://ajuntament.barcelona.cat/bicicleta/ca", "website": "http://ajuntament.barcelona.cat/bicicleta/ca"}}, {"type": "node", "id": 6933487103, "lat": 41.39842, "lon": 2.16612, "tags": {"addr:description": "Av Diagonal 400", "amenity": "bicycle_parking", "covered": "no", "operator": "http://ajuntament.barcelona.cat/bicicleta/ca", "website": "http://ajuntament.barcelona.cat/bicicleta/ca"}}, {"type": "node", "id": 6933487104, "lat": 41.39832, "lon": 2.16615, "tags": {"addr:description": "Av Diagonal 400", "amenity": "bicycle_parking", "bicycle_parking": "stands", "covered": "no", "operator": "http://ajuntament.barcelona.cat/bicicleta/ca", "website": "http://ajuntament.barcelona.cat/bicicleta/ca"}}, {"type": "node", "id": 6933487105, "lat": 41.40035, "lon": 2.16612, "tags": {"address": "C Bail\u00e8n 155", "amenity": "bicycle_parking", "operator": "http://ajuntament.barcelona.cat/bicicleta/ca", "website": "http://ajuntament.barcelona.cat/bicicleta/ca"}}, {"type": "node", "id": 6933487299, "lat": 41.39943, "lon": 2.17067, "tags": {"address": "Av Diagonal 372", "amenity": "bicycle_parking", "bicycle_parking": "stands", "capacity": "14", "covered": "no", "operator": "http://ajuntament.barcelona.cat/bicicleta/ca", "website": "http://ajuntament.barcelona.cat/bicicleta/ca"}}, {"type": "node", "id": 6933487404, "lat": 41.40046, "lon": 2.17252, "tags": {"address": "C N\u00e0pols 231", "amenity": "bicycle_parking", "operator": "http://ajuntament.barcelona.cat/bicicleta/ca", "website": "http://ajuntament.barcelona.cat/bicicleta/ca"}}, {"type": "node", "id": 6933487465, "lat": 41.39408, "lon": 2.17631, "tags": {"address": "Pl Tetuan 2", "amenity": "bicycle_parking", "operator": "http://ajuntament.barcelona.cat/bicicleta/ca", "website": "http://ajuntament.barcelona.cat/bicicleta/ca"}}, {"type": "node", "id": 6933487885, "lat": 41.39626, "lon": 2.16793, "tags": {"address": "C Val\u00e8ncia 307", "amenity": "bicycle_parking", "bicycle_parking": "stands", "covered": "no", "operator": "http://ajuntament.barcelona.cat/bicicleta/ca", "website": "http://ajuntament.barcelona.cat/bicicleta/ca"}}, {"type": "node", "id": 6933487920, "lat": 41.39323, "lon": 2.16608, "tags": {"address": "C Arag\u00f3 281", "amenity": "bicycle_parking", "operator": "http://ajuntament.barcelona.cat/bicicleta/ca", "website": "http://ajuntament.barcelona.cat/bicicleta/ca"}}, {"type": "node", "id": 6933490601, "lat": 41.3982, "lon": 2.17274, "tags": {"address": "C Arag\u00f3 367", "amenity": "bicycle_parking", "bicycle_parking": "stands", "image": "https://storage13.openstreetcam.org/files/photo/2020/2/29/lth/2084706_6_ad736_3.jpg", "operator": "http://ajuntament.barcelona.cat/bicicleta/ca", "survey:date": "2020-02-29", "website": "http://ajuntament.barcelona.cat/bicicleta/ca"}}, {"type": "node", "id": 6933490613, "lat": 41.40032, "lon": 2.17395, "tags": {"address": "Av Diagonal 338", "amenity": "bicycle_parking", "operator": "http://ajuntament.barcelona.cat/bicicleta/ca", "website": "http://ajuntament.barcelona.cat/bicicleta/ca"}}, {"type": "node", "id": 6933490899, "lat": 41.39974, "lon": 2.17031, "tags": {"address": "C Mallorca 337", "amenity": "bicycle_parking", "bicycle_parking": "stands", "mapillary": "X3hq82wd6KTnpp3PVa2M0w", "operator": "http://ajuntament.barcelona.cat/bicicleta/ca", "survey:date": "2017-11-18", "website": "http://ajuntament.barcelona.cat/bicicleta/ca"}}, {"type": "node", "id": 6933491031, "lat": 41.39552, "lon": 2.17606, "tags": {"address": "Pl Tetuan 32", "amenity": "bicycle_parking", "operator": "http://ajuntament.barcelona.cat/bicicleta/ca", "website": "http://ajuntament.barcelona.cat/bicicleta/ca"}}, {"type": "node", "id": 6933491114, "lat": 41.39398, "lon": 2.17643, "tags": {"address": "Pl Tetuan 1", "amenity": "bicycle_parking", "operator": "http://ajuntament.barcelona.cat/bicicleta/ca", "website": "http://ajuntament.barcelona.cat/bicicleta/ca"}}, {"type": "node", "id": 6933491115, "lat": 41.39405, "lon": 2.17416, "tags": {"address": "G.V. Corts Catalanes 667", "amenity": "bicycle_parking", "bicycle_parking": "stands", "capacity": "8", "operator": "http://ajuntament.barcelona.cat/bicicleta/ca", "website": "http://ajuntament.barcelona.cat/bicicleta/ca"}}, {"type": "node", "id": 6933491155, "lat": 41.39361, "lon": 2.17032, "tags": {"address": "C Bruc 63", "amenity": "bicycle_parking", "bicycle_parking": "stands", "capacity": "10", "covered": "no", "operator": "http://ajuntament.barcelona.cat/bicicleta/ca", "website": "http://ajuntament.barcelona.cat/bicicleta/ca"}}, {"type": "node", "id": 6933491156, "lat": 41.39403, "lon": 2.1672, "tags": {"address": "C Arag\u00f3 293", "amenity": "bicycle_parking", "bicycle_parking": "stands", "capacity": "6", "mapillary": "f1pbjbfsUQ5PvLDg2RrFOA", "operator": "http://ajuntament.barcelona.cat/bicicleta/ca", "survey:date": "2019-04-12", "website": "http://ajuntament.barcelona.cat/bicicleta/ca"}}, {"type": "node", "id": 6933491157, "lat": 41.399, "lon": 2.1738, "tags": {"address": "C Arag\u00f3 385", "amenity": "bicycle_parking", "operator": "http://ajuntament.barcelona.cat/bicicleta/ca", "website": "http://ajuntament.barcelona.cat/bicicleta/ca"}}, {"type": "node", "id": 6933491158, "lat": 41.39723, "lon": 2.17378, "tags": {"address": "C Consell de Cent 435", "amenity": "bicycle_parking", "bicycle_parking": "stands", "capacity": "10", "covered": "no", "operator": "http://ajuntament.barcelona.cat/bicicleta/ca", "website": "http://ajuntament.barcelona.cat/bicicleta/ca"}}, {"type": "node", "id": 6933491160, "lat": 41.40068, "lon": 2.17273, "tags": {"address": "Ptge Gaiol\u00e0 1", "amenity": "bicycle_parking", "operator": "http://ajuntament.barcelona.cat/bicicleta/ca", "website": "http://ajuntament.barcelona.cat/bicicleta/ca"}}, {"type": "node", "id": 6933492840, "lat": 41.39836, "lon": 2.16847, "tags": {"address": "C Mallorca 331", "amenity": "bicycle_parking", "operator": "http://ajuntament.barcelona.cat/bicicleta/ca", "website": "http://ajuntament.barcelona.cat/bicicleta/ca"}}, {"type": "node", "id": 6933492843, "lat": 41.39469, "lon": 2.17041, "tags": {"address": "C Consell de Cent 393", "amenity": "bicycle_parking", "bicycle_parking": "stands", "capacity": "8", "covered": "no", "operator": "http://ajuntament.barcelona.cat/bicicleta/ca", "website": "http://ajuntament.barcelona.cat/bicicleta/ca"}}, {"type": "node", "id": 6933492880, "lat": 41.39387, "lon": 2.17155, "tags": {"address": "C Diputaci\u00f3 327", "amenity": "bicycle_parking", "bicycle_parking": "stands", "capacity": "18", "covered": "no", "operator": "http://ajuntament.barcelona.cat/bicicleta/ca", "website": "http://ajuntament.barcelona.cat/bicicleta/ca"}}, {"type": "node", "id": 6933492912, "lat": 41.39857, "lon": 2.16864, "tags": {"address": "C Bail\u00e8n 131", "amenity": "bicycle_parking", "operator": "http://ajuntament.barcelona.cat/bicicleta/ca", "website": "http://ajuntament.barcelona.cat/bicicleta/ca"}}, {"type": "node", "id": 6933492942, "lat": 41.39473, "lon": 2.17268, "tags": {"addr:description": "C Diputaci\u00f3 341", "amenity": "bicycle_parking", "bicycle_parking": "stands", "capacity": "18", "covered": "no", "operator": "http://ajuntament.barcelona.cat/bicicleta/ca", "website": "http://ajuntament.barcelona.cat/bicicleta/ca"}}, {"type": "node", "id": 6933492972, "lat": 41.3935, "lon": 2.16903, "tags": {"address": "C Consell de Cent 344", "amenity": "bicycle_parking", "operator": "http://ajuntament.barcelona.cat/bicicleta/ca", "website": "http://ajuntament.barcelona.cat/bicicleta/ca"}}, {"type": "node", "id": 6933493897, "lat": 41.40022, "lon": 2.17492, "tags": {"address": "Av Diagonal 287", "amenity": "bicycle_parking", "bicycle_parking": "stands", "image": "https://storage13.openstreetcam.org/files/photo/2020/8/19/lth/2932838_528cee0b537fb0e8a939ff0112537be6.jpg", "operator": "http://ajuntament.barcelona.cat/bicicleta/ca", "survey:date": "2020-08-19", "website": "http://ajuntament.barcelona.cat/bicicleta/ca"}}, {"type": "node", "id": 6933493929, "lat": 41.39517, "lon": 2.17353, "tags": {"address": "C Diputaci\u00f3 349", "amenity": "bicycle_parking", "bicycle_parking": "stands", "capacity": "16", "covered": "no", "operator": "http://ajuntament.barcelona.cat/bicicleta/ca", "website": "http://ajuntament.barcelona.cat/bicicleta/ca"}}, {"type": "node", "id": 6933493997, "lat": 41.39621, "lon": 2.17242, "tags": {"address": "C Consell de Cent 423", "amenity": "bicycle_parking", "bicycle_parking": "stands", "capacity": "4", "covered": "no", "operator": "http://ajuntament.barcelona.cat/bicicleta/ca", "website": "http://ajuntament.barcelona.cat/bicicleta/ca"}}, {"type": "node", "id": 6933494012, "lat": 41.39429, "lon": 2.17558, "tags": {"address": "Pl Tetuan 6", "amenity": "bicycle_parking", "operator": "http://ajuntament.barcelona.cat/bicicleta/ca", "website": "http://ajuntament.barcelona.cat/bicicleta/ca"}}, {"type": "node", "id": 6933494014, "lat": 41.394286, "lon": 2.1678566, "tags": {"address": "C Arag\u00f3 302", "amenity": "bicycle_parking", "operator": "http://ajuntament.barcelona.cat/bicicleta/ca", "website": "http://ajuntament.barcelona.cat/bicicleta/ca"}}, {"type": "node", "id": 6933494049, "lat": 41.40202, "lon": 2.17047, "tags": {"address": "C N\u00e0pols 253", "amenity": "bicycle_parking", "operator": "http://ajuntament.barcelona.cat/bicicleta/ca", "website": "http://ajuntament.barcelona.cat/bicicleta/ca"}}, {"type": "node", "id": 6933494067, "lat": 41.39798, "lon": 2.17472, "tags": {"address": "C Consell de Cent 445", "amenity": "bicycle_parking", "operator": "http://ajuntament.barcelona.cat/bicicleta/ca", "website": "http://ajuntament.barcelona.cat/bicicleta/ca"}}, {"type": "node", "id": 6933494690, "lat": 41.39776, "lon": 2.17017, "tags": {"address": "C Val\u00e8ncia 358", "amenity": "bicycle_parking", "bicycle_parking": "stands", "capacity": "16", "covered": "no", "operator": "http://ajuntament.barcelona.cat/bicicleta/ca", "website": "http://ajuntament.barcelona.cat/bicicleta/ca"}}, {"type": "node", "id": 6933494697, "lat": 41.39736, "lon": 2.16503, "tags": {"address": "C Proven\u00e7a 334", "amenity": "bicycle_parking", "operator": "http://ajuntament.barcelona.cat/bicicleta/ca", "website": "http://ajuntament.barcelona.cat/bicicleta/ca"}}, {"type": "node", "id": 6933500286, "lat": 41.39529, "lon": 2.16462, "tags": {"address": "C Mallorca 274", "amenity": "bicycle_parking", "bicycle_parking": "stands", "capacity": "20", "covered": "no", "operator": "http://ajuntament.barcelona.cat/bicicleta/ca", "website": "http://ajuntament.barcelona.cat/bicicleta/ca"}}, {"type": "node", "id": 6933500287, "lat": 41.39889, "lon": 2.16463, "tags": {"address": "C Rossell\u00f3 297", "amenity": "bicycle_parking", "bicycle_parking": "stands", "mapillary": "-gEoVE42iUf_gttUZINz1g", "operator": "http://ajuntament.barcelona.cat/bicicleta/ca", "survey:date": "2017-11-18", "website": "http://ajuntament.barcelona.cat/bicicleta/ca"}}, {"type": "node", "id": 6933501131, "lat": 41.39638, "lon": 2.17495, "tags": {"address": "C Diputaci\u00f3 367", "amenity": "bicycle_parking", "operator": "http://ajuntament.barcelona.cat/bicicleta/ca", "website": "http://ajuntament.barcelona.cat/bicicleta/ca"}}, {"type": "node", "id": 6933502295, "lat": 41.39825, "lon": 2.16707, "tags": {"address": "Av Diagonal 341", "amenity": "bicycle_parking", "operator": "http://ajuntament.barcelona.cat/bicicleta/ca", "website": "http://ajuntament.barcelona.cat/bicicleta/ca"}}, {"type": "node", "id": 6933502338, "lat": 41.39776, "lon": 2.17383, "tags": {"address": "C Roger de Flor 153", "amenity": "bicycle_parking", "operator": "http://ajuntament.barcelona.cat/bicicleta/ca", "website": "http://ajuntament.barcelona.cat/bicicleta/ca"}}, {"type": "node", "id": 6933502352, "lat": 41.39946, "lon": 2.17608, "tags": {"address": "C Sic\u00edlia 175", "amenity": "bicycle_parking", "operator": "http://ajuntament.barcelona.cat/bicicleta/ca", "website": "http://ajuntament.barcelona.cat/bicicleta/ca"}}, {"type": "node", "id": 6933504495, "lat": 41.39454, "lon": 2.17153, "tags": {"address": "C Girona 62", "amenity": "bicycle_parking", "bicycle_parking": "stands", "capacity": "10", "covered": "no", "operator": "http://ajuntament.barcelona.cat/bicicleta/ca", "website": "http://ajuntament.barcelona.cat/bicicleta/ca"}}, {"type": "node", "id": 6933504529, "lat": 41.39821, "lon": 2.17079, "tags": {"address": "C Val\u00e8ncia 368", "amenity": "bicycle_parking", "operator": "http://ajuntament.barcelona.cat/bicicleta/ca", "website": "http://ajuntament.barcelona.cat/bicicleta/ca"}}, {"type": "node", "id": 6933504532, "lat": 41.40132, "lon": 2.17609, "tags": {"address": "C Sardenya 253", "amenity": "bicycle_parking", "operator": "Ajuntament de Barcelona", "website": "http://ajuntament.barcelona.cat/bicicleta/ca"}}, {"type": "node", "id": 6933504705, "lat": 41.39662, "lon": 2.17292, "tags": {"address": "Pg Sant Joan 51", "amenity": "bicycle_parking", "bicycle_parking": "stands", "capacity": "10", "mapillary": "uSaB2qh95WhlgLJtLdfOzA", "operator": "http://ajuntament.barcelona.cat/bicicleta/ca", "survey:date": "2017-11-18", "website": "http://ajuntament.barcelona.cat/bicicleta/ca"}}, {"type": "node", "id": 6933504763, "lat": 41.39332, "lon": 2.17542, "tags": {"address": "C Bail\u00e8n 34", "amenity": "bicycle_parking", "bicycle_parking": "stands", "capacity": "10", "covered": "no", "operator": "http://ajuntament.barcelona.cat/bicicleta/ca", "website": "http://ajuntament.barcelona.cat/bicicleta/ca"}}, {"type": "node", "id": 6933504764, "lat": 41.39401, "lon": 2.17469, "tags": {"address": "G.V. Corts Catalanes 704", "amenity": "bicycle_parking", "bicycle_parking": "stands", "capacity": "8", "covered": "no", "operator": "http://ajuntament.barcelona.cat/bicicleta/ca", "website": "http://ajuntament.barcelona.cat/bicicleta/ca"}}, {"type": "node", "id": 6933505012, "lat": 41.39384, "lon": 2.16948, "tags": {"address": "C Consell de Cent 354", "amenity": "bicycle_parking", "operator": "http://ajuntament.barcelona.cat/bicicleta/ca", "website": "http://ajuntament.barcelona.cat/bicicleta/ca"}}, {"type": "node", "id": 6933505014, "lat": 41.39948, "lon": 2.17196, "tags": {"address": "Av Diagonal 9995", "amenity": "bicycle_parking", "operator": "http://ajuntament.barcelona.cat/bicicleta/ca", "website": "http://ajuntament.barcelona.cat/bicicleta/ca"}}, {"type": "node", "id": 6933505088, "lat": 41.39544, "lon": 2.16943, "tags": {"address": "C Arag\u00f3 326", "amenity": "bicycle_parking", "bicycle_parking": "stands", "capacity": "20", "covered": "no", "operator": "http://ajuntament.barcelona.cat/bicicleta/ca", "website": "http://ajuntament.barcelona.cat/bicicleta/ca"}}, {"type": "node", "id": 6933505114, "lat": 41.39446, "lon": 2.16582, "tags": {"address": "C Val\u00e8ncia 302", "amenity": "bicycle_parking", "operator": "http://ajuntament.barcelona.cat/bicicleta/ca", "website": "http://ajuntament.barcelona.cat/bicicleta/ca"}}, {"type": "node", "id": 6933505414, "lat": 41.39672, "lon": 2.17334, "tags": {"address": "Pg Sant Joan 66", "amenity": "bicycle_parking", "bicycle_parking": "stands", "capacity": "6", "covered": "no", "operator": "http://ajuntament.barcelona.cat/bicicleta/ca", "website": "http://ajuntament.barcelona.cat/bicicleta/ca"}}, {"type": "node", "id": 6933505415, "lat": 41.39732, "lon": 2.17194, "tags": {"address": "C Arag\u00f3 370", "amenity": "bicycle_parking", "bicycle_parking": "stands", "mapillary": "MVCHzwJsn6x8-EmKGTf0pA", "operator": "http://ajuntament.barcelona.cat/bicicleta/ca", "survey:date": "2017-11-18", "website": "http://ajuntament.barcelona.cat/bicicleta/ca"}}, {"type": "node", "id": 6933505438, "lat": 41.39392, "lon": 2.16965, "tags": {"address": "C Consell de Cent 356", "amenity": "bicycle_parking", "bicycle_parking": "stands", "capacity": "10", "covered": "no", "operator": "http://ajuntament.barcelona.cat/bicicleta/ca", "website": "http://ajuntament.barcelona.cat/bicicleta/ca"}}, {"type": "node", "id": 6933505439, "lat": 41.39386, "lon": 2.16476, "tags": {"address": "C Val\u00e8ncia 263", "amenity": "bicycle_parking", "operator": "http://ajuntament.barcelona.cat/bicicleta/ca", "website": "http://ajuntament.barcelona.cat/bicicleta/ca"}}, {"type": "node", "id": 6933505440, "lat": 41.39897, "lon": 2.17633, "tags": {"address": "C Consell de Cent 454", "amenity": "bicycle_parking", "operator": "http://ajuntament.barcelona.cat/bicicleta/ca", "website": "http://ajuntament.barcelona.cat/bicicleta/ca"}}, {"type": "node", "id": 6933505477, "lat": 41.39314, "lon": 2.1759, "tags": {"address": "C Casp 82", "amenity": "bicycle_parking", "bicycle_parking": "stands", "capacity": "10", "covered": "no", "operator": "http://ajuntament.barcelona.cat/bicicleta/ca", "website": "http://ajuntament.barcelona.cat/bicicleta/ca"}}, {"type": "node", "id": 6933505478, "lat": 41.3934, "lon": 2.1751, "tags": {"address": "C Bail\u00e8n 35", "amenity": "bicycle_parking", "operator": "http://ajuntament.barcelona.cat/bicicleta/ca", "website": "http://ajuntament.barcelona.cat/bicicleta/ca"}}, {"type": "node", "id": 6933505480, "lat": 41.3947, "lon": 2.17134, "tags": {"addr:description": "C Girona 69", "amenity": "bicycle_parking", "bicycle_parking": "stands", "capacity": "10", "covered": "no", "operator": "http://ajuntament.barcelona.cat/bicicleta/ca", "website": "http://ajuntament.barcelona.cat/bicicleta/ca"}}, {"type": "node", "id": 6933505491, "lat": 41.39566, "lon": 2.17419, "tags": {"address": "Pl Tetuan 21", "amenity": "bicycle_parking", "bicycle_parking": "stands", "capacity": "10", "covered": "no", "operator": "http://ajuntament.barcelona.cat/bicicleta/ca", "website": "http://ajuntament.barcelona.cat/bicicleta/ca"}}, {"type": "node", "id": 6933505492, "lat": 41.3988762, "lon": 2.1704804, "tags": {"address": "Pg Sant Joan 98", "amenity": "bicycle_parking", "operator": "http://ajuntament.barcelona.cat/bicicleta/ca", "website": "http://ajuntament.barcelona.cat/bicicleta/ca"}}, {"type": "node", "id": 6933505535, "lat": 41.3952, "lon": 2.17109, "tags": {"address": "C Consell de Cent 399", "amenity": "bicycle_parking", "operator": "http://ajuntament.barcelona.cat/bicicleta/ca", "website": "http://ajuntament.barcelona.cat/bicicleta/ca"}}, {"type": "node", "id": 6933505537, "lat": 41.40056, "lon": 2.16587, "tags": {"address": "C Bail\u00e8n 160", "amenity": "bicycle_parking", "bicycle_parking": "stands", "capacity": "20", "covered": "no", "operator": "http://ajuntament.barcelona.cat/bicicleta/ca", "website": "http://ajuntament.barcelona.cat/bicicleta/ca"}}, {"type": "node", "id": 6933509487, "lat": 41.39854, "lon": 2.17099, "tags": {"address": "Pg Sant Joan 94", "amenity": "bicycle_parking", "bicycle_parking": "stands", "covered": "no", "mapillary": "SLQl6WRkvzFlG4soBMRtnQ", "operator": "http://ajuntament.barcelona.cat/bicicleta/ca", "survey:date": "2020-05-10", "website": "http://ajuntament.barcelona.cat/bicicleta/ca"}}, {"type": "node", "id": 6933509495, "lat": 41.39783, "lon": 2.17457, "tags": {"address": "C Consell de Cent 443", "amenity": "bicycle_parking", "operator": "http://ajuntament.barcelona.cat/bicicleta/ca", "website": "http://ajuntament.barcelona.cat/bicicleta/ca"}}, {"type": "node", "id": 6933509496, "lat": 41.39733, "lon": 2.16967, "tags": {"address": "C Val\u00e8ncia 352", "amenity": "bicycle_parking", "operator": "http://ajuntament.barcelona.cat/bicicleta/ca", "website": "http://ajuntament.barcelona.cat/bicicleta/ca"}}, {"type": "node", "id": 6933509794, "lat": 41.39609, "lon": 2.16545, "tags": {"address": "C Mallorca 285", "amenity": "bicycle_parking", "operator": "http://ajuntament.barcelona.cat/bicicleta/ca", "website": "http://ajuntament.barcelona.cat/bicicleta/ca"}}, {"type": "node", "id": 6933509852, "lat": 41.39319, "lon": 2.17066, "tags": {"address": "C Diputaci\u00f3 317", "amenity": "bicycle_parking", "bicycle_parking": "stands", "capacity": "8", "covered": "no", "operator": "http://ajuntament.barcelona.cat/bicicleta/ca", "website": "http://ajuntament.barcelona.cat/bicicleta/ca"}}, {"type": "node", "id": 6933509883, "lat": 41.3947861, "lon": 2.1729482, "tags": {"addr:description": "C Diputaci\u00f3 343", "amenity": "bicycle_parking", "bicycle_parking": "stands", "capacity": "8", "covered": "no", "operator": "http://ajuntament.barcelona.cat/bicicleta/ca", "website": "http://ajuntament.barcelona.cat/bicicleta/ca"}}, {"type": "node", "id": 6933511588, "lat": 41.39739, "lon": 2.16717, "tags": {"address": "C Mallorca 315", "amenity": "bicycle_parking", "operator": "http://ajuntament.barcelona.cat/bicicleta/ca", "website": "http://ajuntament.barcelona.cat/bicicleta/ca"}}, {"type": "node", "id": 6933511589, "lat": 41.39827, "lon": 2.16835, "tags": {"address": "C Mallorca 331", "amenity": "bicycle_parking", "operator": "http://ajuntament.barcelona.cat/bicicleta/ca", "website": "http://ajuntament.barcelona.cat/bicicleta/ca"}}, {"type": "node", "id": 6933511631, "lat": 41.39563, "lon": 2.16483, "tags": {"address": "C Mallorca 283", "amenity": "bicycle_parking", "bicycle_parking": "stands", "covered": "no", "operator": "http://ajuntament.barcelona.cat/bicicleta/ca", "website": "http://ajuntament.barcelona.cat/bicicleta/ca"}}, {"type": "node", "id": 6933511632, "lat": 41.39396, "lon": 2.16941, "tags": {"address": "C Consell de Cent 383", "amenity": "bicycle_parking", "bicycle_parking": "stands", "capacity": "8", "covered": "no", "operator": "http://ajuntament.barcelona.cat/bicicleta/ca", "website": "http://ajuntament.barcelona.cat/bicicleta/ca"}}, {"type": "node", "id": 6933511633, "lat": 41.39896, "lon": 2.17223, "tags": {"address": "C Roger de Flor 169", "amenity": "bicycle_parking", "operator": "http://ajuntament.barcelona.cat/bicicleta/ca", "website": "http://ajuntament.barcelona.cat/bicicleta/ca"}}, {"type": "node", "id": 6933511634, "lat": 41.39609, "lon": 2.17226, "tags": {"address": "C Consell de Cent 417", "amenity": "bicycle_parking", "bicycle_parking": "stands", "capacity": "6", "covered": "no", "operator": "http://ajuntament.barcelona.cat/bicicleta/ca", "website": "http://ajuntament.barcelona.cat/bicicleta/ca"}}, {"type": "node", "id": 6933513707, "lat": 41.39902, "lon": 2.17185, "tags": {"address": "C Val\u00e8ncia 369", "amenity": "bicycle_parking", "operator": "http://ajuntament.barcelona.cat/bicicleta/ca", "website": "http://ajuntament.barcelona.cat/bicicleta/ca"}}, {"type": "node", "id": 6933513711, "lat": 41.39565, "lon": 2.17167, "tags": {"address": "C Consell de Cent 413", "amenity": "bicycle_parking", "bicycle_parking": "stands", "capacity": "6", "covered": "no", "operator": "http://ajuntament.barcelona.cat/bicicleta/ca", "website": "http://ajuntament.barcelona.cat/bicicleta/ca"}}, {"type": "node", "id": 6933513733, "lat": 41.39428, "lon": 2.17527, "tags": {"address": "Pl Tetuan 8", "amenity": "bicycle_parking", "operator": "http://ajuntament.barcelona.cat/bicicleta/ca", "website": "http://ajuntament.barcelona.cat/bicicleta/ca"}}, {"type": "node", "id": 6933513734, "lat": 41.3953, "lon": 2.16827, "tags": {"address": "C Bruc 87", "amenity": "bicycle_parking", "operator": "http://ajuntament.barcelona.cat/bicicleta/ca", "website": "http://ajuntament.barcelona.cat/bicicleta/ca"}}, {"type": "node", "id": 6933513735, "lat": 41.39629, "lon": 2.17251, "tags": {"address": "C Consell de Cent 425", "amenity": "bicycle_parking", "bicycle_parking": "stands", "capacity": "12", "covered": "no", "operator": "http://ajuntament.barcelona.cat/bicicleta/ca", "website": "http://ajuntament.barcelona.cat/bicicleta/ca"}}, {"type": "node", "id": 6933513736, "lat": 41.39773, "lon": 2.16525, "tags": {"address": "Av Diagonal 9999", "amenity": "bicycle_parking", "operator": "http://ajuntament.barcelona.cat/bicicleta/ca", "website": "http://ajuntament.barcelona.cat/bicicleta/ca"}}, {"type": "node", "id": 6933519493, "lat": 41.39479, "lon": 2.1682, "tags": {"address": "C Arag\u00f3 305", "amenity": "bicycle_parking", "operator": "http://ajuntament.barcelona.cat/bicicleta/ca", "website": "http://ajuntament.barcelona.cat/bicicleta/ca"}}, {"type": "node", "id": 6933521903, "lat": 41.39344, "lon": 2.16626, "tags": {"address": "C Pau Claris 134", "amenity": "bicycle_parking", "operator": "http://ajuntament.barcelona.cat/bicicleta/ca", "website": "http://ajuntament.barcelona.cat/bicicleta/ca"}}, {"type": "node", "id": 6933521904, "lat": 41.39542, "lon": 2.16904, "tags": {"address": "C Arag\u00f3 311", "amenity": "bicycle_parking", "operator": "http://ajuntament.barcelona.cat/bicicleta/ca", "website": "http://ajuntament.barcelona.cat/bicicleta/ca"}}, {"type": "node", "id": 6933521905, "lat": 41.39557, "lon": 2.16793, "tags": {"address": "C Bruc 104", "amenity": "bicycle_parking", "operator": "http://ajuntament.barcelona.cat/bicicleta/ca", "website": "http://ajuntament.barcelona.cat/bicicleta/ca"}}, {"type": "node", "id": 6933522103, "lat": 41.39647, "lon": 2.17042, "tags": {"address": "C Arag\u00f3 333", "amenity": "bicycle_parking", "operator": "http://ajuntament.barcelona.cat/bicicleta/ca", "website": "http://ajuntament.barcelona.cat/bicicleta/ca"}}, {"type": "node", "id": 6933522104, "lat": 41.39883, "lon": 2.17001, "tags": {"address": "Pg Sant Joan 99", "amenity": "bicycle_parking", "operator": "http://ajuntament.barcelona.cat/bicicleta/ca", "website": "http://ajuntament.barcelona.cat/bicicleta/ca"}}, {"type": "node", "id": 6933524390, "lat": 41.40192, "lon": 2.17531, "tags": {"address": "C Sardenya 294", "amenity": "bicycle_parking", "operator": "http://ajuntament.barcelona.cat/bicicleta/ca", "website": "http://ajuntament.barcelona.cat/bicicleta/ca"}}, {"type": "node", "id": 6933526501, "lat": 41.39485, "lon": 2.17086, "tags": {"address": "C Consell de Cent 370", "amenity": "bicycle_parking", "bicycle_parking": "stands", "capacity": "6", "covered": "no", "operator": "http://ajuntament.barcelona.cat/bicicleta/ca", "website": "http://ajuntament.barcelona.cat/bicicleta/ca"}}, {"type": "node", "id": 6933526514, "lat": 41.39424, "lon": 2.17441, "tags": {"addr:description": "G.V. Corts Catalanes 669", "amenity": "bicycle_parking", "bicycle_parking": "stands", "capacity": "8", "covered": "no", "operator": "http://ajuntament.barcelona.cat/bicicleta/ca", "website": "http://ajuntament.barcelona.cat/bicicleta/ca"}}, {"type": "node", "id": 6933526516, "lat": 41.39396, "lon": 2.16707, "tags": {"address": "C Arag\u00f3 293", "amenity": "bicycle_parking", "operator": "http://ajuntament.barcelona.cat/bicicleta/ca", "website": "http://ajuntament.barcelona.cat/bicicleta/ca"}}, {"type": "node", "id": 6933526518, "lat": 41.39563, "lon": 2.16713, "tags": {"address": "C Val\u00e8ncia 297", "amenity": "bicycle_parking", "operator": "http://ajuntament.barcelona.cat/bicicleta/ca", "website": "http://ajuntament.barcelona.cat/bicicleta/ca"}}, {"type": "node", "id": 6933526520, "lat": 41.39861, "lon": 2.17368, "tags": {"address": "C Arag\u00f3 396", "amenity": "bicycle_parking", "operator": "http://ajuntament.barcelona.cat/bicicleta/ca", "website": "http://ajuntament.barcelona.cat/bicicleta/ca"}}, {"type": "node", "id": 6973988486, "lat": 41.39412, "lon": 2.16499, "tags": {"address": "C Val\u00e8ncia 269", "amenity": "taxi", "website": "www.taxibarcelona.cat"}}, {"type": "node", "id": 6974009104, "lat": 41.39751, "lon": 2.17405, "tags": {"address": "C Consell de Cent 441", "amenity": "taxi", "website": "www.taxibarcelona.cat"}}, {"type": "node", "id": 6974009110, "lat": 41.39602, "lon": 2.16977, "tags": {"address": "C Arag\u00f3 319", "amenity": "taxi", "website": "www.taxibarcelona.cat"}}, {"type": "node", "id": 6974009186, "lat": 41.39741, "lon": 2.16546, "tags": {"address": "C Bruc 150", "amenity": "taxi", "website": "www.taxibarcelona.cat"}}, {"type": "node", "id": 6974009306, "lat": 41.39853, "lon": 2.17543, "tags": {"address": "C Consell de Cent 457", "amenity": "taxi", "website": "www.taxibarcelona.cat"}}, {"type": "node", "id": 6974010187, "lat": 41.39601, "lon": 2.17463, "tags": {"address": "C Diputaci\u00f3 336", "amenity": "taxi", "website": "www.taxibarcelona.cat"}}, {"type": "node", "id": 6974011787, "lat": 41.39342, "lon": 2.17398, "tags": {"address": "G.V. Corts Catalanes 692", "amenity": "taxi", "website": "www.taxibarcelona.cat"}}, {"type": "node", "id": 7085955846, "lat": 41.4014, "lon": 2.17058, "tags": {"access": "private", "amenity": "parking", "name": "Parking Privado"}}, {"type": "node", "id": 7085970083, "lat": 41.3956, "lon": 2.16696, "tags": {"amenity": "parking", "name": "Parking NN Bruc"}}, {"type": "node", "id": 9700799471, "lat": 41.3962315, "lon": 2.1678426, "tags": {"access": "yes", "amenity": "parking_entrance", "fee": "yes", "name": "NN Concepci\u00f3", "parking": "underground"}}, {"type": "way", "id": 355357453, "nodes": [3609767508, 3609767509, 2264591788, 2264591791, 4717526994, 2264591793, 2264591794, 4717526996, 2264591797, 2264591798, 3609767510, 3609767508], "tags": {"addr:housenumber": "371", "addr:street": "Carrer de la Diputaci\u00f3", "amenity": "fuel", "brand": "Repsol", "brand:wikidata": "Q174747", "brand:wikipedia": "es:Repsol", "building": "service", "compressed_air": "yes", "fuel:GTL_diesel": "yes", "fuel:diesel": "yes", "fuel:octane_95": "yes", "fuel:octane_98": "yes", "name": "Repsol", "opening_hours": "24/7", "operator": "Repsol", "source": "Ministerio de Industria, Turismo y Comercio", "source:date": "2010-08-06"}}, {"type": "way", "id": 441856998, "nodes": [4395516635, 4395516636, 4395516637, 4395516638, 4395516635], "tags": {"amenity": "motorcycle_parking"}}, {"type": "way", "id": 642017145, "nodes": [6045123917, 6045124118, 6045124115, 6045124089, 6045124055, 6045123796, 6045123861, 6045123820, 6045123836, 6045123839, 6045123854, 6045123856, 6045123857, 6045123848, 6045123934, 6045123933, 6045123932, 6045123931, 6045123930, 6045123929, 6045123928, 2526209763, 6045123927, 6045123926, 6045123925, 6045123845, 6045123924, 6045123923, 6045123922, 6045123921, 6045123920, 6045123901, 6045123919, 6045123746, 6045123747, 6045123918, 6045123904, 6045122623, 6045122624, 6045123869, 6045123917], "tags": {"addr:city": "Barcelona", "addr:housenumber": "425", "addr:street": "Carrer Arag\u00f3", "amenity": "parking", "building": "garage", "building:levels": "1", "fee": "yes", "operator": "Manhattan", "parking": "surface"}}]}