{"version": 0.6, "generator": "Overpass API 0.7.58.5 b0c4acbb", "osm3s": {"timestamp_osm_base": "2022-08-21T22:03:36Z", "copyright": "The data included in this document is from www.openstreetmap.org. The data is made available under ODbL."}, "elements": [{"type": "node", "id": 27717687, "lat": 40.4164064, "lon": -3.7049818, "tags": {"amenity": "fast_food", "brand": "McDonald's", "brand:wikidata": "Q38076", "brand:wikipedia": "es:McDonald's", "cuisine": "burger", "internet_access": "wlan", "name": "McDonald's", "operator": "McDonald's", "source": "survey", "takeaway": "yes"}}, {"type": "node", "id": 48753285, "lat": 40.4170948, "lon": -3.704137}, {"type": "node", "id": 48753288, "lat": 40.4169462, "lon": -3.7043962}, {"type": "node", "id": 178821228, "lat": 40.4160273, "lon": -3.7050598, "tags": {"addr:city": "Madrid", "addr:housenumber": "3", "addr:postcode": "28012", "addr:street": "Calle de Esparteros", "amenity": "fast_food", "brand": "Burger King", "brand:wikidata": "Q177054", "brand:wikipedia": "es:Burger King", "cuisine": "burger", "name": "Burger King", "source": "survey", "takeaway": "yes", "wheelchair": "no"}}, {"type": "node", "id": 178821235, "lat": 40.4164854, "lon": -3.704493, "tags": {"alt_name": "Kentucky Fried Chicken", "amenity": "fast_food", "brand": "KFC", "brand:wikidata": "Q524757", "brand:wikipedia": "en:KFC", "cuisine": "chicken", "name": "KFC", "source": "survey", "takeaway": "yes", "wheelchair": "limited"}}, {"type": "node", "id": 184049293, "lat": 40.418183, "lon": -3.7031236, "tags": {"addr:city": "Madrid", "addr:housenumber": "34", "addr:postcode": "28013", "addr:street": "Calle de Tetu\u00e1n", "amenity": "restaurant", "contact:phone": "+34 915 22 47 93", "contact:website": "http://parrillaelgaucho.es/", "name": "El Gaucho"}}, {"type": "node", "id": 184049299, "lat": 40.4178368, "lon": -3.7034663, "tags": {"organic": "yes", "shop": "convenience"}}, {"type": "node", "id": 184049315, "lat": 40.4185047, "lon": -3.7034827, "tags": {"amenity": "cafe", "name": "Vianvi"}}, {"type": "node", "id": 453232707, "lat": 40.4158435, "lon": -3.702398, "tags": {"amenity": "restaurant", "cuisine": "cuban", "name": "La Negra Tomasa", "phone": "+34 91 523 58 30", "source": "survey", "website": "https://www.lanegratomasa.com/", "wheelchair": "yes"}}, {"type": "node", "id": 510141904, "lat": 40.4166278, "lon": -3.7047732, "tags": {"addr:city": "Madrid", "addr:country": "ES", "addr:housenumber": "8", "addr:postcode": "28013", "addr:street": "Plaza de la Puerta del Sol", "name": "La Mallorquina", "opening_hours": "Mo-Su 08:30-21:15", "phone": "+34915211201", "shop": "pastry", "website": "https://pastelerialamallorquina.es/", "wikidata": "Q5964187", "wikipedia": "es:La Mallorquina"}}, {"type": "node", "id": 510141905, "lat": 40.4163433, "lon": -3.7056737, "tags": {"amenity": "restaurant", "cuisine": "spanish", "name": "Museo del Jam\u00f3n", "opening_hours": "Mo-Su 13:00-24:00"}}, {"type": "node", "id": 510812793, "lat": 40.4157937, "lon": -3.7060266, "tags": {"amenity": "pub", "name": "Cervecer\u00eda Postas Quince"}}, {"type": "node", "id": 510812799, "lat": 40.4158574, "lon": -3.7059152, "tags": {"amenity": "pub", "name": "Cervecer\u00eda Postas", "phone": "+34 915 211 942"}}, {"type": "node", "id": 510812807, "lat": 40.4158992, "lon": -3.7058118, "tags": {"amenity": "fast_food", "brand": "Pans & Company", "brand:wikidata": "Q11697586", "brand:wikipedia": "es:Pans & Company", "cuisine": "sandwich", "name": "Pans & Company", "takeaway": "yes"}}, {"type": "node", "id": 1187929681, "lat": 40.4157405, "lon": -3.7017617, "tags": {"addr:city": "Madrid", "addr:housenumber": "12", "addr:street": "Calle de la Victoria", "amenity": "restaurant", "contact:website": "http://lacasadelabuelo.es/", "name": "La Casa del Abuelo", "phone": "+34 91 521 2319"}}, {"type": "node", "id": 1517405726, "lat": 40.4163668, "lon": -3.7015661, "tags": {"amenity": "bar", "name": "La Fontana de Oro"}}, {"type": "node", "id": 1556708378, "lat": 40.4174103, "lon": -3.7030513, "tags": {"alt_name": "Kentucky Fried Chicken", "amenity": "fast_food", "brand": "KFC", "brand:wikidata": "Q524757", "brand:wikipedia": "en:KFC", "cuisine": "chicken", "name": "KFC", "takeaway": "yes"}}, {"type": "node", "id": 1645108310, "lat": 40.4165281, "lon": -3.7031723, "tags": {"addr:city": "Madrid", "addr:country": "ES", "addr:housenumber": "3", "addr:postcode": "28012", "addr:street": "Calle de Carretas", "amenity": "fast_food", "cuisine": "pizza", "name": "PaPizza"}}, {"type": "node", "id": 1648675791, "lat": 40.4153409, "lon": -3.7057471}, {"type": "node", "id": 1782593803, "lat": 40.4172008, "lon": -3.7038681, "tags": {"amenity": "ice_cream", "name": "Helados Palazzo", "source": "survey"}}, {"type": "node", "id": 2028617655, "lat": 40.4151701, "lon": -3.7018097, "tags": {"amenity": "restaurant", "name": "Taberna Pompeyana"}}, {"type": "node", "id": 2046739424, "lat": 40.4180559, "lon": -3.7051428}, {"type": "node", "id": 2046739427, "lat": 40.4177968, "lon": -3.7047693}, {"type": "node", "id": 2046739429, "lat": 40.4175989, "lon": -3.7052265}, {"type": "node", "id": 2046739431, "lat": 40.4172647, "lon": -3.7046946}, {"type": "node", "id": 2046739435, "lat": 40.4176895, "lon": -3.7054975}, {"type": "node", "id": 2046739438, "lat": 40.4178483, "lon": -3.7046335}, {"type": "node", "id": 2046739440, "lat": 40.4173853, "lon": -3.7053181}, {"type": "node", "id": 2046739442, "lat": 40.4180426, "lon": -3.704909}, {"type": "node", "id": 2046739444, "lat": 40.4173433, "lon": -3.7044062}, {"type": "node", "id": 2046739446, "lat": 40.4180977, "lon": -3.7052609}, {"type": "node", "id": 2046739448, "lat": 40.4172737, "lon": -3.7045846}, {"type": "node", "id": 2046739450, "lat": 40.4173874, "lon": -3.7043295}, {"type": "node", "id": 2046739451, "lat": 40.4178045, "lon": -3.7049561}, {"type": "node", "id": 2180149404, "lat": 40.4159786, "lon": -3.7016048, "tags": {"addr:city": "Madrid", "addr:housenumber": "9", "addr:postcode": "28012", "addr:street": "Calle de la Victoria", "amenity": "restaurant", "contact:facebook": "https://www.facebook.com/pages/Taberna-La-Alhambra/147263902001137", "name": "Taberna La Alhambra", "wikidata": "Q54894139"}}, {"type": "node", "id": 2250387742, "lat": 40.4170622, "lon": -3.7039035, "tags": {"shop": "kiosk"}}, {"type": "node", "id": 2323109593, "lat": 40.4166091, "lon": -3.7015702, "tags": {"amenity": "restaurant", "cuisine": "regional", "name": "Museo del Jam\u00f3n", "wheelchair": "yes"}}, {"type": "node", "id": 2379568327, "lat": 40.4183316, "lon": -3.7043938, "tags": {"addr:city": "Madrid", "addr:country": "ES", "addr:housenumber": "17", "addr:postcode": "28013", "addr:street": "Calle del Carmen", "amenity": "restaurant", "cuisine": "spanish", "name": "Caf\u00e9 Carmen", "old_name": "Galache", "wheelchair": "limited"}}, {"type": "node", "id": 2437748228, "lat": 40.4164268, "lon": -3.7017415, "tags": {"amenity": "restaurant", "cuisine": "regional", "name": "Pulper\u00eda de Victoria"}}, {"type": "node", "id": 2505396736, "lat": 40.4172616, "lon": -3.704639}, {"type": "node", "id": 2505396737, "lat": 40.417356, "lon": -3.7044148}, {"type": "node", "id": 2505396738, "lat": 40.4173744, "lon": -3.7052272}, {"type": "node", "id": 2505396739, "lat": 40.4177605, "lon": -3.7049228}, {"type": "node", "id": 2505396740, "lat": 40.4177996, "lon": -3.7048374}, {"type": "node", "id": 2505396742, "lat": 40.417804, "lon": -3.7049172}, {"type": "node", "id": 2505396757, "lat": 40.4181237, "lon": -3.7050892}, {"type": "node", "id": 2505404904, "lat": 40.4171233, "lon": -3.7034164, "tags": {"shop": "kiosk"}}, {"type": "node", "id": 2535776444, "lat": 40.4175802, "lon": -3.7038285, "tags": {"shop": "kiosk"}}, {"type": "node", "id": 2535776446, "lat": 40.4171142, "lon": -3.7036504, "tags": {"shop": "kiosk"}}, {"type": "node", "id": 2569444827, "lat": 40.4166099, "lon": -3.7049244, "tags": {"addr:city": "Madrid", "addr:country": "ES", "addr:housenumber": "4", "addr:postcode": "28013", "addr:street": "Calle Mayor", "amenity": "fast_food", "name": "Wok to Walk", "takeaway": "yes"}}, {"type": "node", "id": 2598598847, "lat": 40.4157706, "lon": -3.7022428, "tags": {"addr:city": "Madrid", "addr:housenumber": "7", "addr:postcode": "28012", "addr:street": "Calle de Espoz y Mina", "amenity": "pub", "contact:phone": "+34 91 522 2293", "contact:website": "http://oconnellirishpub.com/", "name": "O'Connell St."}}, {"type": "node", "id": 2600764140, "lat": 40.415335, "lon": -3.705741}, {"type": "node", "id": 2601026804, "lat": 40.4169883, "lon": -3.7043352}, {"type": "node", "id": 2601026805, "lat": 40.4170472, "lon": -3.704237}, {"type": "node", "id": 2601026818, "lat": 40.4171923, "lon": -3.7045573}, {"type": "node", "id": 2601026821, "lat": 40.4172784, "lon": -3.7042578}, {"type": "node", "id": 2601026822, "lat": 40.4172911, "lon": -3.7043086}, {"type": "node", "id": 2627770556, "lat": 40.417043, "lon": -3.7044597}, {"type": "node", "id": 2627770567, "lat": 40.4170893, "lon": -3.7044899}, {"type": "node", "id": 2647385671, "lat": 40.4151538, "lon": -3.7019713, "tags": {"addr:city": "Madrid", "addr:housenumber": "3", "addr:postcode": "28012", "addr:street": "Calle de \u00c1lvarez Gato", "amenity": "restaurant", "cuisine": "regional", "name": "Las Bravas", "phone": "+34 91 522 85 81", "website": "https://lasbravas.com/"}}, {"type": "node", "id": 2694514309, "lat": 40.4173248, "lon": -3.7060621, "tags": {"addr:city": "Madrid", "addr:housenumber": "1", "addr:postcode": "28013", "addr:street": "Plaza de Celenque", "amenity": "restaurant", "cuisine": "regional", "name": "Taberna los 4 Robles"}}, {"type": "node", "id": 2736312597, "lat": 40.4172104, "lon": -3.7061106, "tags": {"addr:city": "Madrid", "addr:housenumber": "14", "addr:postcode": "28013", "addr:street": "Calle Arenal", "amenity": "cafe", "brand": "Starbucks", "brand:wikidata": "Q37158", "brand:wikipedia": "en:Starbucks", "cuisine": "coffee_shop", "name": "Starbucks", "official_name": "Starbucks Coffee", "takeaway": "yes", "website": "http://www.starbucks.es/"}}, {"type": "node", "id": 2752824256, "lat": 40.4155198, "lon": -3.7017311, "tags": {"addr:housenumber": "19", "addr:street": "Calle de la Cruz", "amenity": "restaurant", "cuisine": "regional", "name": "El Jard\u00edn"}}, {"type": "node", "id": 2781347240, "lat": 40.4173628, "lon": -3.7060503, "tags": {"addr:city": "Madrid", "addr:housenumber": "1", "addr:postcode": "28013", "addr:street": "Plaza de Celenque", "amenity": "restaurant", "cuisine": "regional", "name": "Ca\u00f1as y Tapas", "phone": "+34 91 522 14 15", "website": "http://www.canasytapas.es/index.php?option=com_content&view=article&id=201"}}, {"type": "node", "id": 2959275505, "lat": 40.4152305, "lon": -3.7032937}, {"type": "node", "id": 2959275507, "lat": 40.4152541, "lon": -3.7034394}, {"type": "node", "id": 3191432885, "lat": 40.4160851, "lon": -3.7054529, "tags": {"addr:city": "Madrid", "addr:country": "ES", "addr:housenumber": "5", "addr:postcode": "28012", "addr:street": "Calle de las Postas", "amenity": "pub", "name": "Cervecer\u00eda Sol Mayor"}}, {"type": "node", "id": 3208415239, "lat": 40.4150841, "lon": -3.7036773}, {"type": "node", "id": 3208415244, "lat": 40.4151001, "lon": -3.7037804}, {"type": "node", "id": 3208415249, "lat": 40.4151139, "lon": -3.7038486}, {"type": "node", "id": 3208415252, "lat": 40.4151257, "lon": -3.7033415}, {"type": "node", "id": 3208415254, "lat": 40.4151434, "lon": -3.7039866}, {"type": "node", "id": 3208415364, "lat": 40.4151843, "lon": -3.7036384}, {"type": "node", "id": 3208415366, "lat": 40.4151886, "lon": -3.7042141}, {"type": "node", "id": 3208415378, "lat": 40.4152332, "lon": -3.7036185}, {"type": "node", "id": 3208415380, "lat": 40.4152391, "lon": -3.7038313}, {"type": "node", "id": 3208415392, "lat": 40.4152658, "lon": -3.703928}, {"type": "node", "id": 3208415393, "lat": 40.4152731, "lon": -3.7038211}, {"type": "node", "id": 3208415394, "lat": 40.4152808, "lon": -3.7039797}, {"type": "node", "id": 3208415395, "lat": 40.4152803, "lon": -3.7035992}, {"type": "node", "id": 3208415403, "lat": 40.415324, "lon": -3.704132}, {"type": "node", "id": 3257182655, "lat": 40.4152056, "lon": -3.7038672}, {"type": "node", "id": 3257182656, "lat": 40.4152154, "lon": -3.7039026}, {"type": "node", "id": 3257182657, "lat": 40.415244, "lon": -3.7038489}, {"type": "node", "id": 3257182658, "lat": 40.4152538, "lon": -3.7038843}, {"type": "node", "id": 3257183361, "lat": 40.4153259, "lon": -3.7041404}, {"type": "node", "id": 3296507287, "lat": 40.4158361, "lon": -3.7027941, "tags": {"addr:housenumber": "7", "addr:postcode": "28012", "addr:street": "Calle de C\u00e1diz", "amenity": "restaurant", "cuisine": "vegan", "name": "Freedom Cakes", "opening_hours": "Mo-Su 09:00-00:00", "phone": "+34 910 74 13 47", "website": "https://freedomcakes.es/"}}, {"type": "node", "id": 3296507294, "lat": 40.4153388, "lon": -3.7024723, "tags": {"addr:city": "Madrid", "addr:housenumber": "9", "addr:postcode": "28012", "addr:street": "Calle de Barcelona", "amenity": "restaurant", "cuisine": "regional", "name": "La Tintorer\u00eda", "phone": "+34 91 521 4878"}}, {"type": "node", "id": 3339382545, "lat": 40.415241, "lon": -3.7026551, "tags": {"addr:city": "Madrid", "addr:housenumber": "12", "addr:street": "Calle de Barcelona", "amenity": "restaurant", "name": "Taberna La Descubierta", "phone": "+34 649 357 923", "website": "http://www.tabernamalaspina.com"}}, {"type": "node", "id": 3411959154, "lat": 40.4175116, "lon": -3.7044088}, {"type": "node", "id": 3411963477, "lat": 40.4173999, "lon": -3.7043363, "tags": {"addr:city": "Madrid", "addr:country": "ES", "addr:housenumber": "3", "addr:postcode": "28013", "addr:street": "Calle Preciados", "entrance": "main", "source": "survey"}}, {"type": "node", "id": 3412521667, "lat": 40.4173427, "lon": -3.7050734}, {"type": "node", "id": 3412523839, "lat": 40.4176411, "lon": -3.7034534, "tags": {"amenity": "restaurant", "cuisine": "spanish", "name": "All U Can Eat", "opening_hours": "Mo-Su 10:00-02:00"}}, {"type": "node", "id": 3413025236, "lat": 40.4173435, "lon": -3.7030839, "tags": {"addr:city": "Madrid", "addr:country": "ES", "addr:housenumber": "3", "addr:postcode": "28013", "addr:street": "Calle de la Montera", "amenity": "pub", "entrance": "main", "name": "Viandas de Salamanca", "source": "survey"}}, {"type": "node", "id": 3417386059, "lat": 40.4158311, "lon": -3.7025533, "tags": {"addr:city": "Madrid", "addr:housenumber": "9", "addr:postcode": "28012", "addr:street": "Calle de C\u00e1diz", "amenity": "restaurant", "name": "Taberna Malaspina", "phone": "+34 649 357 923"}}, {"type": "node", "id": 3431845450, "lat": 40.4179741, "lon": -3.7027399, "tags": {"amenity": "restaurant", "cuisine": "spanish", "name": "All U Can Eat"}}, {"type": "node", "id": 3498988820, "lat": 40.4156083, "lon": -3.7016129, "tags": {"addr:city": "Madrid", "addr:country": "ES", "addr:housenumber": "15", "addr:postcode": "28014", "addr:street": "Calle de la Cruz", "amenity": "restaurant", "contact:facebook": "https://es-es.facebook.com/pages/La-Oreja-de-Jaime/183049875039416", "cuisine": "regional", "name": "La Oreja de Jaime"}}, {"type": "node", "id": 3502524107, "lat": 40.4159751, "lon": -3.7059115, "tags": {"amenity": "ice_cream", "brand": "100 Montaditos", "brand:wikidata": "Q8355805", "brand:wikipedia": "en:Cervecer\u00eda 100 Montaditos", "cuisine": "sandwich", "name": "Heladeria Madrid"}}, {"type": "node", "id": 3512921641, "lat": 40.4170233, "lon": -3.7042768, "tags": {"addr:city": "Madrid", "addr:country": "ES", "addr:housenumber": "10", "addr:postcode": "28013", "addr:street": "Plaza de la Puerta del Sol", "addr:ward": "Sol", "entrance": "main"}}, {"type": "node", "id": 3530404605, "lat": 40.4183094, "lon": -3.7030273, "tags": {"addr:housenumber": "38", "addr:postcode": "28013", "addr:street": "Calle de Tetu\u00e1n", "amenity": "fast_food", "brand": "Subway", "brand:wikidata": "Q244457", "brand:wikipedia": "en:Subway (restaurant)", "cuisine": "sandwich", "name": "Subway", "takeaway": "yes"}}, {"type": "node", "id": 3530404607, "lat": 40.4177128, "lon": -3.7034054, "tags": {"addr:city": "Madrid", "addr:postcode": "28013", "addr:street": "Calle de Tetu\u00e1n", "amenity": "restaurant", "cuisine": "regional", "name": "La Farola"}}, {"type": "node", "id": 3530429107, "lat": 40.4156223, "lon": -3.7017857, "tags": {"addr:city": "Madrid", "addr:housenumber": "14", "addr:postcode": "28012", "addr:street": "Calle de la Cruz", "amenity": "restaurant", "contact:facebook": "https://es-es.facebook.com/pages/Museo-del-Vino/130785190316104", "cuisine": "regional", "name": "Museo del Vino"}}, {"type": "node", "id": 3627264639, "lat": 40.4158859, "lon": -3.7027725, "tags": {"addr:city": "Madrid", "addr:housenumber": "7", "addr:postcode": "28002", "addr:street": "Calle de C\u00e1diz", "amenity": "restaurant", "name": "Cocotito", "phone": "+34 91 723 5106"}}, {"type": "node", "id": 3644961939, "lat": 40.4176096, "lon": -3.7027478, "tags": {"addr:city": "Madrid", "addr:housenumber": "12", "addr:postcode": "28013", "addr:street": "Calle de la Montera", "amenity": "bar", "contact:phone": "+34 915326151", "contact:website": "http://cafeandtapas.com/", "name": "Caf\u00e9 y Tapas"}}, {"type": "node", "id": 3644961944, "lat": 40.4176421, "lon": -3.7027315, "tags": {"addr:city": "Madrid", "addr:housenumber": "12", "addr:postcode": "28013", "addr:street": "Calle de la Montera", "amenity": "restaurant", "contact:phone": "+34 915326949", "contact:website": "http://www.udon.es/es/restaurants/madrid/udon-sol", "cuisine": "asian", "name": "Udon Noodle Restaurant"}}, {"type": "node", "id": 3671513865, "lat": 40.415396, "lon": -3.7056508}, {"type": "node", "id": 3673294266, "lat": 40.4152453, "lon": -3.7057952, "tags": {"addr:city": "Madrid", "addr:housenumber": "5", "addr:postcode": "28012", "addr:street": "Plaza de Santa Cruz", "amenity": "restaurant", "contact:phone": "+34 913 66 44 28", "name": "Dixie"}}, {"type": "node", "id": 3682248287, "lat": 40.4160993, "lon": -3.7056571, "tags": {"addr:city": "Madrid", "addr:country": "ES", "addr:housenumber": "10", "addr:postcode": "28012", "addr:street": "Calle de las Postas", "amenity": "restaurant", "cuisine": "regional", "name": "San Crist\u00f3bal"}}, {"type": "node", "id": 3682258980, "lat": 40.4156642, "lon": -3.705676, "tags": {"addr:city": "Madrid", "addr:country": "ES", "addr:housenumber": "11", "addr:postcode": "28012", "addr:street": "Calle de San Crist\u00f3bal", "amenity": "restaurant", "cuisine": "regional", "name": "El Calamar"}}, {"type": "node", "id": 3682258981, "lat": 40.4155575, "lon": -3.7056944, "tags": {"addr:city": "Madrid", "addr:country": "ES", "addr:housenumber": "13", "addr:postcode": "28012", "addr:street": "Calle de San Crist\u00f3bal", "amenity": "restaurant", "cuisine": "regional", "name": "Rodr\u00edguez"}}, {"type": "node", "id": 3690186516, "lat": 40.4180585, "lon": -3.7049442}, {"type": "node", "id": 3690186517, "lat": 40.4180897, "lon": -3.7050132}, {"type": "node", "id": 3690186519, "lat": 40.4180872, "lon": -3.7050079}, {"type": "node", "id": 3715230143, "lat": 40.418529, "lon": -3.7051166, "tags": {"addr:city": "Madrid", "addr:housenumber": "11", "addr:postcode": "28013", "addr:street": "Calle Preciados", "name": "Captain Candy Shop", "shop": "confectionery"}}, {"type": "node", "id": 3757077741, "lat": 40.4181247, "lon": -3.7024803, "tags": {"addr:city": "Madrid", "addr:housenumber": "22", "addr:postcode": "28013", "addr:street": "Calle de la Montera", "amenity": "restaurant", "contact:phone": "+34 91 531 10 57", "contact:website": "http://www.restauranteciudaddetui.com/", "cuisine": "regional", "name": "Ciudad de Tui"}}, {"type": "node", "id": 3810582316, "lat": 40.4169732, "lon": -3.7041043, "tags": {"shop": "kiosk"}}, {"type": "node", "id": 3822145336, "lat": 40.4168494, "lon": -3.7051174, "tags": {"amenity": "cafe", "cuisine": "asian", "name": "Wowble!"}}, {"type": "node", "id": 3946850007, "lat": 40.4181072, "lon": -3.7026663, "tags": {"amenity": "bar", "name": "Caf\u00e9 real cake"}}, {"type": "node", "id": 3946850012, "lat": 40.4178329, "lon": -3.7028181, "tags": {"addr:city": "Madrid", "addr:housenumber": "13", "addr:postcode": "28013", "addr:street": "Calle de la Montera", "amenity": "restaurant", "contact:website": "http://www.lacuevade1900.es/", "name": "La cueva de 1900"}}, {"type": "node", "id": 3976285870, "lat": 40.4180771, "lon": -3.7031781, "tags": {"addr:city": "Madrid", "addr:housenumber": "30", "addr:postcode": "28013", "addr:street": "Calle de Tetu\u00e1n", "amenity": "restaurant", "contact:phone": "+34 91 523 3062", "contact:website": "http://www.sidreria.com/elmanantial/detalle.asp", "cuisine": "regional", "name": "El Manantial"}}, {"type": "node", "id": 3976300417, "lat": 40.4178277, "lon": -3.7033283, "tags": {"addr:city": "Madrid", "addr:housenumber": "24", "addr:postcode": "28013", "addr:street": "Calle de Tetu\u00e1n", "amenity": "restaurant", "contact:facebook": "https://www.facebook.com/pages/Wok-Sun-Madrid/619418698187188", "contact:phone": "+34910166216", "cuisine": "asian", "name": "Wok Sun"}}, {"type": "node", "id": 3976300418, "lat": 40.4162502, "lon": -3.7016123, "tags": {"addr:city": "Madrid", "addr:housenumber": "3", "addr:postcode": "28012", "addr:street": "Calle de la Victoria", "amenity": "bar", "contact:facebook": "https://www.facebook.com/Cerveceria-Cruz-de-Malta-443679125827986/info/?tab=overview", "name": "Cervecer\u00eda Cruz de Malta"}}, {"type": "node", "id": 3976300419, "lat": 40.4161059, "lon": -3.7016016, "tags": {"addr:city": "Madrid", "addr:housenumber": "5-7", "addr:postcode": "28012", "addr:street": "Calle de la Victoria", "amenity": "restaurant", "contact:facebook": "https://es-la.facebook.com/pages/Venta-El-Busc%C3%B3n/154979251214463", "contact:phone": "+34 915 22 54 12", "cuisine": "regional", "name": "Venta El Busc\u00f3n", "wikidata": "Q54894329"}}, {"type": "node", "id": 3986188348, "lat": 40.4152835, "lon": -3.7026327, "tags": {"addr:city": "Madrid", "addr:country": "ES", "addr:housenumber": "12", "addr:postcode": "28012", "addr:street": "Calle de Barcelona", "amenity": "restaurant", "cuisine": "spanish", "name": "Taberna Kaixo", "phone": "+34 915 23 2133", "website": "http://www.tabernakaixo.com"}}, {"type": "node", "id": 3993194016, "lat": 40.415488, "lon": -3.7022561, "tags": {"addr:city": "Madrid", "addr:country": "ES", "addr:housenumber": "9", "addr:postcode": "28012", "addr:street": "Calle de Espoz y Mina", "amenity": "bar", "name": "Bodegas Melibea"}}, {"type": "node", "id": 4111348048, "lat": 40.4169917, "lon": -3.704426}, {"type": "node", "id": 4111348053, "lat": 40.4171522, "lon": -3.7045311}, {"type": "node", "id": 4171202750, "lat": 40.4161768, "lon": -3.7022004, "tags": {"addr:city": "Madrid", "addr:housenumber": "5", "addr:postcode": "28012", "addr:street": "Pasage de Matheu", "amenity": "restaurant", "contact:phone": "+34 91 521 51 41", "contact:website": "http://lasbravas.com/", "name": "Las Bravas"}}, {"type": "node", "id": 4171202751, "lat": 40.4161717, "lon": -3.7020958, "tags": {"addr:city": "Madrid", "addr:housenumber": "1", "addr:postcode": "28012", "addr:street": "Pasage de Matheu", "amenity": "restaurant", "cuisine": "regional", "name": "La R\u00eda"}}, {"type": "node", "id": 4171202752, "lat": 40.4161588, "lon": -3.7017843, "tags": {"addr:city": "Madrid", "addr:housenumber": "4", "addr:postcode": "28012", "addr:street": "Calle de la Victoria", "amenity": "restaurant", "contact:phone": "+34 915 22 22 93", "contact:website": "http://www.tabernalacarmela.com/", "cuisine": "regional", "name": "La Carmela"}}, {"type": "node", "id": 4171202753, "lat": 40.4160644, "lon": -3.7020569, "tags": {"addr:city": "Madrid", "addr:postcode": "28012", "addr:street": "Pasage de Matheu", "amenity": "bar", "name": "O' Reilly's"}}, {"type": "node", "id": 4171202754, "lat": 40.4160655, "lon": -3.7021951, "tags": {"addr:city": "Madrid", "addr:street": "Pasage de Matheu", "amenity": "restaurant", "name": "El Roc\u00edo"}}, {"type": "node", "id": 4171202755, "lat": 40.4151598, "lon": -3.701715, "tags": {"addr:city": "Madrid", "addr:postcode": "28012", "addr:street": "Calle de \u00c1lvarez Gato", "amenity": "restaurant", "cuisine": "spanish", "name": "Las Brasas de Vulcano"}}, {"type": "node", "id": 4177215769, "lat": 40.4150858, "lon": -3.7018637, "tags": {"addr:city": "Madrid", "addr:housenumber": "4", "addr:postcode": "28012", "addr:street": "Calle de \u00c1lvarez Gato", "amenity": "restaurant", "contact:email": "reservas@inclanbrutalbar.com", "contact:facebook": "https://www.facebook.com/inclanbrutalbar", "contact:phone": "(+34) 910 23 80 38", "cuisine": "spanish", "name": "Incl\u00e1n Brutal Bar", "name:de": "Incl\u00e1n Brutal Bar", "opening_hours": "Mo-Su 12:00-01:30", "website": "http://www.inclanbrutal.com/"}}, {"type": "node", "id": 4177215770, "lat": 40.4150959, "lon": -3.7021162, "tags": {"addr:city": "Madrid", "addr:housenumber": "27", "addr:postcode": "28012", "addr:street": "Calle de la Cruz", "amenity": "restaurant", "contact:website": "http://www.latiacebolla.es/", "cuisine": "regional", "name": "La T\u00eda Cebolla", "toilets:wheelchair": "no", "wheelchair": "limited"}}, {"type": "node", "id": 4177215771, "lat": 40.4150174, "lon": -3.7024011, "tags": {"addr:city": "Madrid", "addr:housenumber": "28", "addr:postcode": "28012", "addr:street": "Calle de Espoz y Mina", "amenity": "restaurant", "contact:facebook": "https://www.facebook.com/pages/Cerveceria-La-abuela/309596725756168", "contact:phone": "+34 915 22 79 50", "cuisine": "regional", "name": "La Abuela", "wheelchair": "no"}}, {"type": "node", "id": 4177215773, "lat": 40.4160388, "lon": -3.7022407, "tags": {"addr:city": "Madrid", "addr:housenumber": "5", "addr:postcode": "28012", "addr:street": "Calle de Espoz y Mina", "amenity": "restaurant", "contact:email": "reservas@restaurantebaramigos.com", "contact:phone": "+34 910091738", "contact:website": "http://www.restaurantebaramigos.com/", "name": "Amigos"}}, {"type": "node", "id": 4213650553, "lat": 40.4163934, "lon": -3.7023483, "tags": {"addr:city": "Madrid", "addr:housenumber": "4", "addr:postcode": "28012", "addr:street": "Calle de Espoz y Mina", "amenity": "restaurant", "contact:email": "serafina@serafinacocinabar.com", "contact:phone": "+34 91 532 43 16", "contact:website": "http://www.serafinacocinabar.com/", "name": "Serafina"}}, {"type": "node", "id": 4213675797, "lat": 40.4158363, "lon": -3.7022443, "tags": {"addr:city": "Madrid", "addr:housenumber": "7", "addr:postcode": "28012", "addr:street": "Calle de Espoz y Mina", "amenity": "pub", "contact:website": "http://www.irishpubdubliners.com/", "name": "Dubliners"}}, {"type": "node", "id": 4213675798, "lat": 40.4159135, "lon": -3.7023903, "tags": {"addr:city": "Madrid", "addr:housenumber": "8", "addr:postcode": "28012", "addr:street": "Calle de Espoz y Mina", "amenity": "bar", "contact:website": "http://maskcopas.com/espozymina/", "name": "+KCopas"}}, {"type": "node", "id": 4213675799, "lat": 40.4155382, "lon": -3.7022583, "tags": {"addr:city": "Madrid", "addr:housenumber": "9", "addr:postcode": "28012", "addr:street": "Calle de Espoz y Mina", "amenity": "fast_food", "contact:phone": "+34 911 736 964", "contact:website": "http://tierraburritos.com/", "name": "Tierra"}}, {"type": "node", "id": 4213675800, "lat": 40.4156614, "lon": -3.7023791, "tags": {"addr:city": "Madrid", "addr:housenumber": "14", "addr:postcode": "28012", "addr:street": "Calle de Espoz y Mina", "amenity": "bar", "contact:facebook": "https://es-la.facebook.com/CafeDelSoulMadrid/info/?tab=overview", "contact:phone": "+34 915 23 16 06", "name": "Caf\u00e9 del Soul"}}, {"type": "node", "id": 4213675801, "lat": 40.4154407, "lon": -3.702394, "tags": {"addr:city": "Madrid", "addr:housenumber": "18", "addr:postcode": "28012", "addr:street": "Calle de Espoz y Mina", "amenity": "restaurant", "contact:facebook": "https://es-es.facebook.com/tapasymas2013", "contact:phone": "+34 915 21 23 37", "cuisine": "regional", "name": "Tapas & M\u00e1s"}}, {"type": "node", "id": 4237445568, "lat": 40.4167572, "lon": -3.7018552, "tags": {"addr:city": "Madrid", "addr:housenumber": "3", "addr:postcode": "28014", "addr:street": "Carrera de San Jer\u00f3nimo", "amenity": "cafe", "name": "Market Caf\u00e9"}}, {"type": "node", "id": 4237445569, "lat": 40.4167462, "lon": -3.7016737, "tags": {"addr:city": "Madrid", "addr:housenumber": "3", "addr:postcode": "28014", "addr:street": "Carrera de San Jer\u00f3nimo", "amenity": "restaurant", "contact:phone": "+34 915212258", "contact:website": "http://www.bacoa.es/", "cuisine": "burger", "name": "Bacoa"}}, {"type": "node", "id": 4237445570, "lat": 40.4167395, "lon": -3.7015647, "tags": {"addr:city": "Madrid", "addr:housenumber": "5", "addr:postcode": "28014", "addr:street": "Carrera de San Jer\u00f3nimo", "amenity": "restaurant", "contact:phone": "+34 915 31 39 69", "contact:website": "http://www.lataurina.com/", "cuisine": "regional", "name": "La Taurina"}}, {"type": "node", "id": 4237445571, "lat": 40.4167364, "lon": -3.7015051, "tags": {"addr:city": "Madrid", "addr:housenumber": "5", "addr:postcode": "28014", "addr:street": "Carrera de San Jer\u00f3nimo", "amenity": "restaurant", "contact:phone": "+34 915 224 827", "contact:website": "http://www.demariarestaurante.es/", "cuisine": "argentinian", "name": "De Mar\u00eda"}}, {"type": "node", "id": 4237445572, "lat": 40.4166387, "lon": -3.7018387, "tags": {"addr:city": "Madrid", "addr:housenumber": "4", "addr:postcode": "28013", "addr:street": "Carrera de San Jer\u00f3nimo", "amenity": "cafe", "contact:website": "http://cafeandte.com/", "name": "Caf\u00e9 & T\u00e9"}}, {"type": "node", "id": 4307703191, "lat": 40.4151546, "lon": -3.7025402, "tags": {"amenity": "restaurant", "cuisine": "argentinian", "name": "Bayres Beef"}}, {"type": "node", "id": 4354515190, "lat": 40.4152005, "lon": -3.7024442, "tags": {"addr:city": "Madrid", "addr:country": "ES", "addr:housenumber": "22", "addr:postcode": "28012", "addr:street": "Calle de Espoz y Mina", "amenity": "restaurant", "name": "Bayres Beef"}}, {"type": "node", "id": 4355342498, "lat": 40.4176233, "lon": -3.7034772, "tags": {"amenity": "fast_food"}}, {"type": "node", "id": 4608397103, "lat": 40.4155568, "lon": -3.7016675, "tags": {"addr:city": "Madrid", "addr:country": "ES", "addr:housenumber": "17", "addr:postcode": "28012", "addr:street": "Calle de la Cruz", "amenity": "restaurant", "name": "Fatigas del querer", "name:es": "Fatigas del querer"}}, {"type": "node", "id": 4622384191, "lat": 40.4156318, "lon": -3.7026384, "tags": {"addr:city": "Madrid", "addr:country": "ES", "addr:housenumber": "4", "addr:postcode": "28012", "addr:street": "Calle de Barcelona", "amenity": "restaurant", "name": "En Busca del Tiempo", "name:es": "En Busca del Tiempo"}}, {"type": "node", "id": 4622394889, "lat": 40.4157857, "lon": -3.7030024, "tags": {"addr:housenumber": "4", "addr:street": "Calle de C\u00e1diz", "amenity": "restaurant", "name": "Rosi La Loca Taberna", "name:es": "Rosi La Loca Taberna"}}, {"type": "node", "id": 4643127964, "lat": 40.4175242, "lon": -3.7052576}, {"type": "node", "id": 4643127966, "lat": 40.417834, "lon": -3.7046712}, {"type": "node", "id": 4643127971, "lat": 40.4180914, "lon": -3.705115}, {"type": "node", "id": 4643127977, "lat": 40.417401, "lon": -3.7053117}, {"type": "node", "id": 4643128004, "lat": 40.4179717, "lon": -3.7049224}, {"type": "node", "id": 4643128009, "lat": 40.4178051, "lon": -3.7047447}, {"type": "node", "id": 4643128010, "lat": 40.4174494, "lon": -3.7043684}, {"type": "node", "id": 4643128014, "lat": 40.4172681, "lon": -3.7045978}, {"type": "node", "id": 4643128015, "lat": 40.4172642, "lon": -3.7046164}, {"type": "node", "id": 4643128017, "lat": 40.4172616, "lon": -3.7046624}, {"type": "node", "id": 4643128018, "lat": 40.417262, "lon": -3.7046851}, {"type": "node", "id": 4643128020, "lat": 40.4172676, "lon": -3.7047103}, {"type": "node", "id": 4643128024, "lat": 40.4177064, "lon": -3.7055468}, {"type": "node", "id": 4643128025, "lat": 40.4177763, "lon": -3.7055059}, {"type": "node", "id": 4643128026, "lat": 40.4177608, "lon": -3.7054613}, {"type": "node", "id": 4643128046, "lat": 40.4181101, "lon": -3.7050586}, {"type": "node", "id": 4643128134, "lat": 40.41714, "lon": -3.7045231}, {"type": "node", "id": 4643128135, "lat": 40.4171066, "lon": -3.7045012}, {"type": "node", "id": 4643128137, "lat": 40.4170327, "lon": -3.7044529}, {"type": "node", "id": 4643128138, "lat": 40.4169937, "lon": -3.7044273}, {"type": "node", "id": 4649420989, "lat": 40.4162805, "lon": -3.7060847, "tags": {"amenity": "cafe", "name": "Churrer\u00eda Chocolater\u00eda Las Farolas", "name:es": "Churrer\u00eda Chocolater\u00eda Las Farolas"}}, {"type": "node", "id": 4679933442, "lat": 40.4158599, "lon": -3.7017523, "tags": {"addr:housenumber": "8", "addr:postcode": "28012", "addr:street": "Calle de la Victoria", "amenity": "restaurant", "cuisine": "japanese", "email": "ramenhakatamadrid@gmail.com", "name": "Ramen Hakata", "phone": "+34 91 013 6648", "website": "https://ramen-hakata.com/"}}, {"type": "node", "id": 4699185076, "lat": 40.4171127, "lon": -3.7017006, "tags": {"addr:city": "Madrid", "addr:housenumber": "4", "addr:postcode": "28014", "addr:street": "Calle de Alcal\u00e1", "amenity": "restaurant", "contact:phone": "+34 915325970", "contact:website": "https://www.tommymels.com/", "cuisine": "burger", "name": "Tommy Mel's"}}, {"type": "node", "id": 4747225322, "lat": 40.4149638, "lon": -3.7022678, "tags": {"amenity": "bar", "name": "Bar Las Bravas"}}, {"type": "node", "id": 4756328521, "lat": 40.4157202, "lon": -3.7058617, "tags": {"addr:city": "Madrid", "addr:country": "ES", "addr:housenumber": "15", "addr:postcode": "28012", "addr:street": "Calle del Marqu\u00e9s Viudo de Pontejos", "amenity": "fast_food", "brand": "Subway", "brand:wikidata": "Q244457", "brand:wikipedia": "en:Subway (restaurant)", "cuisine": "sandwich", "internet_access": "wlan", "name": "Subway", "name:de": "Subway", "name:en": "Subway Sandwiches", "takeaway": "yes", "website": "http://subwayspain.com"}}, {"type": "node", "id": 4776957478, "lat": 40.4157859, "lon": -3.7057529, "tags": {"addr:city": "Madrid", "addr:housenumber": "10", "addr:postcode": "28012", "addr:street": "Calle del Marqu\u00e9s Viudo de Pontejos", "amenity": "restaurant", "contact:website": "http://lizarran.es/", "cuisine": "regional", "name": "Lizarran"}}, {"type": "node", "id": 4809627324, "lat": 40.4157563, "lon": -3.7026653, "tags": {"addr:housenumber": "2", "addr:postcode": "28012", "addr:street": "Calle de Barcelona", "amenity": "restaurant", "cuisine": "spanish", "email": "info@cuevaselsecreto.com", "name": "Cuevas El Secreto", "name:de": "Cuevas El Secreto", "phone": "+34915318291", "website": "http://www.cuevaselsecreto.com"}}, {"type": "node", "id": 4860765421, "lat": 40.4171759, "lon": -3.7046191, "tags": {"addr:city": "Madrid", "addr:country": "ES", "addr:housenumber": "12", "addr:postcode": "28013", "addr:street": "Calle de Tetu\u00e1n", "amenity": "bar", "name": "Casa Labra", "phone": "+34 915 310 616", "website": "http://www.casalabra.es/", "wikidata": "Q5754287"}}, {"type": "node", "id": 4949185922, "lat": 40.4150133, "lon": -3.7026001, "tags": {"addr:city": "Madrid", "addr:country": "ES", "addr:housenumber": "26", "addr:postcode": "28012", "addr:street": "Calle de la Cruz", "amenity": "restaurant", "cuisine": "burger", "name": "Hamburgueser\u00eda Don Oso", "name:es": "Hamburgueser\u00eda Don Oso", "website": "http://www.hamburgueseriasdonoso.com"}}, {"type": "node", "id": 4957873421, "lat": 40.4180812, "lon": -3.7044004, "tags": {"amenity": "restaurant", "cuisine": "ice_cream", "internet_access": "wlan", "name": "llaollao."}}, {"type": "node", "id": 4993898021, "lat": 40.4170232, "lon": -3.7043301, "tags": {"amenity": "restaurant", "name": "Puerta al sol by Chicote", "name:es": "Puerta al sol by Chicote", "wheelchair": "no"}}, {"type": "node", "id": 5045382921, "lat": 40.4157689, "lon": -3.7029069, "tags": {"addr:housenumber": "4", "addr:street": "Calle de C\u00e1diz", "amenity": "cafe", "name": "Rosi La Loca"}}, {"type": "node", "id": 5087576121, "lat": 40.4171398, "lon": -3.7057825, "tags": {"amenity": "restaurant", "name": "la (verdadera) cueva de 1900"}}, {"type": "node", "id": 5161918021, "lat": 40.4155528, "lon": -3.7018651, "tags": {"addr:city": "Madrid", "addr:housenumber": "14", "addr:postcode": "28012", "addr:street": "Calle de la Cruz", "amenity": "restaurant", "cuisine": "tapas", "name": "Casa Toni"}}, {"type": "node", "id": 5431727958, "lat": 40.4178835, "lon": -3.7039567, "tags": {"addr:city": "Madrid", "addr:housenumber": "7", "addr:postcode": "28013", "addr:street": "Calle del Carmen", "amenity": "cafe", "contact:website": "http://cafeandte.com/", "name": "Caf\u00e9 & T\u00e9", "wheelchair": "no"}}, {"type": "node", "id": 5431727961, "lat": 40.417695, "lon": -3.7038202, "tags": {"addr:city": "Madrid", "addr:housenumber": "3", "addr:postcode": "28013", "addr:street": "Calle del Carmen", "amenity": "cafe", "contact:phone": "+34 915 21 54 41", "contact:website": "https://cafeteriaarmenia.es/", "name": "Cafeter\u00eda Armenia", "wheelchair": "no"}}, {"type": "node", "id": 5431727963, "lat": 40.4178056, "lon": -3.7037008, "tags": {"addr:city": "Madrid", "addr:housenumber": "6", "addr:postcode": "28013", "addr:street": "Calle del Carmen", "amenity": "ice_cream", "brand": "Llaollao", "brand:wikidata": "Q12163048", "brand:wikipedia": "es:Llaollao", "contact:website": "https://www.llaollaoweb.com", "cuisine": "frozen_yogurt", "name": "Llaollao", "wheelchair": "limited"}}, {"type": "node", "id": 5431727967, "lat": 40.4173979, "lon": -3.7037268, "tags": {"addr:city": "Madrid", "addr:housenumber": "1", "addr:postcode": "28013", "addr:street": "Calle del Carmen", "amenity": "ice_cream", "brand": "H\u00e4agen-Dazs", "brand:wikidata": "Q1143333", "brand:wikipedia": "en:H\u00e4agen-Dazs", "name": "H\u00e4agen-Dazs", "wheelchair": "limited"}}, {"type": "node", "id": 5475598895, "lat": 40.4164488, "lon": -3.7031743, "tags": {"addr:city": "Madrid", "addr:housenumber": "3", "addr:postcode": "28012", "addr:street": "Calle de Carretas", "amenity": "fast_food", "cuisine": "drinks", "name": "Wowble!", "wheelchair": "no"}}, {"type": "node", "id": 5475598904, "lat": 40.4151423, "lon": -3.7031751, "tags": {"addr:city": "Madrid", "addr:housenumber": "29", "addr:postcode": "28012", "addr:street": "Calle de Carretas", "amenity": "restaurant", "wheelchair": "no"}}, {"type": "node", "id": 5556466842, "lat": 40.4155265, "lon": -3.7052861, "tags": {"addr:city": "Madrid", "addr:housenumber": "9", "addr:postcode": "28012", "addr:street": "Calle de Esparteros", "amenity": "cafe", "contact:phone": "+34 91 531 75 56", "contact:website": "http://lospinchitos.com/", "name": "Los Pinchitos", "wheelchair": "limited"}}, {"type": "node", "id": 5556466844, "lat": 40.4154113, "lon": -3.7053412, "tags": {"addr:city": "Madrid", "addr:housenumber": "11", "addr:postcode": "28012", "addr:street": "Calle de Esparteros", "amenity": "cafe", "name": "Esparteros", "wheelchair": "no"}}, {"type": "node", "id": 5696349824, "lat": 40.4153063, "lon": -3.7060953, "tags": {"addr:city": "Madrid", "addr:country": "ES", "addr:housenumber": "3", "addr:postcode": "28012", "addr:street": "Calle de Zaragoza", "name": "Pasteler\u00eda Plaza Mayor", "shop": "confectionery"}}, {"type": "node", "id": 5745919321, "lat": 40.4163034, "lon": -3.7042889, "tags": {"addr:city": "Madrid", "addr:country": "ES", "addr:housenumber": "2", "addr:postcode": "28012", "addr:street": "Calle del Correo", "amenity": "restaurant", "cuisine": "spanish;chicken;fine_dining;diner;fish;fish_and_chips;french;ice_cream", "name": "De Maria", "name:en": "De Maria PARRILLA", "phone": "+34 915233494"}}, {"type": "node", "id": 5748819621, "lat": 40.4173746, "lon": -3.7035136, "tags": {"addr:street": "Calle del Carmen", "amenity": "cafe", "cuisine": "spanish;chicken;fine_dining;diner;fish;fish_and_chips", "internet_access": "wlan", "name": "Cafe Europa"}}, {"type": "node", "id": 5778771753, "lat": 40.4150187, "lon": -3.704848, "tags": {"amenity": "restaurant", "cuisine": "spanish", "internet_access": "wlan", "name": "Mayor Taperia 2"}}, {"type": "node", "id": 5784746841, "lat": 40.4183018, "lon": -3.7017555, "tags": {"addr:city": "Madrid", "addr:housenumber": "5", "addr:postcode": "28013", "addr:street": "Calle de la Aduana", "amenity": "restaurant", "contact:phone": "+34 91166 66 83", "contact:website": "https://www.pedepisco.com/", "cuisine": "peruvian", "name": "Pe de Pisco"}}, {"type": "node", "id": 6065452886, "lat": 40.4176708, "lon": -3.7027145, "tags": {"addr:housenumber": "10-12", "addr:street": "Calle de la Montera", "amenity": "restaurant", "name": "Do\u00f1aluz sky rooftop"}}, {"type": "node", "id": 6357173374, "lat": 40.4151651, "lon": -3.7033238, "tags": {"entrance": "yes"}}, {"type": "node", "id": 6357173378, "lat": 40.4152605, "lon": -3.7041755, "tags": {"entrance": "yes"}}, {"type": "node", "id": 6372738762, "lat": 40.4154085, "lon": -3.7057355}, {"type": "node", "id": 6372738763, "lat": 40.4153256, "lon": -3.7056674}, {"type": "node", "id": 6439431885, "lat": 40.4157206, "lon": -3.7057547, "tags": {"amenity": "restaurant", "name": "Asador El Marqu\u00e9s", "opening_hours": "Su-Th 10:00-24:00; Fr-Sa 10:00-01:00", "website": "https://restaurantemarquesdepontejos.com/"}}, {"type": "node", "id": 6553827367, "lat": 40.4171219, "lon": -3.7027213, "tags": {"amenity": "fast_food", "brand": "Rodilla", "brand:wikidata": "Q7356777", "brand:wikipedia": "es:Rodilla (franquicia)", "cuisine": "sandwich", "diet:vegetarian": "yes", "drive_through": "no", "name": "Rodilla", "takeaway": "yes"}}, {"type": "node", "id": 6670230285, "lat": 40.4162686, "lon": -3.7021962, "tags": {"addr:housenumber": "3", "addr:street": "Calle de Espoz y Mina", "name": "Biocentro La Canela", "shop": "supermarket"}}, {"type": "node", "id": 6693480850, "lat": 40.4152377, "lon": -3.7042458, "tags": {"amenity": "restaurant", "cuisine": "spanish", "name": "La Casa de las Torrijas"}}, {"type": "node", "id": 6727823385, "lat": 40.4163937, "lon": -3.7016167, "tags": {"amenity": "bar", "name": "La fontana de oro", "name:en": "La fontana de oro", "name:es": "La fontana de oro"}}, {"type": "node", "id": 6985287087, "lat": 40.4151987, "lon": -3.702136, "tags": {"amenity": "ice_cream", "name": "Eccolo", "opening_hours": "Su-Th 16:00-01:00, Fr,Sa 15:00-01:00"}}, {"type": "node", "id": 7161261885, "lat": 40.4164965, "lon": -3.7059265, "tags": {"addr:city": "Madrid", "addr:housenumber": "10", "addr:postcode": "28013", "addr:street": "Calle Mayor", "name": "El Riojano", "name:es": "El Riojano", "name:ru": "\u041a\u043e\u0440\u043e\u043b\u0435\u0432\u0441\u043a\u0430\u044f \u043a\u043e\u043d\u0434\u0438\u0442\u0435\u0440\u0441\u043a\u0430\u044f \u042d\u043b\u044c \u0420\u0438\u043e\u0445\u0430\u043d\u043e", "opening_hours": "Mo-Su 09:00-21:00", "phone": "+34 91 3664482", "shop": "confectionery", "website": "https://pasteleriaelriojano.com/"}}, {"type": "node", "id": 7978219489, "lat": 40.4161832, "lon": -3.7022408, "tags": {"name": "Alimentaci\u00f3n Solmina", "phone": "+34 915 213041", "shop": "convenience"}}, {"type": "node", "id": 8095017481, "lat": 40.4179924, "lon": -3.703242, "tags": {"amenity": "restaurant", "name": "La Cuenva de 1900"}}, {"type": "node", "id": 8095017484, "lat": 40.4182364, "lon": -3.7030981, "tags": {"addr:city": "Madrid", "addr:country": "ES", "addr:housenumber": "36", "addr:postcode": "28013", "addr:street": "Calle de Tetu\u00e1n", "amenity": "ice_cream", "name": "La Pecera"}}, {"type": "node", "id": 8095017485, "lat": 40.418306, "lon": -3.7029695, "tags": {"name": "Alimentaci\u00f3n You Yuan", "shop": "convenience"}}, {"type": "node", "id": 8095017486, "lat": 40.4182774, "lon": -3.7028871, "tags": {"amenity": "pub", "name": "+ k copas"}}, {"type": "node", "id": 8234892318, "lat": 40.416026, "lon": -3.7058308, "tags": {"addr:city": "Madrid", "addr:country": "ES", "addr:housenumber": "12", "addr:postcode": "28012", "addr:street": "Calle de las Postas", "amenity": "restaurant", "cuisine": "mexican", "name": "PEPE TACO"}}, {"type": "node", "id": 8498108448, "lat": 40.4151605, "lon": -3.7040776}, {"type": "node", "id": 8677856416, "lat": 40.4150268, "lon": -3.7049141, "tags": {"addr:city": "Madrid", "addr:country": "ES", "addr:housenumber": "10", "addr:postcode": "28012", "addr:street": "Calle de la Bolsa", "amenity": "restaurant", "name": "La Imprenta", "website": "http://laimprentarestaurante.com/"}}, {"type": "node", "id": 8677891817, "lat": 40.4150191, "lon": -3.7050703, "tags": {"addr:city": "Madrid", "addr:housenumber": "12", "addr:postcode": "28012", "addr:street": "Calle de la Bolsa", "amenity": "restaurant", "contact:phone": "+34 91 005 97 27", "contact:website": "http://elhortera.com/", "name": "El Hortera", "old_name": "La Capilla de la Bolsa"}}, {"type": "node", "id": 8946357422, "lat": 40.4184313, "lon": -3.7050677, "tags": {"addr:city": "Madrid", "addr:country": "ES", "addr:housenumber": "11", "addr:postcode": "28013", "addr:street": "Calle Preciados", "amenity": "restaurant", "brand": "Hard Rock Cafe", "brand:wikidata": "Q918151", "brand:wikipedia": "en:Hard Rock Cafe", "cuisine": "american", "name": "Hard Rock Cafe", "opening_hours": "Mo-Su 12:00-02:00", "payment:bitcoin": "yes", "phone": "+34 91 436 4340", "website": "http://www.hardrock.com/locations/cafes3/cafe.aspx?LocationID=40&MIBEnumID=3", "wheelchair": "limited"}}, {"type": "node", "id": 9077087084, "lat": 40.4153927, "lon": -3.7020683, "tags": {"amenity": "fast_food", "cuisine": "kebab", "delivery": "yes", "diet:halal": "yes", "outdoor_seating": "no", "payment:maestro": "yes", "payment:mastercard": "yes", "payment:visa": "yes", "takeaway": "yes", "wheelchair": "no"}}, {"type": "node", "id": 9608480669, "lat": 40.4157768, "lon": -3.7017696, "tags": {"addr:housenumber": "8", "addr:street": "Calle de Victoria", "amenity": "bar", "name": "Baton Rouge Cocktail Bar"}}, {"type": "node", "id": 9661605771, "lat": 40.4152197, "lon": -3.7039418}, {"type": "node", "id": 9661605772, "lat": 40.4152168, "lon": -3.7039381}, {"type": "node", "id": 9661605773, "lat": 40.4151391, "lon": -3.7039665}, {"type": "node", "id": 9758926517, "lat": 40.4158392, "lon": -3.7017716, "tags": {"addr:housenumber": "8", "addr:postcode": "28012", "addr:street": "Calle de la Victoria", "amenity": "restaurant", "name": "Yamato BBQ"}}, {"type": "node", "id": 9758926518, "lat": 40.4154971, "lon": -3.7017597, "tags": {"addr:housenumber": "19", "addr:postcode": "28012", "addr:street": "Calle de la Cruz", "amenity": "restaurant", "contact:facebook": "gramabar", "contact:instagram": "gramabar", "email": "info@gramabar.com", "name": "Grama Lounge", "phone": "+34 91 240 55 87", "website": "https://gramabar.com/"}}, {"type": "node", "id": 9856192817, "lat": 40.4155736, "lon": -3.7022668, "tags": {"amenity": "restaurant", "name": "Urvan Street Food"}}, {"type": "node", "id": 9863567130, "lat": 40.4159371, "lon": -3.7022345, "tags": {"name": "Bazar", "shop": "supermarket"}}, {"type": "node", "id": 9874924918, "lat": 40.415207, "lon": -3.7024545, "tags": {"amenity": "restaurant", "name": "El Tr\u00e9bol Pizzas y Empanadas Estilo Argentino"}}, {"type": "node", "id": 9879470221, "lat": 40.4158994, "lon": -3.7052567, "tags": {"name": "Open 25", "shop": "convenience"}}, {"type": "node", "id": 9879471048, "lat": 40.4161531, "lon": -3.7055703, "tags": {"name": "Museo del Jamon", "shop": "deli"}}, {"type": "node", "id": 9879472609, "lat": 40.4159708, "lon": -3.7056424, "tags": {"name": "Captain Candy Shop", "shop": "confectionery"}}, {"type": "node", "id": 9881399617, "lat": 40.4176922, "lon": -3.7034029, "tags": {"addr:housenumber": "20", "addr:postcode": "28013", "addr:street": "Calle de Tetu\u00e1n", "amenity": "restaurant", "name": "La Arepera Resto-bar", "website": "https://laarepera.es/"}}, {"type": "node", "id": 9881426917, "lat": 40.4174436, "lon": -3.7037152, "tags": {"amenity": "ice_cream", "name": "Don Nino Gelateria & Pasticceria  Artigianale"}}, {"type": "node", "id": 9885629790, "lat": 40.4165999, "lon": -3.7051569, "tags": {"amenity": "fast_food", "name": "Taco Bell"}}, {"type": "node", "id": 9887098240, "lat": 40.4163132, "lon": -3.7058447, "tags": {"name": "Casa 1880 Turrones Artesanos", "phone": "+34 610 33 66 41", "shop": "confectionery", "source": "survey"}}, {"type": "way", "id": 254315616, "nodes": [48753285, 2601026821, 2601026822, 2601026818, 4111348053, 4643128134, 4643128135, 2627770567, 2627770556, 4643128137, 4643128138, 4111348048, 48753288, 2601026804, 3512921641, 2601026805, 48753285], "tags": {"addr:city": "Madrid", "addr:country": "ES", "addr:housenumber": "10", "addr:postcode": "28013", "addr:street": "Calle de Tetu\u00e1n", "brand": "El Corte Ingl\u00e9s", "brand:wikidata": "Q623133", "brand:wikipedia": "en:El Corte Ingl\u00e9s", "building": "yes", "building:levels": "5", "name": "El Corte Ingl\u00e9s", "name:es": "El Corte Ingl\u00e9s", "name:ru": "\u0422\u0426 \u042d\u043b\u044c \u041a\u043e\u0440\u0442\u0435 \u0418\u043d\u0433\u043b\u0435\u0441", "opening_hours": "Mo-Sa 10:00-22:00; Su 11:00-21:00", "shop": "department_store", "source": "WMS Catastro"}}, {"type": "way", "id": 314795206, "nodes": [9661605773, 3208415249, 3208415244, 3208415239, 3208415364, 3208415252, 6357173374, 2959275505, 2959275507, 3208415395, 3208415378, 3208415393, 3208415380, 3257182657, 3257182655, 3257182656, 3257182658, 3208415392, 9661605771, 9661605772, 9661605773], "tags": {"addr:city": "Madrid", "addr:country": "ES", "addr:housenumber": "12", "addr:postcode": "28012", "addr:street": "Calle de Carretas", "building": "yes", "layer": "1", "shop": "mall", "source": "PNOA", "source:date": "2009"}}, {"type": "way", "id": 470067965, "nodes": [2505396757, 4643127971, 2046739424, 2046739446, 4643128026, 4643128025, 4643128024, 2046739435, 2046739429, 4643127964, 4643127977, 2046739440, 2505396738, 3412521667, 4643128020, 2046739431, 4643128018, 4643128017, 2505396736, 4643128015, 4643128014, 2046739448, 2046739444, 2505396737, 2046739450, 3411963477, 4643128010, 3411959154, 2046739438, 4643127966, 4643128009, 2046739427, 2505396740, 2505396739, 2505396742, 2046739451, 4643128004, 2046739442, 3690186516, 3690186519, 3690186517, 4643128046, 2505396757], "tags": {"brand": "El Corte Ingl\u00e9s", "brand:wikidata": "Q623133", "brand:wikipedia": "en:El Corte Ingl\u00e9s", "building": "retail", "building:levels": "8", "name": "El Corte Ingl\u00e9s", "shop": "department_store", "source": "WMS Catastro"}}, {"type": "way", "id": 680589551, "nodes": [6372738763, 3671513865, 6372738762, 1648675791, 2600764140, 6372738763], "tags": {"addr:city": "Madrid", "addr:country": "ES", "addr:housenumber": "6", "addr:postcode": "28012", "addr:street": "Plaza de Santa Cruz", "amenity": "cafe", "level": "0", "name": "Corner Caf\u00e9"}}, {"type": "way", "id": 1051365755, "nodes": [3208415392, 3208415394, 3208415403, 3257183361, 6357173378, 3208415366, 8498108448, 3208415254, 9661605773, 9661605772, 9661605771, 3208415392], "tags": {"addr:city": "Madrid", "addr:country": "ES", "addr:housenumber": "13", "addr:postcode": "28012", "addr:street": "Calle de la Paz", "building": "yes", "layer": "1", "shop": "mall", "source": "PNOA", "source:date": "2009"}}]}